<?xml version="1.0" encoding="UTF-8"?>
<gpx version="1.1" creator="trailforks-komoot-gpx-chrome-extension komoot-adapter" xmlns="http://www.topografix.com/GPX/1/1" xmlns:xsi="http://www.w3.org/2001/XMLSchema-instance" xsi:schemaLocation="http://www.topografix.com/GPX/1/1 http://www.topografix.com/GPX/1/1/gpx.xsd">
  <metadata>
    <name>Along the Worbla – Emme Covered Bridge loop from Boll-Utzigen</name>
    <time>2026-08-12T07:10:02.309Z</time>
    <link href="https://www.komoot.com/smarttour/27200851"><text>Komoot source page</text></link>
  </metadata>
  <trk>
    <name>Along the Worbla – Emme Covered Bridge loop from Boll-Utzigen</name>
    <trkseg>
      <trkpt lat="46.9531670" lon="7.5473950"><ele>561.3</ele></trkpt>
      <trkpt lat="46.9536870" lon="7.5474790"><ele>562.8</ele></trkpt>
      <trkpt lat="46.9541740" lon="7.5475670"><ele>564.6</ele></trkpt>
      <trkpt lat="46.9542140" lon="7.5475730"><ele>564.7</ele></trkpt>
      <trkpt lat="46.9541640" lon="7.5481910"><ele>565.7</ele></trkpt>
      <trkpt lat="46.9541710" lon="7.5483750"><ele>565.8</ele></trkpt>
      <trkpt lat="46.9541310" lon="7.5485390"><ele>565.9</ele></trkpt>
      <trkpt lat="46.9540870" lon="7.5486380"><ele>565.9</ele></trkpt>
      <trkpt lat="46.9540970" lon="7.5487170"><ele>565.9</ele></trkpt>
      <trkpt lat="46.9539390" lon="7.5487700"><ele>566</ele></trkpt>
      <trkpt lat="46.9538520" lon="7.5487580"><ele>566</ele></trkpt>
      <trkpt lat="46.9534430" lon="7.5486470"><ele>565.8</ele></trkpt>
      <trkpt lat="46.9530520" lon="7.5486620"><ele>565.3</ele></trkpt>
      <trkpt lat="46.9529070" lon="7.5487250"><ele>565</ele></trkpt>
      <trkpt lat="46.9527070" lon="7.5488660"><ele>564.5</ele></trkpt>
      <trkpt lat="46.9514400" lon="7.5501620"><ele>563.7</ele></trkpt>
      <trkpt lat="46.9510660" lon="7.5505650"><ele>563.4</ele></trkpt>
      <trkpt lat="46.9508070" lon="7.5509490"><ele>563</ele></trkpt>
      <trkpt lat="46.9506260" lon="7.5505560"><ele>562.5</ele></trkpt>
      <trkpt lat="46.9504850" lon="7.5501450"><ele>562</ele></trkpt>
      <trkpt lat="46.9502250" lon="7.5494410"><ele>560.8</ele></trkpt>
      <trkpt lat="46.9500730" lon="7.5491800"><ele>560.3</ele></trkpt>
      <trkpt lat="46.9498270" lon="7.5489050"><ele>559.6</ele></trkpt>
      <trkpt lat="46.9496480" lon="7.5487550"><ele>559.1</ele></trkpt>
      <trkpt lat="46.9492060" lon="7.5485290"><ele>558.1</ele></trkpt>
      <trkpt lat="46.9490100" lon="7.5484060"><ele>557.7</ele></trkpt>
      <trkpt lat="46.9489310" lon="7.5483160"><ele>557.5</ele></trkpt>
      <trkpt lat="46.9487970" lon="7.5480900"><ele>557.1</ele></trkpt>
      <trkpt lat="46.9485190" lon="7.5473280"><ele>555.9</ele></trkpt>
      <trkpt lat="46.9484000" lon="7.5471040"><ele>555.6</ele></trkpt>
      <trkpt lat="46.9477280" lon="7.5462020"><ele>556</ele></trkpt>
      <trkpt lat="46.9474850" lon="7.5456790"><ele>557.7</ele></trkpt>
      <trkpt lat="46.9474150" lon="7.5455810"><ele>558</ele></trkpt>
      <trkpt lat="46.9472780" lon="7.5454870"><ele>558.7</ele></trkpt>
      <trkpt lat="46.9471150" lon="7.5454680"><ele>559.3</ele></trkpt>
      <trkpt lat="46.9470070" lon="7.5454860"><ele>559.8</ele></trkpt>
      <trkpt lat="46.9468020" lon="7.5455400"><ele>560.7</ele></trkpt>
      <trkpt lat="46.9466490" lon="7.5454860"><ele>561.2</ele></trkpt>
      <trkpt lat="46.9463250" lon="7.5465240"><ele>562.4</ele></trkpt>
      <trkpt lat="46.9461640" lon="7.5468930"><ele>561.6</ele></trkpt>
      <trkpt lat="46.9456300" lon="7.5477610"><ele>559.1</ele></trkpt>
      <trkpt lat="46.9451190" lon="7.5483030"><ele>557.8</ele></trkpt>
      <trkpt lat="46.9440510" lon="7.5490710"><ele>557.6</ele></trkpt>
      <trkpt lat="46.9426660" lon="7.5497050"><ele>557.6</ele></trkpt>
      <trkpt lat="46.9417490" lon="7.5501660"><ele>557.6</ele></trkpt>
      <trkpt lat="46.9416690" lon="7.5502770"><ele>557.6</ele></trkpt>
      <trkpt lat="46.9415930" lon="7.5507450"><ele>557.7</ele></trkpt>
      <trkpt lat="46.9405390" lon="7.5508230"><ele>558.4</ele></trkpt>
      <trkpt lat="46.9403060" lon="7.5508720"><ele>558.6</ele></trkpt>
      <trkpt lat="46.9388540" lon="7.5513250"><ele>560</ele></trkpt>
      <trkpt lat="46.9384900" lon="7.5514670"><ele>560.4</ele></trkpt>
      <trkpt lat="46.9380490" lon="7.5515890"><ele>560.8</ele></trkpt>
      <trkpt lat="46.9370690" lon="7.5517380"><ele>562</ele></trkpt>
      <trkpt lat="46.9368250" lon="7.5518140"><ele>562.3</ele></trkpt>
      <trkpt lat="46.9361180" lon="7.5522800"><ele>563.3</ele></trkpt>
      <trkpt lat="46.9357330" lon="7.5524860"><ele>563.9</ele></trkpt>
      <trkpt lat="46.9353450" lon="7.5526500"><ele>564.3</ele></trkpt>
      <trkpt lat="46.9353430" lon="7.5525150"><ele>564.5</ele></trkpt>
      <trkpt lat="46.9353450" lon="7.5526500"><ele>564.6</ele></trkpt>
      <trkpt lat="46.9351670" lon="7.5527500"><ele>564.8</ele></trkpt>
      <trkpt lat="46.9349330" lon="7.5528250"><ele>565</ele></trkpt>
      <trkpt lat="46.9342050" lon="7.5533090"><ele>565.9</ele></trkpt>
      <trkpt lat="46.9336280" lon="7.5535720"><ele>566.8</ele></trkpt>
      <trkpt lat="46.9325260" lon="7.5542690"><ele>568.9</ele></trkpt>
      <trkpt lat="46.9316350" lon="7.5550610"><ele>571</ele></trkpt>
      <trkpt lat="46.9315700" lon="7.5551600"><ele>571.2</ele></trkpt>
      <trkpt lat="46.9315080" lon="7.5554670"><ele>571.4</ele></trkpt>
      <trkpt lat="46.9314230" lon="7.5556100"><ele>571.5</ele></trkpt>
      <trkpt lat="46.9314130" lon="7.5557240"><ele>571.6</ele></trkpt>
      <trkpt lat="46.9315960" lon="7.5567380"><ele>572.4</ele></trkpt>
      <trkpt lat="46.9316050" lon="7.5569150"><ele>572.5</ele></trkpt>
      <trkpt lat="46.9316180" lon="7.5571470"><ele>572.7</ele></trkpt>
      <trkpt lat="46.9312580" lon="7.5572930"><ele>573.1</ele></trkpt>
      <trkpt lat="46.9309520" lon="7.5574200"><ele>573.5</ele></trkpt>
      <trkpt lat="46.9307760" lon="7.5575010"><ele>573.8</ele></trkpt>
      <trkpt lat="46.9305660" lon="7.5575990"><ele>574.3</ele></trkpt>
      <trkpt lat="46.9302060" lon="7.5577380"><ele>575</ele></trkpt>
      <trkpt lat="46.9301190" lon="7.5577430"><ele>575.1</ele></trkpt>
      <trkpt lat="46.9296870" lon="7.5576470"><ele>575.7</ele></trkpt>
      <trkpt lat="46.9296060" lon="7.5576470"><ele>575.8</ele></trkpt>
      <trkpt lat="46.9295880" lon="7.5580270"><ele>576.1</ele></trkpt>
      <trkpt lat="46.9294840" lon="7.5583470"><ele>576.4</ele></trkpt>
      <trkpt lat="46.9294170" lon="7.5584900"><ele>576.6</ele></trkpt>
      <trkpt lat="46.9292680" lon="7.5588330"><ele>577.1</ele></trkpt>
      <trkpt lat="46.9292050" lon="7.5589760"><ele>577.3</ele></trkpt>
      <trkpt lat="46.9290670" lon="7.5593080"><ele>577.9</ele></trkpt>
      <trkpt lat="46.9287610" lon="7.5599880"><ele>579.3</ele></trkpt>
      <trkpt lat="46.9283950" lon="7.5608160"><ele>580.7</ele></trkpt>
      <trkpt lat="46.9282280" lon="7.5612610"><ele>581.2</ele></trkpt>
      <trkpt lat="46.9281540" lon="7.5616210"><ele>581.5</ele></trkpt>
      <trkpt lat="46.9281220" lon="7.5617490"><ele>581.6</ele></trkpt>
      <trkpt lat="46.9280060" lon="7.5620860"><ele>581.8</ele></trkpt>
      <trkpt lat="46.9278320" lon="7.5624950"><ele>582</ele></trkpt>
      <trkpt lat="46.9277100" lon="7.5627150"><ele>582.1</ele></trkpt>
      <trkpt lat="46.9275410" lon="7.5628920"><ele>582.2</ele></trkpt>
      <trkpt lat="46.9270960" lon="7.5632070"><ele>582.5</ele></trkpt>
      <trkpt lat="46.9268630" lon="7.5634310"><ele>582.9</ele></trkpt>
      <trkpt lat="46.9266790" lon="7.5637010"><ele>583.3</ele></trkpt>
      <trkpt lat="46.9265200" lon="7.5639910"><ele>583.6</ele></trkpt>
      <trkpt lat="46.9264710" lon="7.5640900"><ele>583.7</ele></trkpt>
      <trkpt lat="46.9263650" lon="7.5640880"><ele>583.9</ele></trkpt>
      <trkpt lat="46.9263130" lon="7.5641610"><ele>584</ele></trkpt>
      <trkpt lat="46.9263010" lon="7.5642650"><ele>584.1</ele></trkpt>
      <trkpt lat="46.9263160" lon="7.5643290"><ele>584.1</ele></trkpt>
      <trkpt lat="46.9263880" lon="7.5644080"><ele>584.2</ele></trkpt>
      <trkpt lat="46.9263500" lon="7.5645320"><ele>584.4</ele></trkpt>
      <trkpt lat="46.9262640" lon="7.5647880"><ele>584.6</ele></trkpt>
      <trkpt lat="46.9261510" lon="7.5651240"><ele>584.9</ele></trkpt>
      <trkpt lat="46.9261250" lon="7.5652020"><ele>585</ele></trkpt>
      <trkpt lat="46.9260710" lon="7.5653640"><ele>585.2</ele></trkpt>
      <trkpt lat="46.9257700" lon="7.5661500"><ele>586.1</ele></trkpt>
      <trkpt lat="46.9254370" lon="7.5671130"><ele>587</ele></trkpt>
      <trkpt lat="46.9249310" lon="7.5689260"><ele>589.2</ele></trkpt>
      <trkpt lat="46.9248520" lon="7.5692230"><ele>589.7</ele></trkpt>
      <trkpt lat="46.9248250" lon="7.5693930"><ele>590.1</ele></trkpt>
      <trkpt lat="46.9247250" lon="7.5694110"><ele>590.4</ele></trkpt>
      <trkpt lat="46.9246760" lon="7.5694640"><ele>590.6</ele></trkpt>
      <trkpt lat="46.9244630" lon="7.5700810"><ele>592.2</ele></trkpt>
      <trkpt lat="46.9242900" lon="7.5704220"><ele>593.3</ele></trkpt>
      <trkpt lat="46.9241420" lon="7.5706310"><ele>594.3</ele></trkpt>
      <trkpt lat="46.9238070" lon="7.5709810"><ele>596.3</ele></trkpt>
      <trkpt lat="46.9235750" lon="7.5712160"><ele>597.6</ele></trkpt>
      <trkpt lat="46.9235270" lon="7.5712710"><ele>597.9</ele></trkpt>
      <trkpt lat="46.9231720" lon="7.5716800"><ele>599.5</ele></trkpt>
      <trkpt lat="46.9229150" lon="7.5720680"><ele>600.7</ele></trkpt>
      <trkpt lat="46.9226290" lon="7.5725800"><ele>601.8</ele></trkpt>
      <trkpt lat="46.9218180" lon="7.5736370"><ele>604.6</ele></trkpt>
      <trkpt lat="46.9217480" lon="7.5737370"><ele>605</ele></trkpt>
      <trkpt lat="46.9203090" lon="7.5772980"><ele>620.3</ele></trkpt>
      <trkpt lat="46.9198570" lon="7.5782070"><ele>621</ele></trkpt>
      <trkpt lat="46.9191030" lon="7.5793210"><ele>620.4</ele></trkpt>
      <trkpt lat="46.9183390" lon="7.5801620"><ele>621.8</ele></trkpt>
      <trkpt lat="46.9182730" lon="7.5802470"><ele>622.1</ele></trkpt>
      <trkpt lat="46.9182530" lon="7.5803650"><ele>622.4</ele></trkpt>
      <trkpt lat="46.9182680" lon="7.5804790"><ele>622.8</ele></trkpt>
      <trkpt lat="46.9183290" lon="7.5806270"><ele>623.3</ele></trkpt>
      <trkpt lat="46.9183850" lon="7.5806960"><ele>623.6</ele></trkpt>
      <trkpt lat="46.9185930" lon="7.5809980"><ele>624.8</ele></trkpt>
      <trkpt lat="46.9186980" lon="7.5812160"><ele>625.6</ele></trkpt>
      <trkpt lat="46.9187510" lon="7.5814290"><ele>626.3</ele></trkpt>
      <trkpt lat="46.9187830" lon="7.5817780"><ele>627.5</ele></trkpt>
      <trkpt lat="46.9187670" lon="7.5823680"><ele>629.9</ele></trkpt>
      <trkpt lat="46.9188030" lon="7.5825820"><ele>630.8</ele></trkpt>
      <trkpt lat="46.9188840" lon="7.5827910"><ele>631.6</ele></trkpt>
      <trkpt lat="46.9187160" lon="7.5829660"><ele>632.6</ele></trkpt>
      <trkpt lat="46.9185400" lon="7.5831720"><ele>633.6</ele></trkpt>
      <trkpt lat="46.9183520" lon="7.5834400"><ele>634.6</ele></trkpt>
      <trkpt lat="46.9181670" lon="7.5837960"><ele>635.8</ele></trkpt>
      <trkpt lat="46.9180580" lon="7.5840720"><ele>636.8</ele></trkpt>
      <trkpt lat="46.9179120" lon="7.5845620"><ele>638.2</ele></trkpt>
      <trkpt lat="46.9176490" lon="7.5853690"><ele>640.9</ele></trkpt>
      <trkpt lat="46.9175890" lon="7.5855810"><ele>641.7</ele></trkpt>
      <trkpt lat="46.9175130" lon="7.5860000"><ele>643.5</ele></trkpt>
      <trkpt lat="46.9174830" lon="7.5863660"><ele>645.2</ele></trkpt>
      <trkpt lat="46.9174880" lon="7.5867780"><ele>647</ele></trkpt>
      <trkpt lat="46.9175970" lon="7.5876690"><ele>650.6</ele></trkpt>
      <trkpt lat="46.9180700" lon="7.5896500"><ele>655.9</ele></trkpt>
      <trkpt lat="46.9181610" lon="7.5903580"><ele>657.2</ele></trkpt>
      <trkpt lat="46.9181850" lon="7.5910390"><ele>658.5</ele></trkpt>
      <trkpt lat="46.9181290" lon="7.5920320"><ele>660.6</ele></trkpt>
      <trkpt lat="46.9176050" lon="7.5979780"><ele>677.1</ele></trkpt>
      <trkpt lat="46.9175270" lon="7.5995350"><ele>683.3</ele></trkpt>
      <trkpt lat="46.9175160" lon="7.6000830"><ele>685.5</ele></trkpt>
      <trkpt lat="46.9175230" lon="7.6011530"><ele>689.4</ele></trkpt>
      <trkpt lat="46.9175750" lon="7.6023240"><ele>694.1</ele></trkpt>
      <trkpt lat="46.9175900" lon="7.6025470"><ele>695</ele></trkpt>
      <trkpt lat="46.9177150" lon="7.6039230"><ele>700.8</ele></trkpt>
      <trkpt lat="46.9178700" lon="7.6055670"><ele>706.6</ele></trkpt>
      <trkpt lat="46.9178980" lon="7.6061040"><ele>708.2</ele></trkpt>
      <trkpt lat="46.9178930" lon="7.6071880"><ele>711.5</ele></trkpt>
      <trkpt lat="46.9178180" lon="7.6082390"><ele>715</ele></trkpt>
      <trkpt lat="46.9176520" lon="7.6094020"><ele>719.1</ele></trkpt>
      <trkpt lat="46.9173110" lon="7.6112790"><ele>726.8</ele></trkpt>
      <trkpt lat="46.9172500" lon="7.6117350"><ele>728.7</ele></trkpt>
      <trkpt lat="46.9171450" lon="7.6127170"><ele>732.3</ele></trkpt>
      <trkpt lat="46.9169800" lon="7.6149190"><ele>735.8</ele></trkpt>
      <trkpt lat="46.9168550" lon="7.6159800"><ele>736.5</ele></trkpt>
      <trkpt lat="46.9167420" lon="7.6166860"><ele>737.1</ele></trkpt>
      <trkpt lat="46.9163980" lon="7.6180510"><ele>738.9</ele></trkpt>
      <trkpt lat="46.9162450" lon="7.6185060"><ele>739.4</ele></trkpt>
      <trkpt lat="46.9161090" lon="7.6189090"><ele>739.5</ele></trkpt>
      <trkpt lat="46.9157810" lon="7.6197080"><ele>739.4</ele></trkpt>
      <trkpt lat="46.9155280" lon="7.6202230"><ele>739.2</ele></trkpt>
      <trkpt lat="46.9149630" lon="7.6211650"><ele>739.3</ele></trkpt>
      <trkpt lat="46.9145470" lon="7.6217970"><ele>739.8</ele></trkpt>
      <trkpt lat="46.9118070" lon="7.6257290"><ele>742.8</ele></trkpt>
      <trkpt lat="46.9114000" lon="7.6264840"><ele>744.4</ele></trkpt>
      <trkpt lat="46.9110610" lon="7.6273170"><ele>747.3</ele></trkpt>
      <trkpt lat="46.9110000" lon="7.6274900"><ele>747.9</ele></trkpt>
      <trkpt lat="46.9108370" lon="7.6281540"><ele>750.6</ele></trkpt>
      <trkpt lat="46.9107580" lon="7.6286460"><ele>753</ele></trkpt>
      <trkpt lat="46.9106550" lon="7.6292760"><ele>756.5</ele></trkpt>
      <trkpt lat="46.9106260" lon="7.6295860"><ele>758.2</ele></trkpt>
      <trkpt lat="46.9105030" lon="7.6308990"><ele>765</ele></trkpt>
      <trkpt lat="46.9104750" lon="7.6311950"><ele>766.3</ele></trkpt>
      <trkpt lat="46.9103960" lon="7.6319290"><ele>768.7</ele></trkpt>
      <trkpt lat="46.9103770" lon="7.6320710"><ele>768.9</ele></trkpt>
      <trkpt lat="46.9103640" lon="7.6321640"><ele>769.1</ele></trkpt>
      <trkpt lat="46.9103170" lon="7.6325060"><ele>769.4</ele></trkpt>
      <trkpt lat="46.9102530" lon="7.6325270"><ele>769.3</ele></trkpt>
      <trkpt lat="46.9102080" lon="7.6325960"><ele>769.3</ele></trkpt>
      <trkpt lat="46.9101950" lon="7.6326810"><ele>769.3</ele></trkpt>
      <trkpt lat="46.9102130" lon="7.6327640"><ele>769.2</ele></trkpt>
      <trkpt lat="46.9100270" lon="7.6330530"><ele>768.9</ele></trkpt>
      <trkpt lat="46.9099650" lon="7.6331580"><ele>768.7</ele></trkpt>
      <trkpt lat="46.9097710" lon="7.6334870"><ele>768</ele></trkpt>
      <trkpt lat="46.9096500" lon="7.6338660"><ele>767.2</ele></trkpt>
      <trkpt lat="46.9095660" lon="7.6343750"><ele>766.1</ele></trkpt>
      <trkpt lat="46.9095250" lon="7.6346560"><ele>765.4</ele></trkpt>
      <trkpt lat="46.9094300" lon="7.6352740"><ele>763.9</ele></trkpt>
      <trkpt lat="46.9093740" lon="7.6355030"><ele>763.4</ele></trkpt>
      <trkpt lat="46.9093390" lon="7.6355980"><ele>763.3</ele></trkpt>
      <trkpt lat="46.9092940" lon="7.6356990"><ele>763</ele></trkpt>
      <trkpt lat="46.9091850" lon="7.6358820"><ele>762.6</ele></trkpt>
      <trkpt lat="46.9089720" lon="7.6361410"><ele>761.7</ele></trkpt>
      <trkpt lat="46.9083530" lon="7.6367450"><ele>758.6</ele></trkpt>
      <trkpt lat="46.9083070" lon="7.6367860"><ele>758.3</ele></trkpt>
      <trkpt lat="46.9082410" lon="7.6368450"><ele>757.9</ele></trkpt>
      <trkpt lat="46.9076390" lon="7.6373850"><ele>753.9</ele></trkpt>
      <trkpt lat="46.9076080" lon="7.6374120"><ele>753.7</ele></trkpt>
      <trkpt lat="46.9071700" lon="7.6376190"><ele>751.3</ele></trkpt>
      <trkpt lat="46.9070390" lon="7.6377170"><ele>750.6</ele></trkpt>
      <trkpt lat="46.9068340" lon="7.6378960"><ele>749.6</ele></trkpt>
      <trkpt lat="46.9068120" lon="7.6378590"><ele>749.5</ele></trkpt>
      <trkpt lat="46.9067490" lon="7.6378290"><ele>749.2</ele></trkpt>
      <trkpt lat="46.9066880" lon="7.6378660"><ele>749</ele></trkpt>
      <trkpt lat="46.9066610" lon="7.6379990"><ele>748.6</ele></trkpt>
      <trkpt lat="46.9066970" lon="7.6380790"><ele>748.3</ele></trkpt>
      <trkpt lat="46.9066430" lon="7.6382040"><ele>748</ele></trkpt>
      <trkpt lat="46.9065820" lon="7.6384200"><ele>747.4</ele></trkpt>
      <trkpt lat="46.9064140" lon="7.6392020"><ele>746</ele></trkpt>
      <trkpt lat="46.9062910" lon="7.6396290"><ele>745.6</ele></trkpt>
      <trkpt lat="46.9062350" lon="7.6398300"><ele>745.5</ele></trkpt>
      <trkpt lat="46.9061650" lon="7.6401100"><ele>745.3</ele></trkpt>
      <trkpt lat="46.9060500" lon="7.6405180"><ele>745.2</ele></trkpt>
      <trkpt lat="46.9057480" lon="7.6413140"><ele>744.9</ele></trkpt>
      <trkpt lat="46.9056970" lon="7.6414810"><ele>745</ele></trkpt>
      <trkpt lat="46.9056740" lon="7.6415540"><ele>745</ele></trkpt>
      <trkpt lat="46.9055910" lon="7.6418550"><ele>745.2</ele></trkpt>
      <trkpt lat="46.9054660" lon="7.6421720"><ele>745.4</ele></trkpt>
      <trkpt lat="46.9054200" lon="7.6422580"><ele>745.4</ele></trkpt>
      <trkpt lat="46.9053220" lon="7.6424380"><ele>745.6</ele></trkpt>
      <trkpt lat="46.9051270" lon="7.6427780"><ele>745.8</ele></trkpt>
      <trkpt lat="46.9046910" lon="7.6435540"><ele>745.3</ele></trkpt>
      <trkpt lat="46.9045690" lon="7.6437810"><ele>744.9</ele></trkpt>
      <trkpt lat="46.9044600" lon="7.6439730"><ele>744.4</ele></trkpt>
      <trkpt lat="46.9043990" lon="7.6440800"><ele>744.1</ele></trkpt>
      <trkpt lat="46.9038000" lon="7.6437870"><ele>741.6</ele></trkpt>
      <trkpt lat="46.9034900" lon="7.6436580"><ele>740.3</ele></trkpt>
      <trkpt lat="46.9030200" lon="7.6436110"><ele>738.9</ele></trkpt>
      <trkpt lat="46.9023570" lon="7.6437600"><ele>738.7</ele></trkpt>
      <trkpt lat="46.9019400" lon="7.6444210"><ele>739.4</ele></trkpt>
      <trkpt lat="46.9016760" lon="7.6450400"><ele>740</ele></trkpt>
      <trkpt lat="46.9015540" lon="7.6452560"><ele>740.2</ele></trkpt>
      <trkpt lat="46.9014030" lon="7.6454300"><ele>740.3</ele></trkpt>
      <trkpt lat="46.9011670" lon="7.6455560"><ele>740.2</ele></trkpt>
      <trkpt lat="46.9002390" lon="7.6459820"><ele>738.4</ele></trkpt>
      <trkpt lat="46.8998500" lon="7.6459800"><ele>738.6</ele></trkpt>
      <trkpt lat="46.8996320" lon="7.6459770"><ele>738.6</ele></trkpt>
      <trkpt lat="46.8998500" lon="7.6459800"><ele>738.7</ele></trkpt>
      <trkpt lat="46.9002390" lon="7.6459820"><ele>738.6</ele></trkpt>
      <trkpt lat="46.9001960" lon="7.6461180"><ele>738.6</ele></trkpt>
      <trkpt lat="46.9000940" lon="7.6474120"><ele>739.1</ele></trkpt>
      <trkpt lat="46.8999260" lon="7.6502640"><ele>734.1</ele></trkpt>
      <trkpt lat="46.8999770" lon="7.6508300"><ele>733.3</ele></trkpt>
      <trkpt lat="46.9000060" lon="7.6522430"><ele>730.9</ele></trkpt>
      <trkpt lat="46.9000540" lon="7.6523510"><ele>730.6</ele></trkpt>
      <trkpt lat="46.9003020" lon="7.6526300"><ele>729.4</ele></trkpt>
      <trkpt lat="46.9004530" lon="7.6526480"><ele>728.7</ele></trkpt>
      <trkpt lat="46.9005930" lon="7.6525620"><ele>728.1</ele></trkpt>
      <trkpt lat="46.9007350" lon="7.6523810"><ele>727</ele></trkpt>
      <trkpt lat="46.9008930" lon="7.6520860"><ele>725.4</ele></trkpt>
      <trkpt lat="46.9011800" lon="7.6512230"><ele>720.2</ele></trkpt>
      <trkpt lat="46.9012970" lon="7.6512010"><ele>719.2</ele></trkpt>
      <trkpt lat="46.9013960" lon="7.6512330"><ele>718.3</ele></trkpt>
      <trkpt lat="46.9014760" lon="7.6513090"><ele>717.4</ele></trkpt>
      <trkpt lat="46.9015360" lon="7.6514380"><ele>716.5</ele></trkpt>
      <trkpt lat="46.9016220" lon="7.6521960"><ele>711.6</ele></trkpt>
      <trkpt lat="46.9018210" lon="7.6528850"><ele>707.3</ele></trkpt>
      <trkpt lat="46.9020200" lon="7.6535330"><ele>704.6</ele></trkpt>
      <trkpt lat="46.9022210" lon="7.6539660"><ele>703.5</ele></trkpt>
      <trkpt lat="46.9022980" lon="7.6544520"><ele>703.1</ele></trkpt>
      <trkpt lat="46.9023950" lon="7.6547070"><ele>703.1</ele></trkpt>
      <trkpt lat="46.9023920" lon="7.6548480"><ele>703.1</ele></trkpt>
      <trkpt lat="46.9026070" lon="7.6550560"><ele>703.4</ele></trkpt>
      <trkpt lat="46.9027320" lon="7.6552700"><ele>703.5</ele></trkpt>
      <trkpt lat="46.9028540" lon="7.6553900"><ele>703.6</ele></trkpt>
      <trkpt lat="46.9027130" lon="7.6556650"><ele>703.5</ele></trkpt>
      <trkpt lat="46.9024660" lon="7.6562370"><ele>702.4</ele></trkpt>
      <trkpt lat="46.9023460" lon="7.6566440"><ele>700.9</ele></trkpt>
      <trkpt lat="46.9021350" lon="7.6573850"><ele>697.6</ele></trkpt>
      <trkpt lat="46.9020350" lon="7.6579240"><ele>695.3</ele></trkpt>
      <trkpt lat="46.9020130" lon="7.6584920"><ele>692.9</ele></trkpt>
      <trkpt lat="46.9020690" lon="7.6590960"><ele>691</ele></trkpt>
      <trkpt lat="46.9020880" lon="7.6592460"><ele>690.5</ele></trkpt>
      <trkpt lat="46.9020950" lon="7.6593040"><ele>690.4</ele></trkpt>
      <trkpt lat="46.9021180" lon="7.6596750"><ele>689.5</ele></trkpt>
      <trkpt lat="46.9020590" lon="7.6602710"><ele>688.2</ele></trkpt>
      <trkpt lat="46.9020040" lon="7.6607020"><ele>687.4</ele></trkpt>
      <trkpt lat="46.9019390" lon="7.6611540"><ele>686.5</ele></trkpt>
      <trkpt lat="46.9019080" lon="7.6612780"><ele>686.3</ele></trkpt>
      <trkpt lat="46.9018540" lon="7.6612630"><ele>686.1</ele></trkpt>
      <trkpt lat="46.9017910" lon="7.6613330"><ele>685.9</ele></trkpt>
      <trkpt lat="46.9017890" lon="7.6614240"><ele>685.7</ele></trkpt>
      <trkpt lat="46.9017990" lon="7.6614520"><ele>685.7</ele></trkpt>
      <trkpt lat="46.9018740" lon="7.6615030"><ele>685.5</ele></trkpt>
      <trkpt lat="46.9018840" lon="7.6616620"><ele>685.2</ele></trkpt>
      <trkpt lat="46.9018660" lon="7.6619390"><ele>684.8</ele></trkpt>
      <trkpt lat="46.9018520" lon="7.6622000"><ele>684.5</ele></trkpt>
      <trkpt lat="46.9018750" lon="7.6628160"><ele>683.9</ele></trkpt>
      <trkpt lat="46.9019660" lon="7.6633890"><ele>683.5</ele></trkpt>
      <trkpt lat="46.9020560" lon="7.6637930"><ele>683.1</ele></trkpt>
      <trkpt lat="46.9021620" lon="7.6643060"><ele>682.7</ele></trkpt>
      <trkpt lat="46.9023430" lon="7.6652600"><ele>681.9</ele></trkpt>
      <trkpt lat="46.9024450" lon="7.6661470"><ele>681.6</ele></trkpt>
      <trkpt lat="46.9024840" lon="7.6667920"><ele>681.7</ele></trkpt>
      <trkpt lat="46.9024880" lon="7.6674110"><ele>682</ele></trkpt>
      <trkpt lat="46.9024280" lon="7.6684110"><ele>683</ele></trkpt>
      <trkpt lat="46.9021510" lon="7.6702840"><ele>684.6</ele></trkpt>
      <trkpt lat="46.9018810" lon="7.6719870"><ele>684.8</ele></trkpt>
      <trkpt lat="46.9018370" lon="7.6724260"><ele>684.8</ele></trkpt>
      <trkpt lat="46.9018190" lon="7.6729680"><ele>685</ele></trkpt>
      <trkpt lat="46.9018440" lon="7.6736120"><ele>685.2</ele></trkpt>
      <trkpt lat="46.9019610" lon="7.6747290"><ele>686.2</ele></trkpt>
      <trkpt lat="46.9019750" lon="7.6752920"><ele>687.2</ele></trkpt>
      <trkpt lat="46.9019100" lon="7.6762090"><ele>689.3</ele></trkpt>
      <trkpt lat="46.9017550" lon="7.6770180"><ele>691.6</ele></trkpt>
      <trkpt lat="46.9016270" lon="7.6774740"><ele>692.9</ele></trkpt>
      <trkpt lat="46.9012380" lon="7.6786910"><ele>695.8</ele></trkpt>
      <trkpt lat="46.9009530" lon="7.6796890"><ele>697.5</ele></trkpt>
      <trkpt lat="46.9007510" lon="7.6804800"><ele>698.1</ele></trkpt>
      <trkpt lat="46.9006850" lon="7.6807640"><ele>698.2</ele></trkpt>
      <trkpt lat="46.9006250" lon="7.6810140"><ele>698.2</ele></trkpt>
      <trkpt lat="46.9005570" lon="7.6813180"><ele>698.2</ele></trkpt>
      <trkpt lat="46.9004270" lon="7.6819140"><ele>697.9</ele></trkpt>
      <trkpt lat="46.9003600" lon="7.6822080"><ele>697.5</ele></trkpt>
      <trkpt lat="46.9001890" lon="7.6831130"><ele>696.3</ele></trkpt>
      <trkpt lat="46.9001000" lon="7.6841450"><ele>695.7</ele></trkpt>
      <trkpt lat="46.9000960" lon="7.6847470"><ele>695.7</ele></trkpt>
      <trkpt lat="46.9001170" lon="7.6851170"><ele>695.7</ele></trkpt>
      <trkpt lat="46.9001740" lon="7.6857880"><ele>696</ele></trkpt>
      <trkpt lat="46.9002900" lon="7.6865610"><ele>696.7</ele></trkpt>
      <trkpt lat="46.9004960" lon="7.6879120"><ele>699.2</ele></trkpt>
      <trkpt lat="46.9005350" lon="7.6883190"><ele>700.2</ele></trkpt>
      <trkpt lat="46.9005640" lon="7.6889810"><ele>702</ele></trkpt>
      <trkpt lat="46.9005680" lon="7.6897920"><ele>704.2</ele></trkpt>
      <trkpt lat="46.9006000" lon="7.6909290"><ele>706.8</ele></trkpt>
      <trkpt lat="46.9005840" lon="7.6914380"><ele>707.5</ele></trkpt>
      <trkpt lat="46.9004650" lon="7.6925570"><ele>707.5</ele></trkpt>
      <trkpt lat="46.9003090" lon="7.6934160"><ele>706.9</ele></trkpt>
      <trkpt lat="46.9002770" lon="7.6937390"><ele>706.5</ele></trkpt>
      <trkpt lat="46.9002580" lon="7.6940210"><ele>706.2</ele></trkpt>
      <trkpt lat="46.9002760" lon="7.6944960"><ele>705.8</ele></trkpt>
      <trkpt lat="46.9003120" lon="7.6951600"><ele>705.6</ele></trkpt>
      <trkpt lat="46.9003130" lon="7.6952840"><ele>705.6</ele></trkpt>
      <trkpt lat="46.9002380" lon="7.6959970"><ele>705.7</ele></trkpt>
      <trkpt lat="46.9001890" lon="7.6962420"><ele>705.7</ele></trkpt>
      <trkpt lat="46.9001460" lon="7.6966870"><ele>705.8</ele></trkpt>
      <trkpt lat="46.9001730" lon="7.6971660"><ele>706.2</ele></trkpt>
      <trkpt lat="46.9002190" lon="7.6974110"><ele>706.3</ele></trkpt>
      <trkpt lat="46.9002950" lon="7.6977340"><ele>706.5</ele></trkpt>
      <trkpt lat="46.9004300" lon="7.6980680"><ele>706.6</ele></trkpt>
      <trkpt lat="46.9005430" lon="7.6982650"><ele>706.6</ele></trkpt>
      <trkpt lat="46.9007910" lon="7.6986290"><ele>706.7</ele></trkpt>
      <trkpt lat="46.9016830" lon="7.6995330"><ele>706.3</ele></trkpt>
      <trkpt lat="46.9020830" lon="7.6999600"><ele>705.3</ele></trkpt>
      <trkpt lat="46.9022650" lon="7.7002210"><ele>704.8</ele></trkpt>
      <trkpt lat="46.9023880" lon="7.7004550"><ele>704.5</ele></trkpt>
      <trkpt lat="46.9025370" lon="7.7008120"><ele>703.9</ele></trkpt>
      <trkpt lat="46.9026640" lon="7.7012460"><ele>703.3</ele></trkpt>
      <trkpt lat="46.9027370" lon="7.7016380"><ele>702.8</ele></trkpt>
      <trkpt lat="46.9028050" lon="7.7026040"><ele>702.4</ele></trkpt>
      <trkpt lat="46.9029030" lon="7.7037790"><ele>702.2</ele></trkpt>
      <trkpt lat="46.9030000" lon="7.7043440"><ele>702.1</ele></trkpt>
      <trkpt lat="46.9031200" lon="7.7048490"><ele>702</ele></trkpt>
      <trkpt lat="46.9032920" lon="7.7053870"><ele>702</ele></trkpt>
      <trkpt lat="46.9034650" lon="7.7058390"><ele>701.9</ele></trkpt>
      <trkpt lat="46.9036810" lon="7.7062980"><ele>701.9</ele></trkpt>
      <trkpt lat="46.9039150" lon="7.7067240"><ele>701.8</ele></trkpt>
      <trkpt lat="46.9044250" lon="7.7075540"><ele>701.5</ele></trkpt>
      <trkpt lat="46.9047400" lon="7.7080710"><ele>701.1</ele></trkpt>
      <trkpt lat="46.9049280" lon="7.7085830"><ele>700.9</ele></trkpt>
      <trkpt lat="46.9049240" lon="7.7086950"><ele>700.8</ele></trkpt>
      <trkpt lat="46.9048640" lon="7.7089000"><ele>700.7</ele></trkpt>
      <trkpt lat="46.9048600" lon="7.7089880"><ele>700.7</ele></trkpt>
      <trkpt lat="46.9048860" lon="7.7091400"><ele>700.7</ele></trkpt>
      <trkpt lat="46.9049420" lon="7.7092520"><ele>700.6</ele></trkpt>
      <trkpt lat="46.9053780" lon="7.7101530"><ele>701</ele></trkpt>
      <trkpt lat="46.9055290" lon="7.7104110"><ele>701.4</ele></trkpt>
      <trkpt lat="46.9056900" lon="7.7105420"><ele>701.8</ele></trkpt>
      <trkpt lat="46.9059010" lon="7.7105610"><ele>702.2</ele></trkpt>
      <trkpt lat="46.9061090" lon="7.7105290"><ele>702.6</ele></trkpt>
      <trkpt lat="46.9062620" lon="7.7105410"><ele>702.9</ele></trkpt>
      <trkpt lat="46.9063750" lon="7.7107210"><ele>703.2</ele></trkpt>
      <trkpt lat="46.9065650" lon="7.7110160"><ele>703.7</ele></trkpt>
      <trkpt lat="46.9068510" lon="7.7114380"><ele>704</ele></trkpt>
      <trkpt lat="46.9070420" lon="7.7116590"><ele>704.1</ele></trkpt>
      <trkpt lat="46.9072640" lon="7.7118600"><ele>704.2</ele></trkpt>
      <trkpt lat="46.9071400" lon="7.7121130"><ele>704</ele></trkpt>
      <trkpt lat="46.9070720" lon="7.7122840"><ele>704</ele></trkpt>
      <trkpt lat="46.9069770" lon="7.7125130"><ele>703.9</ele></trkpt>
      <trkpt lat="46.9066390" lon="7.7122340"><ele>703.7</ele></trkpt>
      <trkpt lat="46.9065900" lon="7.7121920"><ele>703.7</ele></trkpt>
      <trkpt lat="46.9065020" lon="7.7120970"><ele>703.6</ele></trkpt>
      <trkpt lat="46.9065900" lon="7.7121920"><ele>703.4</ele></trkpt>
      <trkpt lat="46.9066390" lon="7.7122340"><ele>703.4</ele></trkpt>
      <trkpt lat="46.9069770" lon="7.7125130"><ele>703.1</ele></trkpt>
      <trkpt lat="46.9071190" lon="7.7126830"><ele>703</ele></trkpt>
      <trkpt lat="46.9073260" lon="7.7127020"><ele>702.8</ele></trkpt>
      <trkpt lat="46.9074820" lon="7.7127920"><ele>702.5</ele></trkpt>
      <trkpt lat="46.9083710" lon="7.7135800"><ele>700.7</ele></trkpt>
      <trkpt lat="46.9100550" lon="7.7150420"><ele>696.6</ele></trkpt>
      <trkpt lat="46.9108760" lon="7.7158130"><ele>694.7</ele></trkpt>
      <trkpt lat="46.9114560" lon="7.7165070"><ele>693.3</ele></trkpt>
      <trkpt lat="46.9123400" lon="7.7176890"><ele>691.8</ele></trkpt>
      <trkpt lat="46.9127060" lon="7.7182240"><ele>691.7</ele></trkpt>
      <trkpt lat="46.9131650" lon="7.7190070"><ele>691.3</ele></trkpt>
      <trkpt lat="46.9137990" lon="7.7197700"><ele>690.6</ele></trkpt>
      <trkpt lat="46.9138890" lon="7.7198080"><ele>690.5</ele></trkpt>
      <trkpt lat="46.9139790" lon="7.7197780"><ele>690.3</ele></trkpt>
      <trkpt lat="46.9140110" lon="7.7197790"><ele>690.2</ele></trkpt>
      <trkpt lat="46.9147340" lon="7.7207820"><ele>688</ele></trkpt>
      <trkpt lat="46.9151050" lon="7.7206530"><ele>687.1</ele></trkpt>
      <trkpt lat="46.9152950" lon="7.7206410"><ele>686.7</ele></trkpt>
      <trkpt lat="46.9155280" lon="7.7207250"><ele>686.2</ele></trkpt>
      <trkpt lat="46.9161160" lon="7.7210730"><ele>685.3</ele></trkpt>
      <trkpt lat="46.9163700" lon="7.7210630"><ele>685.2</ele></trkpt>
      <trkpt lat="46.9167180" lon="7.7211670"><ele>685.3</ele></trkpt>
      <trkpt lat="46.9173270" lon="7.7214470"><ele>685.4</ele></trkpt>
      <trkpt lat="46.9174020" lon="7.7214620"><ele>685.4</ele></trkpt>
      <trkpt lat="46.9174500" lon="7.7214050"><ele>685.4</ele></trkpt>
      <trkpt lat="46.9180350" lon="7.7222460"><ele>686.1</ele></trkpt>
      <trkpt lat="46.9186650" lon="7.7231430"><ele>687.1</ele></trkpt>
      <trkpt lat="46.9190320" lon="7.7236900"><ele>688.1</ele></trkpt>
      <trkpt lat="46.9192320" lon="7.7238810"><ele>688.5</ele></trkpt>
      <trkpt lat="46.9195600" lon="7.7241110"><ele>688.7</ele></trkpt>
      <trkpt lat="46.9196720" lon="7.7241780"><ele>688.6</ele></trkpt>
      <trkpt lat="46.9198470" lon="7.7243000"><ele>688.6</ele></trkpt>
      <trkpt lat="46.9200040" lon="7.7245070"><ele>688.5</ele></trkpt>
      <trkpt lat="46.9205540" lon="7.7254670"><ele>686.6</ele></trkpt>
      <trkpt lat="46.9206370" lon="7.7256800"><ele>686.2</ele></trkpt>
      <trkpt lat="46.9208420" lon="7.7262090"><ele>685.4</ele></trkpt>
      <trkpt lat="46.9209650" lon="7.7264960"><ele>685.2</ele></trkpt>
      <trkpt lat="46.9211800" lon="7.7268800"><ele>685.1</ele></trkpt>
      <trkpt lat="46.9212820" lon="7.7269960"><ele>685.1</ele></trkpt>
      <trkpt lat="46.9215440" lon="7.7271970"><ele>685.3</ele></trkpt>
      <trkpt lat="46.9219760" lon="7.7276880"><ele>686.3</ele></trkpt>
      <trkpt lat="46.9221180" lon="7.7278560"><ele>686.6</ele></trkpt>
      <trkpt lat="46.9228640" lon="7.7287160"><ele>687.9</ele></trkpt>
      <trkpt lat="46.9228890" lon="7.7287460"><ele>687.9</ele></trkpt>
      <trkpt lat="46.9234100" lon="7.7294210"><ele>687.7</ele></trkpt>
      <trkpt lat="46.9240520" lon="7.7304330"><ele>686.2</ele></trkpt>
      <trkpt lat="46.9243120" lon="7.7307880"><ele>685.4</ele></trkpt>
      <trkpt lat="46.9247370" lon="7.7312670"><ele>683.9</ele></trkpt>
      <trkpt lat="46.9247670" lon="7.7313000"><ele>683.7</ele></trkpt>
      <trkpt lat="46.9254470" lon="7.7319980"><ele>680.2</ele></trkpt>
      <trkpt lat="46.9255610" lon="7.7321580"><ele>679.5</ele></trkpt>
      <trkpt lat="46.9256500" lon="7.7323640"><ele>678.7</ele></trkpt>
      <trkpt lat="46.9258600" lon="7.7328910"><ele>676.8</ele></trkpt>
      <trkpt lat="46.9261520" lon="7.7334940"><ele>674.7</ele></trkpt>
      <trkpt lat="46.9264930" lon="7.7339700"><ele>673.2</ele></trkpt>
      <trkpt lat="46.9268430" lon="7.7343110"><ele>672.4</ele></trkpt>
      <trkpt lat="46.9271820" lon="7.7345490"><ele>671.7</ele></trkpt>
      <trkpt lat="46.9274620" lon="7.7346260"><ele>671.2</ele></trkpt>
      <trkpt lat="46.9279780" lon="7.7346660"><ele>670.1</ele></trkpt>
      <trkpt lat="46.9280970" lon="7.7346780"><ele>669.8</ele></trkpt>
      <trkpt lat="46.9283330" lon="7.7347370"><ele>669.4</ele></trkpt>
      <trkpt lat="46.9285050" lon="7.7348510"><ele>669</ele></trkpt>
      <trkpt lat="46.9287030" lon="7.7351030"><ele>668.5</ele></trkpt>
      <trkpt lat="46.9288210" lon="7.7353530"><ele>668.1</ele></trkpt>
      <trkpt lat="46.9288710" lon="7.7355060"><ele>667.9</ele></trkpt>
      <trkpt lat="46.9290030" lon="7.7363130"><ele>667.2</ele></trkpt>
      <trkpt lat="46.9290940" lon="7.7367000"><ele>666.8</ele></trkpt>
      <trkpt lat="46.9291820" lon="7.7369040"><ele>666.6</ele></trkpt>
      <trkpt lat="46.9292030" lon="7.7369370"><ele>666.5</ele></trkpt>
      <trkpt lat="46.9290750" lon="7.7370340"><ele>666.3</ele></trkpt>
      <trkpt lat="46.9290350" lon="7.7370580"><ele>666.3</ele></trkpt>
      <trkpt lat="46.9290750" lon="7.7370340"><ele>666.2</ele></trkpt>
      <trkpt lat="46.9292030" lon="7.7369370"><ele>666</ele></trkpt>
      <trkpt lat="46.9291820" lon="7.7369040"><ele>666</ele></trkpt>
      <trkpt lat="46.9292300" lon="7.7368680"><ele>665.9</ele></trkpt>
      <trkpt lat="46.9293600" lon="7.7368720"><ele>665.7</ele></trkpt>
      <trkpt lat="46.9295900" lon="7.7368040"><ele>665.3</ele></trkpt>
      <trkpt lat="46.9298190" lon="7.7366920"><ele>664.8</ele></trkpt>
      <trkpt lat="46.9301530" lon="7.7364610"><ele>664.2</ele></trkpt>
      <trkpt lat="46.9303830" lon="7.7362920"><ele>663.8</ele></trkpt>
      <trkpt lat="46.9306000" lon="7.7361960"><ele>663.5</ele></trkpt>
      <trkpt lat="46.9307440" lon="7.7361900"><ele>663.3</ele></trkpt>
      <trkpt lat="46.9307900" lon="7.7362000"><ele>663.3</ele></trkpt>
      <trkpt lat="46.9308710" lon="7.7362120"><ele>663.2</ele></trkpt>
      <trkpt lat="46.9310280" lon="7.7362630"><ele>663</ele></trkpt>
      <trkpt lat="46.9311890" lon="7.7363580"><ele>662.9</ele></trkpt>
      <trkpt lat="46.9318700" lon="7.7370310"><ele>662.2</ele></trkpt>
      <trkpt lat="46.9319900" lon="7.7371570"><ele>662</ele></trkpt>
      <trkpt lat="46.9329010" lon="7.7380790"><ele>661</ele></trkpt>
      <trkpt lat="46.9333300" lon="7.7384480"><ele>660.4</ele></trkpt>
      <trkpt lat="46.9337350" lon="7.7386950"><ele>659.8</ele></trkpt>
      <trkpt lat="46.9341700" lon="7.7388740"><ele>659.2</ele></trkpt>
      <trkpt lat="46.9346500" lon="7.7389850"><ele>658.7</ele></trkpt>
      <trkpt lat="46.9357050" lon="7.7390650"><ele>657.8</ele></trkpt>
      <trkpt lat="46.9360160" lon="7.7391290"><ele>657.4</ele></trkpt>
      <trkpt lat="46.9362830" lon="7.7392390"><ele>657.1</ele></trkpt>
      <trkpt lat="46.9366820" lon="7.7395150"><ele>656.5</ele></trkpt>
      <trkpt lat="46.9369550" lon="7.7398000"><ele>656.1</ele></trkpt>
      <trkpt lat="46.9372470" lon="7.7402300"><ele>655.6</ele></trkpt>
      <trkpt lat="46.9374760" lon="7.7407230"><ele>655.3</ele></trkpt>
      <trkpt lat="46.9377010" lon="7.7413210"><ele>655</ele></trkpt>
      <trkpt lat="46.9383190" lon="7.7429300"><ele>654.5</ele></trkpt>
      <trkpt lat="46.9384980" lon="7.7432740"><ele>654.4</ele></trkpt>
      <trkpt lat="46.9387310" lon="7.7436090"><ele>654.2</ele></trkpt>
      <trkpt lat="46.9390380" lon="7.7439260"><ele>654</ele></trkpt>
      <trkpt lat="46.9394360" lon="7.7441910"><ele>653.7</ele></trkpt>
      <trkpt lat="46.9418290" lon="7.7453410"><ele>652</ele></trkpt>
      <trkpt lat="46.9426690" lon="7.7457220"><ele>652.7</ele></trkpt>
      <trkpt lat="46.9434100" lon="7.7459640"><ele>653.7</ele></trkpt>
      <trkpt lat="46.9438830" lon="7.7461810"><ele>654.1</ele></trkpt>
      <trkpt lat="46.9444430" lon="7.7465620"><ele>653.9</ele></trkpt>
      <trkpt lat="46.9449320" lon="7.7470190"><ele>652.6</ele></trkpt>
      <trkpt lat="46.9459460" lon="7.7480140"><ele>649</ele></trkpt>
      <trkpt lat="46.9461900" lon="7.7482490"><ele>648.3</ele></trkpt>
      <trkpt lat="46.9464970" lon="7.7484500"><ele>647.6</ele></trkpt>
      <trkpt lat="46.9477340" lon="7.7489390"><ele>646.5</ele></trkpt>
      <trkpt lat="46.9480170" lon="7.7490510"><ele>646.4</ele></trkpt>
      <trkpt lat="46.9482820" lon="7.7491520"><ele>646.3</ele></trkpt>
      <trkpt lat="46.9485780" lon="7.7492540"><ele>646.1</ele></trkpt>
      <trkpt lat="46.9488570" lon="7.7492150"><ele>646.1</ele></trkpt>
      <trkpt lat="46.9489500" lon="7.7491590"><ele>646.1</ele></trkpt>
      <trkpt lat="46.9490880" lon="7.7490080"><ele>646.2</ele></trkpt>
      <trkpt lat="46.9492130" lon="7.7488110"><ele>646.4</ele></trkpt>
      <trkpt lat="46.9492990" lon="7.7486730"><ele>646.5</ele></trkpt>
      <trkpt lat="46.9494800" lon="7.7483640"><ele>646.8</ele></trkpt>
      <trkpt lat="46.9495440" lon="7.7482440"><ele>647</ele></trkpt>
      <trkpt lat="46.9496530" lon="7.7480550"><ele>647.1</ele></trkpt>
      <trkpt lat="46.9498100" lon="7.7477760"><ele>647.2</ele></trkpt>
      <trkpt lat="46.9500640" lon="7.7473200"><ele>647</ele></trkpt>
      <trkpt lat="46.9501140" lon="7.7472300"><ele>646.9</ele></trkpt>
      <trkpt lat="46.9502220" lon="7.7470380"><ele>646.8</ele></trkpt>
      <trkpt lat="46.9503070" lon="7.7472360"><ele>646.6</ele></trkpt>
      <trkpt lat="46.9504080" lon="7.7475730"><ele>646.1</ele></trkpt>
      <trkpt lat="46.9504740" lon="7.7477590"><ele>645.8</ele></trkpt>
      <trkpt lat="46.9505560" lon="7.7478840"><ele>645.6</ele></trkpt>
      <trkpt lat="46.9511060" lon="7.7483200"><ele>644.1</ele></trkpt>
      <trkpt lat="46.9513070" lon="7.7483890"><ele>643.7</ele></trkpt>
      <trkpt lat="46.9522540" lon="7.7485790"><ele>642.8</ele></trkpt>
      <trkpt lat="46.9525170" lon="7.7487050"><ele>642.6</ele></trkpt>
      <trkpt lat="46.9525740" lon="7.7487380"><ele>642.6</ele></trkpt>
      <trkpt lat="46.9526190" lon="7.7487570"><ele>642.6</ele></trkpt>
      <trkpt lat="46.9530580" lon="7.7487720"><ele>642.3</ele></trkpt>
      <trkpt lat="46.9531880" lon="7.7487470"><ele>642.2</ele></trkpt>
      <trkpt lat="46.9536510" lon="7.7486220"><ele>641.9</ele></trkpt>
      <trkpt lat="46.9538690" lon="7.7485590"><ele>641.9</ele></trkpt>
      <trkpt lat="46.9542820" lon="7.7484360"><ele>641.9</ele></trkpt>
      <trkpt lat="46.9545630" lon="7.7483520"><ele>641.8</ele></trkpt>
      <trkpt lat="46.9550490" lon="7.7481340"><ele>641.8</ele></trkpt>
      <trkpt lat="46.9551650" lon="7.7481560"><ele>641.8</ele></trkpt>
      <trkpt lat="46.9552670" lon="7.7482520"><ele>641.8</ele></trkpt>
      <trkpt lat="46.9554110" lon="7.7483460"><ele>641.8</ele></trkpt>
      <trkpt lat="46.9558820" lon="7.7483670"><ele>641.8</ele></trkpt>
      <trkpt lat="46.9561440" lon="7.7483250"><ele>641.6</ele></trkpt>
      <trkpt lat="46.9568010" lon="7.7480920"><ele>641.4</ele></trkpt>
      <trkpt lat="46.9570660" lon="7.7480050"><ele>641.2</ele></trkpt>
      <trkpt lat="46.9573780" lon="7.7479980"><ele>640.8</ele></trkpt>
      <trkpt lat="46.9577240" lon="7.7480460"><ele>640.2</ele></trkpt>
      <trkpt lat="46.9580070" lon="7.7480490"><ele>639.6</ele></trkpt>
      <trkpt lat="46.9581140" lon="7.7480990"><ele>639.4</ele></trkpt>
      <trkpt lat="46.9589390" lon="7.7486800"><ele>637.6</ele></trkpt>
      <trkpt lat="46.9591880" lon="7.7482910"><ele>637</ele></trkpt>
      <trkpt lat="46.9592890" lon="7.7481990"><ele>636.8</ele></trkpt>
      <trkpt lat="46.9594080" lon="7.7481520"><ele>636.6</ele></trkpt>
      <trkpt lat="46.9597020" lon="7.7480680"><ele>636.2</ele></trkpt>
      <trkpt lat="46.9605130" lon="7.7478970"><ele>635.2</ele></trkpt>
      <trkpt lat="46.9610450" lon="7.7477390"><ele>634.4</ele></trkpt>
      <trkpt lat="46.9617620" lon="7.7476460"><ele>633.8</ele></trkpt>
      <trkpt lat="46.9621440" lon="7.7475640"><ele>633.7</ele></trkpt>
      <trkpt lat="46.9623730" lon="7.7474240"><ele>633.7</ele></trkpt>
      <trkpt lat="46.9625820" lon="7.7472370"><ele>633.7</ele></trkpt>
      <trkpt lat="46.9633650" lon="7.7468260"><ele>633.4</ele></trkpt>
      <trkpt lat="46.9641440" lon="7.7463190"><ele>632.6</ele></trkpt>
      <trkpt lat="46.9651480" lon="7.7460040"><ele>631.4</ele></trkpt>
      <trkpt lat="46.9656280" lon="7.7459160"><ele>631.1</ele></trkpt>
      <trkpt lat="46.9658570" lon="7.7458370"><ele>630.9</ele></trkpt>
      <trkpt lat="46.9659220" lon="7.7454380"><ele>630.8</ele></trkpt>
      <trkpt lat="46.9659790" lon="7.7452460"><ele>630.7</ele></trkpt>
      <trkpt lat="46.9660610" lon="7.7450760"><ele>630.6</ele></trkpt>
      <trkpt lat="46.9665810" lon="7.7442800"><ele>630.3</ele></trkpt>
      <trkpt lat="46.9667280" lon="7.7439450"><ele>630.2</ele></trkpt>
      <trkpt lat="46.9670920" lon="7.7427420"><ele>629.5</ele></trkpt>
      <trkpt lat="46.9671990" lon="7.7423080"><ele>629.2</ele></trkpt>
      <trkpt lat="46.9673210" lon="7.7423430"><ele>629</ele></trkpt>
      <trkpt lat="46.9674390" lon="7.7423160"><ele>628.9</ele></trkpt>
      <trkpt lat="46.9676420" lon="7.7421370"><ele>628.5</ele></trkpt>
      <trkpt lat="46.9679170" lon="7.7418280"><ele>628</ele></trkpt>
      <trkpt lat="46.9682850" lon="7.7413770"><ele>627</ele></trkpt>
      <trkpt lat="46.9685680" lon="7.7410510"><ele>626.3</ele></trkpt>
      <trkpt lat="46.9687920" lon="7.7408330"><ele>625.9</ele></trkpt>
      <trkpt lat="46.9690480" lon="7.7406680"><ele>625.5</ele></trkpt>
      <trkpt lat="46.9693690" lon="7.7405510"><ele>625</ele></trkpt>
      <trkpt lat="46.9697020" lon="7.7404920"><ele>624.5</ele></trkpt>
      <trkpt lat="46.9704340" lon="7.7403840"><ele>623.7</ele></trkpt>
      <trkpt lat="46.9708720" lon="7.7403050"><ele>623.5</ele></trkpt>
      <trkpt lat="46.9712230" lon="7.7402510"><ele>623.4</ele></trkpt>
      <trkpt lat="46.9716710" lon="7.7402400"><ele>623.5</ele></trkpt>
      <trkpt lat="46.9719120" lon="7.7402450"><ele>623.4</ele></trkpt>
      <trkpt lat="46.9723390" lon="7.7402540"><ele>623.4</ele></trkpt>
      <trkpt lat="46.9728130" lon="7.7402400"><ele>623.2</ele></trkpt>
      <trkpt lat="46.9730120" lon="7.7401640"><ele>623.1</ele></trkpt>
      <trkpt lat="46.9731430" lon="7.7400680"><ele>622.9</ele></trkpt>
      <trkpt lat="46.9737640" lon="7.7393520"><ele>622</ele></trkpt>
      <trkpt lat="46.9738470" lon="7.7392490"><ele>621.9</ele></trkpt>
      <trkpt lat="46.9741050" lon="7.7389600"><ele>621.5</ele></trkpt>
      <trkpt lat="46.9743210" lon="7.7387070"><ele>621.2</ele></trkpt>
      <trkpt lat="46.9745330" lon="7.7384590"><ele>620.9</ele></trkpt>
      <trkpt lat="46.9746300" lon="7.7383460"><ele>620.7</ele></trkpt>
      <trkpt lat="46.9748850" lon="7.7380290"><ele>620.5</ele></trkpt>
      <trkpt lat="46.9752820" lon="7.7375640"><ele>620.2</ele></trkpt>
      <trkpt lat="46.9756790" lon="7.7370960"><ele>619.9</ele></trkpt>
      <trkpt lat="46.9758130" lon="7.7369390"><ele>619.8</ele></trkpt>
      <trkpt lat="46.9760140" lon="7.7367030"><ele>619.7</ele></trkpt>
      <trkpt lat="46.9760220" lon="7.7366940"><ele>619.7</ele></trkpt>
      <trkpt lat="46.9764480" lon="7.7361890"><ele>619.6</ele></trkpt>
      <trkpt lat="46.9766170" lon="7.7359790"><ele>619.5</ele></trkpt>
      <trkpt lat="46.9768600" lon="7.7356040"><ele>619.4</ele></trkpt>
      <trkpt lat="46.9773880" lon="7.7345260"><ele>619.7</ele></trkpt>
      <trkpt lat="46.9783120" lon="7.7329460"><ele>623.6</ele></trkpt>
      <trkpt lat="46.9785680" lon="7.7325040"><ele>625.6</ele></trkpt>
      <trkpt lat="46.9786860" lon="7.7323740"><ele>626.3</ele></trkpt>
      <trkpt lat="46.9788140" lon="7.7322940"><ele>627</ele></trkpt>
      <trkpt lat="46.9789420" lon="7.7322590"><ele>627.7</ele></trkpt>
      <trkpt lat="46.9798600" lon="7.7321610"><ele>632</ele></trkpt>
      <trkpt lat="46.9802410" lon="7.7320850"><ele>633.1</ele></trkpt>
      <trkpt lat="46.9804140" lon="7.7319990"><ele>633.5</ele></trkpt>
      <trkpt lat="46.9810910" lon="7.7315490"><ele>634.8</ele></trkpt>
      <trkpt lat="46.9813950" lon="7.7312710"><ele>635.2</ele></trkpt>
      <trkpt lat="46.9819360" lon="7.7306690"><ele>636.6</ele></trkpt>
      <trkpt lat="46.9820660" lon="7.7304840"><ele>637</ele></trkpt>
      <trkpt lat="46.9822340" lon="7.7301360"><ele>637.8</ele></trkpt>
      <trkpt lat="46.9823260" lon="7.7297490"><ele>638.6</ele></trkpt>
      <trkpt lat="46.9829540" lon="7.7257590"><ele>647.7</ele></trkpt>
      <trkpt lat="46.9830430" lon="7.7252780"><ele>649.1</ele></trkpt>
      <trkpt lat="46.9831110" lon="7.7249580"><ele>650.2</ele></trkpt>
      <trkpt lat="46.9831900" lon="7.7246120"><ele>651.3</ele></trkpt>
      <trkpt lat="46.9832410" lon="7.7243890"><ele>652</ele></trkpt>
      <trkpt lat="46.9832560" lon="7.7243210"><ele>652.2</ele></trkpt>
      <trkpt lat="46.9833920" lon="7.7236730"><ele>653.8</ele></trkpt>
      <trkpt lat="46.9834300" lon="7.7232200"><ele>654.3</ele></trkpt>
      <trkpt lat="46.9834320" lon="7.7229770"><ele>654.4</ele></trkpt>
      <trkpt lat="46.9834550" lon="7.7226560"><ele>654.4</ele></trkpt>
      <trkpt lat="46.9835360" lon="7.7223620"><ele>654.2</ele></trkpt>
      <trkpt lat="46.9837440" lon="7.7218940"><ele>653.4</ele></trkpt>
      <trkpt lat="46.9838940" lon="7.7210430"><ele>651.7</ele></trkpt>
      <trkpt lat="46.9839530" lon="7.7205250"><ele>650.9</ele></trkpt>
      <trkpt lat="46.9840330" lon="7.7192140"><ele>651.7</ele></trkpt>
      <trkpt lat="46.9841730" lon="7.7182040"><ele>652.5</ele></trkpt>
      <trkpt lat="46.9842840" lon="7.7177930"><ele>652.6</ele></trkpt>
      <trkpt lat="46.9844260" lon="7.7174950"><ele>652.6</ele></trkpt>
      <trkpt lat="46.9846450" lon="7.7171580"><ele>652.3</ele></trkpt>
      <trkpt lat="46.9848700" lon="7.7166990"><ele>651.8</ele></trkpt>
      <trkpt lat="46.9850160" lon="7.7162300"><ele>651.2</ele></trkpt>
      <trkpt lat="46.9851450" lon="7.7155240"><ele>651.4</ele></trkpt>
      <trkpt lat="46.9852690" lon="7.7147100"><ele>651</ele></trkpt>
      <trkpt lat="46.9853580" lon="7.7143060"><ele>650.1</ele></trkpt>
      <trkpt lat="46.9854690" lon="7.7139680"><ele>649.1</ele></trkpt>
      <trkpt lat="46.9856190" lon="7.7136480"><ele>647.8</ele></trkpt>
      <trkpt lat="46.9857740" lon="7.7134250"><ele>646.5</ele></trkpt>
      <trkpt lat="46.9860400" lon="7.7131900"><ele>644.3</ele></trkpt>
      <trkpt lat="46.9866910" lon="7.7129550"><ele>638.8</ele></trkpt>
      <trkpt lat="46.9869110" lon="7.7128090"><ele>637.4</ele></trkpt>
      <trkpt lat="46.9870580" lon="7.7126280"><ele>636.5</ele></trkpt>
      <trkpt lat="46.9872250" lon="7.7123400"><ele>635.5</ele></trkpt>
      <trkpt lat="46.9874680" lon="7.7115390"><ele>633.4</ele></trkpt>
      <trkpt lat="46.9876380" lon="7.7110610"><ele>632.2</ele></trkpt>
      <trkpt lat="46.9878530" lon="7.7107900"><ele>631.3</ele></trkpt>
      <trkpt lat="46.9883790" lon="7.7102760"><ele>629.7</ele></trkpt>
      <trkpt lat="46.9885950" lon="7.7099390"><ele>629.8</ele></trkpt>
      <trkpt lat="46.9887390" lon="7.7096250"><ele>630.3</ele></trkpt>
      <trkpt lat="46.9888570" lon="7.7092950"><ele>631.1</ele></trkpt>
      <trkpt lat="46.9889530" lon="7.7089720"><ele>632.2</ele></trkpt>
      <trkpt lat="46.9894250" lon="7.7072970"><ele>639.7</ele></trkpt>
      <trkpt lat="46.9896530" lon="7.7066950"><ele>641</ele></trkpt>
      <trkpt lat="46.9900940" lon="7.7058640"><ele>641.1</ele></trkpt>
      <trkpt lat="46.9910300" lon="7.7042680"><ele>638.8</ele></trkpt>
      <trkpt lat="46.9914810" lon="7.7035920"><ele>638.8</ele></trkpt>
      <trkpt lat="46.9922530" lon="7.7019980"><ele>641.3</ele></trkpt>
      <trkpt lat="46.9925270" lon="7.7013530"><ele>641.3</ele></trkpt>
      <trkpt lat="46.9927440" lon="7.7009560"><ele>641.2</ele></trkpt>
      <trkpt lat="46.9930800" lon="7.7004190"><ele>640.8</ele></trkpt>
      <trkpt lat="46.9935210" lon="7.6997030"><ele>639.4</ele></trkpt>
      <trkpt lat="46.9939580" lon="7.6989280"><ele>638.5</ele></trkpt>
      <trkpt lat="46.9946890" lon="7.6978840"><ele>637.5</ele></trkpt>
      <trkpt lat="46.9954000" lon="7.6965780"><ele>637.3</ele></trkpt>
      <trkpt lat="46.9956500" lon="7.6962300"><ele>637.4</ele></trkpt>
      <trkpt lat="46.9959530" lon="7.6958980"><ele>637.3</ele></trkpt>
      <trkpt lat="46.9968910" lon="7.6949420"><ele>636.1</ele></trkpt>
      <trkpt lat="46.9969830" lon="7.6948090"><ele>635.8</ele></trkpt>
      <trkpt lat="46.9971930" lon="7.6943970"><ele>634.7</ele></trkpt>
      <trkpt lat="46.9974910" lon="7.6940500"><ele>633.1</ele></trkpt>
      <trkpt lat="46.9977270" lon="7.6936380"><ele>630.8</ele></trkpt>
      <trkpt lat="46.9982660" lon="7.6932290"><ele>625.7</ele></trkpt>
      <trkpt lat="46.9984040" lon="7.6930850"><ele>623.9</ele></trkpt>
      <trkpt lat="46.9995020" lon="7.6919430"><ele>609.8</ele></trkpt>
      <trkpt lat="46.9997880" lon="7.6915500"><ele>606.2</ele></trkpt>
      <trkpt lat="47.0003230" lon="7.6905870"><ele>599.6</ele></trkpt>
      <trkpt lat="47.0006570" lon="7.6902200"><ele>596.6</ele></trkpt>
      <trkpt lat="47.0013910" lon="7.6896880"><ele>593.2</ele></trkpt>
      <trkpt lat="47.0015630" lon="7.6896120"><ele>592.7</ele></trkpt>
      <trkpt lat="47.0016520" lon="7.6892140"><ele>592</ele></trkpt>
      <trkpt lat="47.0017490" lon="7.6886940"><ele>591.5</ele></trkpt>
      <trkpt lat="47.0018630" lon="7.6881090"><ele>591.4</ele></trkpt>
      <trkpt lat="47.0020730" lon="7.6870330"><ele>591.1</ele></trkpt>
      <trkpt lat="47.0026730" lon="7.6840270"><ele>590.2</ele></trkpt>
      <trkpt lat="47.0027420" lon="7.6836530"><ele>589.9</ele></trkpt>
      <trkpt lat="47.0027940" lon="7.6833970"><ele>589.7</ele></trkpt>
      <trkpt lat="47.0030970" lon="7.6817850"><ele>589</ele></trkpt>
      <trkpt lat="47.0033430" lon="7.6805400"><ele>589.2</ele></trkpt>
      <trkpt lat="47.0035610" lon="7.6793680"><ele>588.4</ele></trkpt>
      <trkpt lat="47.0035880" lon="7.6788680"><ele>587.8</ele></trkpt>
      <trkpt lat="47.0036090" lon="7.6785950"><ele>587.4</ele></trkpt>
      <trkpt lat="47.0036240" lon="7.6783840"><ele>587</ele></trkpt>
      <trkpt lat="47.0036590" lon="7.6779110"><ele>586.2</ele></trkpt>
      <trkpt lat="47.0036870" lon="7.6775300"><ele>585.6</ele></trkpt>
      <trkpt lat="47.0037020" lon="7.6773500"><ele>585.5</ele></trkpt>
      <trkpt lat="47.0037530" lon="7.6768650"><ele>585.3</ele></trkpt>
      <trkpt lat="47.0039030" lon="7.6758180"><ele>585.8</ele></trkpt>
      <trkpt lat="47.0039450" lon="7.6753470"><ele>586.9</ele></trkpt>
      <trkpt lat="47.0039480" lon="7.6752360"><ele>587.2</ele></trkpt>
      <trkpt lat="47.0039490" lon="7.6752150"><ele>587.2</ele></trkpt>
      <trkpt lat="47.0039500" lon="7.6751230"><ele>587.5</ele></trkpt>
      <trkpt lat="47.0039330" lon="7.6747780"><ele>588.7</ele></trkpt>
      <trkpt lat="47.0038590" lon="7.6741410"><ele>591</ele></trkpt>
      <trkpt lat="47.0037410" lon="7.6736120"><ele>593.1</ele></trkpt>
      <trkpt lat="47.0037230" lon="7.6733940"><ele>593.9</ele></trkpt>
      <trkpt lat="47.0037460" lon="7.6730500"><ele>595.3</ele></trkpt>
      <trkpt lat="47.0038570" lon="7.6726370"><ele>596.7</ele></trkpt>
      <trkpt lat="47.0041150" lon="7.6720550"><ele>598.6</ele></trkpt>
      <trkpt lat="47.0044870" lon="7.6715410"><ele>600.2</ele></trkpt>
      <trkpt lat="47.0052850" lon="7.6706170"><ele>602.6</ele></trkpt>
      <trkpt lat="47.0053830" lon="7.6705030"><ele>602.9</ele></trkpt>
      <trkpt lat="47.0067310" lon="7.6689420"><ele>604</ele></trkpt>
      <trkpt lat="47.0079220" lon="7.6675640"><ele>602.3</ele></trkpt>
      <trkpt lat="47.0079840" lon="7.6674910"><ele>602.2</ele></trkpt>
      <trkpt lat="47.0088050" lon="7.6665370"><ele>600.6</ele></trkpt>
      <trkpt lat="47.0089740" lon="7.6663290"><ele>600.1</ele></trkpt>
      <trkpt lat="47.0106610" lon="7.6642630"><ele>593.3</ele></trkpt>
      <trkpt lat="47.0108570" lon="7.6638770"><ele>591.4</ele></trkpt>
      <trkpt lat="47.0111110" lon="7.6629620"><ele>586.3</ele></trkpt>
      <trkpt lat="47.0111580" lon="7.6627930"><ele>585.4</ele></trkpt>
      <trkpt lat="47.0114060" lon="7.6618890"><ele>580.6</ele></trkpt>
      <trkpt lat="47.0114640" lon="7.6616380"><ele>579.4</ele></trkpt>
      <trkpt lat="47.0115110" lon="7.6611760"><ele>577.6</ele></trkpt>
      <trkpt lat="47.0115430" lon="7.6603330"><ele>575.7</ele></trkpt>
      <trkpt lat="47.0115420" lon="7.6596630"><ele>575.5</ele></trkpt>
      <trkpt lat="47.0115980" lon="7.6593970"><ele>575.4</ele></trkpt>
      <trkpt lat="47.0116280" lon="7.6592100"><ele>575.3</ele></trkpt>
      <trkpt lat="47.0120830" lon="7.6591230"><ele>575.2</ele></trkpt>
      <trkpt lat="47.0123800" lon="7.6590310"><ele>575.2</ele></trkpt>
      <trkpt lat="47.0130590" lon="7.6587400"><ele>575.1</ele></trkpt>
      <trkpt lat="47.0139820" lon="7.6580850"><ele>573.7</ele></trkpt>
      <trkpt lat="47.0146760" lon="7.6575420"><ele>572.1</ele></trkpt>
      <trkpt lat="47.0149000" lon="7.6574530"><ele>571.7</ele></trkpt>
      <trkpt lat="47.0152990" lon="7.6573770"><ele>571.3</ele></trkpt>
      <trkpt lat="47.0154580" lon="7.6572390"><ele>571.2</ele></trkpt>
      <trkpt lat="47.0159580" lon="7.6565220"><ele>570.5</ele></trkpt>
      <trkpt lat="47.0161370" lon="7.6562540"><ele>570.2</ele></trkpt>
      <trkpt lat="47.0162570" lon="7.6561070"><ele>570.1</ele></trkpt>
      <trkpt lat="47.0162860" lon="7.6560510"><ele>570.1</ele></trkpt>
      <trkpt lat="47.0163700" lon="7.6560060"><ele>570</ele></trkpt>
      <trkpt lat="47.0164360" lon="7.6560080"><ele>570</ele></trkpt>
      <trkpt lat="47.0164670" lon="7.6560330"><ele>569.9</ele></trkpt>
      <trkpt lat="47.0165330" lon="7.6560790"><ele>569.9</ele></trkpt>
      <trkpt lat="47.0165810" lon="7.6561920"><ele>569.8</ele></trkpt>
      <trkpt lat="47.0168550" lon="7.6568900"><ele>569</ele></trkpt>
      <trkpt lat="47.0168810" lon="7.6569580"><ele>568.8</ele></trkpt>
      <trkpt lat="47.0169590" lon="7.6571650"><ele>568.5</ele></trkpt>
      <trkpt lat="47.0173030" lon="7.6568110"><ele>567.8</ele></trkpt>
      <trkpt lat="47.0174910" lon="7.6566160"><ele>567.5</ele></trkpt>
      <trkpt lat="47.0179460" lon="7.6560070"><ele>567.6</ele></trkpt>
      <trkpt lat="47.0182350" lon="7.6555890"><ele>567.7</ele></trkpt>
      <trkpt lat="47.0184570" lon="7.6552010"><ele>567.8</ele></trkpt>
      <trkpt lat="47.0190220" lon="7.6542760"><ele>568.1</ele></trkpt>
      <trkpt lat="47.0196250" lon="7.6532150"><ele>567.6</ele></trkpt>
      <trkpt lat="47.0199840" lon="7.6524600"><ele>567.2</ele></trkpt>
      <trkpt lat="47.0203460" lon="7.6516710"><ele>566.9</ele></trkpt>
      <trkpt lat="47.0205520" lon="7.6512320"><ele>566.7</ele></trkpt>
      <trkpt lat="47.0206690" lon="7.6509830"><ele>566.6</ele></trkpt>
      <trkpt lat="47.0207870" lon="7.6506810"><ele>566.4</ele></trkpt>
      <trkpt lat="47.0209440" lon="7.6501160"><ele>566.2</ele></trkpt>
      <trkpt lat="47.0210180" lon="7.6499420"><ele>566.1</ele></trkpt>
      <trkpt lat="47.0211740" lon="7.6495220"><ele>565.9</ele></trkpt>
      <trkpt lat="47.0211660" lon="7.6494580"><ele>565.8</ele></trkpt>
      <trkpt lat="47.0211280" lon="7.6493790"><ele>565.8</ele></trkpt>
      <trkpt lat="47.0210850" lon="7.6492880"><ele>565.7</ele></trkpt>
      <trkpt lat="47.0209250" lon="7.6489320"><ele>565.3</ele></trkpt>
      <trkpt lat="47.0207410" lon="7.6485220"><ele>564.7</ele></trkpt>
      <trkpt lat="47.0206620" lon="7.6483100"><ele>564.4</ele></trkpt>
      <trkpt lat="47.0205750" lon="7.6481300"><ele>564.2</ele></trkpt>
      <trkpt lat="47.0204660" lon="7.6480120"><ele>563.9</ele></trkpt>
      <trkpt lat="47.0202320" lon="7.6478900"><ele>563.5</ele></trkpt>
      <trkpt lat="47.0200030" lon="7.6477840"><ele>563.1</ele></trkpt>
      <trkpt lat="47.0199210" lon="7.6477110"><ele>562.9</ele></trkpt>
      <trkpt lat="47.0196150" lon="7.6474010"><ele>562.2</ele></trkpt>
      <trkpt lat="47.0195500" lon="7.6473500"><ele>562.1</ele></trkpt>
      <trkpt lat="47.0194890" lon="7.6473450"><ele>562</ele></trkpt>
      <trkpt lat="47.0194070" lon="7.6471420"><ele>561.8</ele></trkpt>
      <trkpt lat="47.0193460" lon="7.6470180"><ele>561.7</ele></trkpt>
      <trkpt lat="47.0191420" lon="7.6466290"><ele>561.6</ele></trkpt>
      <trkpt lat="47.0196610" lon="7.6460510"><ele>561.5</ele></trkpt>
      <trkpt lat="47.0196910" lon="7.6459850"><ele>561.5</ele></trkpt>
      <trkpt lat="47.0197050" lon="7.6457680"><ele>561.5</ele></trkpt>
      <trkpt lat="47.0196510" lon="7.6448250"><ele>561.2</ele></trkpt>
      <trkpt lat="47.0196150" lon="7.6443750"><ele>561</ele></trkpt>
      <trkpt lat="47.0196240" lon="7.6442700"><ele>560.9</ele></trkpt>
      <trkpt lat="47.0196470" lon="7.6442330"><ele>560.9</ele></trkpt>
      <trkpt lat="47.0198280" lon="7.6441950"><ele>560.7</ele></trkpt>
      <trkpt lat="47.0199500" lon="7.6440750"><ele>560.6</ele></trkpt>
      <trkpt lat="47.0200000" lon="7.6438780"><ele>560.5</ele></trkpt>
      <trkpt lat="47.0200800" lon="7.6438140"><ele>560.4</ele></trkpt>
      <trkpt lat="47.0201950" lon="7.6436150"><ele>560.2</ele></trkpt>
      <trkpt lat="47.0212050" lon="7.6416520"><ele>558.9</ele></trkpt>
      <trkpt lat="47.0213170" lon="7.6415170"><ele>558.8</ele></trkpt>
      <trkpt lat="47.0216990" lon="7.6412020"><ele>558.7</ele></trkpt>
      <trkpt lat="47.0218350" lon="7.6410370"><ele>558.6</ele></trkpt>
      <trkpt lat="47.0219880" lon="7.6407900"><ele>558.5</ele></trkpt>
      <trkpt lat="47.0222090" lon="7.6402420"><ele>558.4</ele></trkpt>
      <trkpt lat="47.0223100" lon="7.6401100"><ele>558.4</ele></trkpt>
      <trkpt lat="47.0222960" lon="7.6400840"><ele>558.3</ele></trkpt>
      <trkpt lat="47.0222570" lon="7.6400120"><ele>558.3</ele></trkpt>
      <trkpt lat="47.0222490" lon="7.6399840"><ele>558.3</ele></trkpt>
      <trkpt lat="47.0221910" lon="7.6399570"><ele>558.3</ele></trkpt>
      <trkpt lat="47.0220270" lon="7.6396450"><ele>558.2</ele></trkpt>
      <trkpt lat="47.0222100" lon="7.6393930"><ele>558.1</ele></trkpt>
      <trkpt lat="47.0221610" lon="7.6393080"><ele>558.1</ele></trkpt>
      <trkpt lat="47.0221830" lon="7.6392770"><ele>558.1</ele></trkpt>
      <trkpt lat="47.0226620" lon="7.6386820"><ele>557.8</ele></trkpt>
      <trkpt lat="47.0232200" lon="7.6381350"><ele>557.3</ele></trkpt>
      <trkpt lat="47.0237150" lon="7.6377510"><ele>557</ele></trkpt>
      <trkpt lat="47.0237680" lon="7.6377180"><ele>556.9</ele></trkpt>
      <trkpt lat="47.0245780" lon="7.6372030"><ele>556.6</ele></trkpt>
      <trkpt lat="47.0247100" lon="7.6371150"><ele>556.6</ele></trkpt>
      <trkpt lat="47.0248530" lon="7.6370090"><ele>556.5</ele></trkpt>
      <trkpt lat="47.0250260" lon="7.6368760"><ele>556.3</ele></trkpt>
      <trkpt lat="47.0254240" lon="7.6365450"><ele>556</ele></trkpt>
      <trkpt lat="47.0254870" lon="7.6364950"><ele>555.9</ele></trkpt>
      <trkpt lat="47.0255310" lon="7.6364630"><ele>555.9</ele></trkpt>
      <trkpt lat="47.0256900" lon="7.6363480"><ele>555.7</ele></trkpt>
      <trkpt lat="47.0259290" lon="7.6361820"><ele>555.5</ele></trkpt>
      <trkpt lat="47.0261810" lon="7.6360100"><ele>555.2</ele></trkpt>
      <trkpt lat="47.0266710" lon="7.6356760"><ele>554.6</ele></trkpt>
      <trkpt lat="47.0268090" lon="7.6355760"><ele>554.5</ele></trkpt>
      <trkpt lat="47.0270620" lon="7.6353820"><ele>554.3</ele></trkpt>
      <trkpt lat="47.0271470" lon="7.6353130"><ele>554.3</ele></trkpt>
      <trkpt lat="47.0279230" lon="7.6347180"><ele>553.9</ele></trkpt>
      <trkpt lat="47.0280480" lon="7.6346510"><ele>553.8</ele></trkpt>
      <trkpt lat="47.0285270" lon="7.6345100"><ele>553.5</ele></trkpt>
      <trkpt lat="47.0297180" lon="7.6344500"><ele>552.8</ele></trkpt>
      <trkpt lat="47.0299870" lon="7.6344070"><ele>552.8</ele></trkpt>
      <trkpt lat="47.0307520" lon="7.6341670"><ele>552.9</ele></trkpt>
      <trkpt lat="47.0313990" lon="7.6337430"><ele>552.8</ele></trkpt>
      <trkpt lat="47.0321650" lon="7.6332500"><ele>552.4</ele></trkpt>
      <trkpt lat="47.0328780" lon="7.6326520"><ele>551.6</ele></trkpt>
      <trkpt lat="47.0340360" lon="7.6315960"><ele>550.4</ele></trkpt>
      <trkpt lat="47.0340790" lon="7.6315590"><ele>550.3</ele></trkpt>
      <trkpt lat="47.0343870" lon="7.6312530"><ele>550.1</ele></trkpt>
      <trkpt lat="47.0349030" lon="7.6307080"><ele>549.8</ele></trkpt>
      <trkpt lat="47.0349790" lon="7.6306060"><ele>549.7</ele></trkpt>
      <trkpt lat="47.0352700" lon="7.6301650"><ele>549.6</ele></trkpt>
      <trkpt lat="47.0355710" lon="7.6297280"><ele>549.5</ele></trkpt>
      <trkpt lat="47.0361360" lon="7.6291730"><ele>549.3</ele></trkpt>
      <trkpt lat="47.0362230" lon="7.6290940"><ele>549.2</ele></trkpt>
      <trkpt lat="47.0370720" lon="7.6281610"><ele>548.7</ele></trkpt>
      <trkpt lat="47.0374290" lon="7.6277640"><ele>548.5</ele></trkpt>
      <trkpt lat="47.0375110" lon="7.6276720"><ele>548.4</ele></trkpt>
      <trkpt lat="47.0379930" lon="7.6271410"><ele>548.1</ele></trkpt>
      <trkpt lat="47.0385330" lon="7.6265520"><ele>548.2</ele></trkpt>
      <trkpt lat="47.0387020" lon="7.6263670"><ele>548.2</ele></trkpt>
      <trkpt lat="47.0392880" lon="7.6257270"><ele>548</ele></trkpt>
      <trkpt lat="47.0389700" lon="7.6252580"><ele>548</ele></trkpt>
      <trkpt lat="47.0388030" lon="7.6249660"><ele>547.9</ele></trkpt>
      <trkpt lat="47.0387370" lon="7.6247510"><ele>547.9</ele></trkpt>
      <trkpt lat="47.0386860" lon="7.6244140"><ele>547.8</ele></trkpt>
      <trkpt lat="47.0386380" lon="7.6240580"><ele>547.7</ele></trkpt>
      <trkpt lat="47.0386160" lon="7.6239080"><ele>547.7</ele></trkpt>
      <trkpt lat="47.0385590" lon="7.6235650"><ele>547.7</ele></trkpt>
      <trkpt lat="47.0384220" lon="7.6227620"><ele>548.1</ele></trkpt>
      <trkpt lat="47.0383610" lon="7.6224990"><ele>548.2</ele></trkpt>
      <trkpt lat="47.0382730" lon="7.6220370"><ele>548.4</ele></trkpt>
      <trkpt lat="47.0382680" lon="7.6220030"><ele>548.4</ele></trkpt>
      <trkpt lat="47.0382200" lon="7.6217500"><ele>548.5</ele></trkpt>
      <trkpt lat="47.0381350" lon="7.6212830"><ele>548.8</ele></trkpt>
      <trkpt lat="47.0380980" lon="7.6211120"><ele>548.8</ele></trkpt>
      <trkpt lat="47.0380410" lon="7.6208940"><ele>548.9</ele></trkpt>
      <trkpt lat="47.0378220" lon="7.6200840"><ele>549.3</ele></trkpt>
      <trkpt lat="47.0377570" lon="7.6195940"><ele>549.7</ele></trkpt>
      <trkpt lat="47.0376610" lon="7.6191420"><ele>550.1</ele></trkpt>
      <trkpt lat="47.0374970" lon="7.6186430"><ele>550.5</ele></trkpt>
      <trkpt lat="47.0373390" lon="7.6182460"><ele>550.8</ele></trkpt>
      <trkpt lat="47.0369600" lon="7.6172690"><ele>551.4</ele></trkpt>
      <trkpt lat="47.0368400" lon="7.6168350"><ele>551.4</ele></trkpt>
      <trkpt lat="47.0367850" lon="7.6165820"><ele>551.5</ele></trkpt>
      <trkpt lat="47.0366430" lon="7.6159680"><ele>551.7</ele></trkpt>
      <trkpt lat="47.0363320" lon="7.6151550"><ele>552.3</ele></trkpt>
      <trkpt lat="47.0362680" lon="7.6149340"><ele>552.5</ele></trkpt>
      <trkpt lat="47.0361520" lon="7.6142400"><ele>553.2</ele></trkpt>
      <trkpt lat="47.0360790" lon="7.6139570"><ele>553.4</ele></trkpt>
      <trkpt lat="47.0357880" lon="7.6132700"><ele>554.1</ele></trkpt>
      <trkpt lat="47.0356360" lon="7.6129500"><ele>554.4</ele></trkpt>
      <trkpt lat="47.0355480" lon="7.6127120"><ele>554.6</ele></trkpt>
      <trkpt lat="47.0351370" lon="7.6113000"><ele>555.6</ele></trkpt>
      <trkpt lat="47.0350630" lon="7.6106450"><ele>556.1</ele></trkpt>
      <trkpt lat="47.0350880" lon="7.6093320"><ele>557</ele></trkpt>
      <trkpt lat="47.0351130" lon="7.6090320"><ele>557.1</ele></trkpt>
      <trkpt lat="47.0351550" lon="7.6088060"><ele>557.2</ele></trkpt>
      <trkpt lat="47.0352840" lon="7.6083850"><ele>557.4</ele></trkpt>
      <trkpt lat="47.0353870" lon="7.6081720"><ele>557.5</ele></trkpt>
      <trkpt lat="47.0355540" lon="7.6079470"><ele>557.5</ele></trkpt>
      <trkpt lat="47.0363830" lon="7.6072710"><ele>557.6</ele></trkpt>
      <trkpt lat="47.0365010" lon="7.6071780"><ele>557.6</ele></trkpt>
      <trkpt lat="47.0385510" lon="7.6055630"><ele>559.3</ele></trkpt>
      <trkpt lat="47.0390070" lon="7.6051430"><ele>561.9</ele></trkpt>
      <trkpt lat="47.0391300" lon="7.6049700"><ele>563</ele></trkpt>
      <trkpt lat="47.0398850" lon="7.6037450"><ele>567.6</ele></trkpt>
      <trkpt lat="47.0399990" lon="7.6034650"><ele>568.3</ele></trkpt>
      <trkpt lat="47.0400290" lon="7.6032230"><ele>568.8</ele></trkpt>
      <trkpt lat="47.0400280" lon="7.6031990"><ele>568.8</ele></trkpt>
      <trkpt lat="47.0400270" lon="7.6030760"><ele>569</ele></trkpt>
      <trkpt lat="47.0399990" lon="7.6028670"><ele>569.3</ele></trkpt>
      <trkpt lat="47.0394640" lon="7.6008790"><ele>571.6</ele></trkpt>
      <trkpt lat="47.0393230" lon="7.6005550"><ele>571.4</ele></trkpt>
      <trkpt lat="47.0391990" lon="7.6003810"><ele>571.2</ele></trkpt>
      <trkpt lat="47.0386760" lon="7.5999280"><ele>570.3</ele></trkpt>
      <trkpt lat="47.0385310" lon="7.5997390"><ele>569.9</ele></trkpt>
      <trkpt lat="47.0384130" lon="7.5994930"><ele>569.2</ele></trkpt>
      <trkpt lat="47.0382920" lon="7.5990600"><ele>568.2</ele></trkpt>
      <trkpt lat="47.0381280" lon="7.5983020"><ele>567.1</ele></trkpt>
      <trkpt lat="47.0380460" lon="7.5976980"><ele>566.7</ele></trkpt>
      <trkpt lat="47.0379890" lon="7.5966070"><ele>566.5</ele></trkpt>
      <trkpt lat="47.0380160" lon="7.5962880"><ele>566.5</ele></trkpt>
      <trkpt lat="47.0380940" lon="7.5959500"><ele>566.4</ele></trkpt>
      <trkpt lat="47.0382490" lon="7.5954500"><ele>566.4</ele></trkpt>
      <trkpt lat="47.0387240" lon="7.5940550"><ele>566</ele></trkpt>
      <trkpt lat="47.0386390" lon="7.5940270"><ele>565.9</ele></trkpt>
      <trkpt lat="47.0378870" lon="7.5939980"><ele>565.2</ele></trkpt>
      <trkpt lat="47.0378690" lon="7.5938380"><ele>565.1</ele></trkpt>
      <trkpt lat="47.0377710" lon="7.5935590"><ele>565.1</ele></trkpt>
      <trkpt lat="47.0374680" lon="7.5929480"><ele>565.5</ele></trkpt>
      <trkpt lat="47.0367780" lon="7.5916080"><ele>567.1</ele></trkpt>
      <trkpt lat="47.0356540" lon="7.5896530"><ele>568.3</ele></trkpt>
      <trkpt lat="47.0355440" lon="7.5893990"><ele>568.1</ele></trkpt>
      <trkpt lat="47.0355080" lon="7.5891820"><ele>568</ele></trkpt>
      <trkpt lat="47.0354860" lon="7.5888260"><ele>567.8</ele></trkpt>
      <trkpt lat="47.0354540" lon="7.5885260"><ele>567.6</ele></trkpt>
      <trkpt lat="47.0354270" lon="7.5882830"><ele>567.5</ele></trkpt>
      <trkpt lat="47.0349650" lon="7.5868060"><ele>568.2</ele></trkpt>
      <trkpt lat="47.0346800" lon="7.5860890"><ele>568.6</ele></trkpt>
      <trkpt lat="47.0347770" lon="7.5860090"><ele>568.5</ele></trkpt>
      <trkpt lat="47.0358310" lon="7.5854990"><ele>567.6</ele></trkpt>
      <trkpt lat="47.0357400" lon="7.5850360"><ele>567.3</ele></trkpt>
      <trkpt lat="47.0354230" lon="7.5836720"><ele>567.5</ele></trkpt>
      <trkpt lat="47.0347550" lon="7.5813730"><ele>568.4</ele></trkpt>
      <trkpt lat="47.0345270" lon="7.5799750"><ele>568.3</ele></trkpt>
      <trkpt lat="47.0344890" lon="7.5798150"><ele>568.2</ele></trkpt>
      <trkpt lat="47.0344100" lon="7.5795850"><ele>568.3</ele></trkpt>
      <trkpt lat="47.0343160" lon="7.5793990"><ele>568.3</ele></trkpt>
      <trkpt lat="47.0339340" lon="7.5788560"><ele>569.1</ele></trkpt>
      <trkpt lat="47.0337690" lon="7.5785620"><ele>569.6</ele></trkpt>
      <trkpt lat="47.0330290" lon="7.5765170"><ele>574.1</ele></trkpt>
      <trkpt lat="47.0328280" lon="7.5761230"><ele>574.1</ele></trkpt>
      <trkpt lat="47.0325360" lon="7.5757310"><ele>574.9</ele></trkpt>
      <trkpt lat="47.0321170" lon="7.5752960"><ele>576.5</ele></trkpt>
      <trkpt lat="47.0317370" lon="7.5749330"><ele>578.3</ele></trkpt>
      <trkpt lat="47.0313660" lon="7.5746390"><ele>580.3</ele></trkpt>
      <trkpt lat="47.0310220" lon="7.5744240"><ele>582.2</ele></trkpt>
      <trkpt lat="47.0305720" lon="7.5742210"><ele>582.3</ele></trkpt>
      <trkpt lat="47.0303500" lon="7.5741330"><ele>581.3</ele></trkpt>
      <trkpt lat="47.0300110" lon="7.5740900"><ele>579.6</ele></trkpt>
      <trkpt lat="47.0297110" lon="7.5740900"><ele>578.2</ele></trkpt>
      <trkpt lat="47.0294820" lon="7.5741650"><ele>577.1</ele></trkpt>
      <trkpt lat="47.0292640" lon="7.5743040"><ele>576.2</ele></trkpt>
      <trkpt lat="47.0283080" lon="7.5750990"><ele>579.4</ele></trkpt>
      <trkpt lat="47.0274770" lon="7.5758200"><ele>586.1</ele></trkpt>
      <trkpt lat="47.0272670" lon="7.5760610"><ele>587.6</ele></trkpt>
      <trkpt lat="47.0270910" lon="7.5763320"><ele>588.8</ele></trkpt>
      <trkpt lat="47.0268320" lon="7.5768480"><ele>590</ele></trkpt>
      <trkpt lat="47.0265730" lon="7.5771620"><ele>590.1</ele></trkpt>
      <trkpt lat="47.0262750" lon="7.5773440"><ele>590.1</ele></trkpt>
      <trkpt lat="47.0253830" lon="7.5776390"><ele>584.2</ele></trkpt>
      <trkpt lat="47.0248960" lon="7.5777950"><ele>580</ele></trkpt>
      <trkpt lat="47.0247030" lon="7.5778850"><ele>578.4</ele></trkpt>
      <trkpt lat="47.0242060" lon="7.5781200"><ele>574.4</ele></trkpt>
      <trkpt lat="47.0241910" lon="7.5778550"><ele>573.5</ele></trkpt>
      <trkpt lat="47.0241880" lon="7.5777730"><ele>573.3</ele></trkpt>
      <trkpt lat="47.0241550" lon="7.5776730"><ele>573</ele></trkpt>
      <trkpt lat="47.0238670" lon="7.5772730"><ele>572.7</ele></trkpt>
      <trkpt lat="47.0235710" lon="7.5767090"><ele>572.8</ele></trkpt>
      <trkpt lat="47.0232160" lon="7.5759390"><ele>573.2</ele></trkpt>
      <trkpt lat="47.0230720" lon="7.5756800"><ele>573.3</ele></trkpt>
      <trkpt lat="47.0226060" lon="7.5750540"><ele>573.6</ele></trkpt>
      <trkpt lat="47.0225470" lon="7.5749930"><ele>573.6</ele></trkpt>
      <trkpt lat="47.0221780" lon="7.5747860"><ele>573.7</ele></trkpt>
      <trkpt lat="47.0221060" lon="7.5747460"><ele>573.7</ele></trkpt>
      <trkpt lat="47.0216600" lon="7.5740850"><ele>573.8</ele></trkpt>
      <trkpt lat="47.0211150" lon="7.5728670"><ele>573.9</ele></trkpt>
      <trkpt lat="47.0203350" lon="7.5695770"><ele>574</ele></trkpt>
      <trkpt lat="47.0202060" lon="7.5689750"><ele>574.1</ele></trkpt>
      <trkpt lat="47.0201390" lon="7.5687760"><ele>574.1</ele></trkpt>
      <trkpt lat="47.0198440" lon="7.5681670"><ele>574.2</ele></trkpt>
      <trkpt lat="47.0196350" lon="7.5678840"><ele>574.2</ele></trkpt>
      <trkpt lat="47.0194880" lon="7.5677300"><ele>574.2</ele></trkpt>
      <trkpt lat="47.0189250" lon="7.5672280"><ele>574.6</ele></trkpt>
      <trkpt lat="47.0186150" lon="7.5670730"><ele>575</ele></trkpt>
      <trkpt lat="47.0182890" lon="7.5670450"><ele>575.7</ele></trkpt>
      <trkpt lat="47.0169380" lon="7.5673600"><ele>578.2</ele></trkpt>
      <trkpt lat="47.0164290" lon="7.5676110"><ele>578.2</ele></trkpt>
      <trkpt lat="47.0160350" lon="7.5677620"><ele>577.9</ele></trkpt>
      <trkpt lat="47.0155700" lon="7.5678700"><ele>577.5</ele></trkpt>
      <trkpt lat="47.0150990" lon="7.5679190"><ele>577.7</ele></trkpt>
      <trkpt lat="47.0148120" lon="7.5678850"><ele>578</ele></trkpt>
      <trkpt lat="47.0146340" lon="7.5678280"><ele>578.2</ele></trkpt>
      <trkpt lat="47.0141690" lon="7.5675900"><ele>579</ele></trkpt>
      <trkpt lat="47.0138330" lon="7.5673400"><ele>579.5</ele></trkpt>
      <trkpt lat="47.0138070" lon="7.5673790"><ele>579.5</ele></trkpt>
      <trkpt lat="47.0137740" lon="7.5674330"><ele>579.6</ele></trkpt>
      <trkpt lat="47.0134080" lon="7.5677460"><ele>580.1</ele></trkpt>
      <trkpt lat="47.0133290" lon="7.5678460"><ele>580.2</ele></trkpt>
      <trkpt lat="47.0129150" lon="7.5677100"><ele>580.7</ele></trkpt>
      <trkpt lat="47.0119570" lon="7.5675190"><ele>581.7</ele></trkpt>
      <trkpt lat="47.0116160" lon="7.5674200"><ele>582</ele></trkpt>
      <trkpt lat="47.0115400" lon="7.5673890"><ele>582.1</ele></trkpt>
      <trkpt lat="47.0104720" lon="7.5669680"><ele>582.7</ele></trkpt>
      <trkpt lat="47.0102240" lon="7.5668920"><ele>582.7</ele></trkpt>
      <trkpt lat="47.0100460" lon="7.5668480"><ele>582.8</ele></trkpt>
      <trkpt lat="47.0098220" lon="7.5667200"><ele>582.8</ele></trkpt>
      <trkpt lat="47.0097780" lon="7.5666720"><ele>582.8</ele></trkpt>
      <trkpt lat="47.0097590" lon="7.5666460"><ele>582.8</ele></trkpt>
      <trkpt lat="47.0095850" lon="7.5663450"><ele>582.8</ele></trkpt>
      <trkpt lat="47.0094910" lon="7.5661700"><ele>582.8</ele></trkpt>
      <trkpt lat="47.0093070" lon="7.5658970"><ele>582.8</ele></trkpt>
      <trkpt lat="47.0090880" lon="7.5657110"><ele>582.7</ele></trkpt>
      <trkpt lat="47.0089050" lon="7.5656050"><ele>582.7</ele></trkpt>
      <trkpt lat="47.0087240" lon="7.5655320"><ele>582.7</ele></trkpt>
      <trkpt lat="47.0083660" lon="7.5654700"><ele>582.7</ele></trkpt>
      <trkpt lat="47.0080190" lon="7.5654480"><ele>582.7</ele></trkpt>
      <trkpt lat="47.0079500" lon="7.5654420"><ele>582.8</ele></trkpt>
      <trkpt lat="47.0076020" lon="7.5653970"><ele>582.8</ele></trkpt>
      <trkpt lat="47.0070730" lon="7.5652680"><ele>582.8</ele></trkpt>
      <trkpt lat="47.0070090" lon="7.5652420"><ele>582.8</ele></trkpt>
      <trkpt lat="47.0066190" lon="7.5649970"><ele>582.8</ele></trkpt>
      <trkpt lat="47.0065900" lon="7.5649740"><ele>582.8</ele></trkpt>
      <trkpt lat="47.0065510" lon="7.5649400"><ele>582.8</ele></trkpt>
      <trkpt lat="47.0063840" lon="7.5647670"><ele>582.9</ele></trkpt>
      <trkpt lat="47.0060990" lon="7.5644120"><ele>582.9</ele></trkpt>
      <trkpt lat="47.0059700" lon="7.5642490"><ele>583</ele></trkpt>
      <trkpt lat="47.0057960" lon="7.5640190"><ele>583.1</ele></trkpt>
      <trkpt lat="47.0044390" lon="7.5622270"><ele>585.2</ele></trkpt>
      <trkpt lat="47.0043930" lon="7.5621660"><ele>585.3</ele></trkpt>
      <trkpt lat="47.0043080" lon="7.5622900"><ele>585.4</ele></trkpt>
      <trkpt lat="47.0041530" lon="7.5621370"><ele>585.7</ele></trkpt>
      <trkpt lat="47.0022170" lon="7.5595780"><ele>590.6</ele></trkpt>
      <trkpt lat="47.0015150" lon="7.5606960"><ele>593.1</ele></trkpt>
      <trkpt lat="47.0011890" lon="7.5601600"><ele>594.7</ele></trkpt>
      <trkpt lat="46.9999350" lon="7.5585540"><ele>601</ele></trkpt>
      <trkpt lat="46.9998310" lon="7.5584360"><ele>601.4</ele></trkpt>
      <trkpt lat="46.9995860" lon="7.5582950"><ele>602.2</ele></trkpt>
      <trkpt lat="46.9992780" lon="7.5581020"><ele>602.9</ele></trkpt>
      <trkpt lat="46.9990340" lon="7.5579490"><ele>603.2</ele></trkpt>
      <trkpt lat="46.9987970" lon="7.5577200"><ele>603.4</ele></trkpt>
      <trkpt lat="46.9988290" lon="7.5575170"><ele>603.4</ele></trkpt>
      <trkpt lat="46.9982790" lon="7.5570720"><ele>603.3</ele></trkpt>
      <trkpt lat="46.9971830" lon="7.5566760"><ele>603.2</ele></trkpt>
      <trkpt lat="46.9964420" lon="7.5562870"><ele>602.8</ele></trkpt>
      <trkpt lat="46.9963520" lon="7.5561650"><ele>602.7</ele></trkpt>
      <trkpt lat="46.9962980" lon="7.5560940"><ele>602.7</ele></trkpt>
      <trkpt lat="46.9962000" lon="7.5560420"><ele>602.7</ele></trkpt>
      <trkpt lat="46.9955520" lon="7.5558600"><ele>602.4</ele></trkpt>
      <trkpt lat="46.9944240" lon="7.5557920"><ele>602.6</ele></trkpt>
      <trkpt lat="46.9940660" lon="7.5558130"><ele>602.7</ele></trkpt>
      <trkpt lat="46.9939380" lon="7.5549190"><ele>602.9</ele></trkpt>
      <trkpt lat="46.9926100" lon="7.5553430"><ele>603.5</ele></trkpt>
      <trkpt lat="46.9920650" lon="7.5554690"><ele>604.3</ele></trkpt>
      <trkpt lat="46.9914060" lon="7.5555440"><ele>605.6</ele></trkpt>
      <trkpt lat="46.9911030" lon="7.5555390"><ele>606.3</ele></trkpt>
      <trkpt lat="46.9907140" lon="7.5554340"><ele>607.4</ele></trkpt>
      <trkpt lat="46.9897980" lon="7.5549190"><ele>610.7</ele></trkpt>
      <trkpt lat="46.9893610" lon="7.5546730"><ele>612.4</ele></trkpt>
      <trkpt lat="46.9885700" lon="7.5543360"><ele>614.9</ele></trkpt>
      <trkpt lat="46.9885300" lon="7.5543200"><ele>615</ele></trkpt>
      <trkpt lat="46.9876320" lon="7.5540400"><ele>617.8</ele></trkpt>
      <trkpt lat="46.9871720" lon="7.5539590"><ele>619.4</ele></trkpt>
      <trkpt lat="46.9866860" lon="7.5540140"><ele>621.3</ele></trkpt>
      <trkpt lat="46.9861730" lon="7.5541820"><ele>623.4</ele></trkpt>
      <trkpt lat="46.9850300" lon="7.5549140"><ele>627.1</ele></trkpt>
      <trkpt lat="46.9839830" lon="7.5556010"><ele>627.3</ele></trkpt>
      <trkpt lat="46.9833820" lon="7.5559970"><ele>625.9</ele></trkpt>
      <trkpt lat="46.9829570" lon="7.5562770"><ele>624.6</ele></trkpt>
      <trkpt lat="46.9826530" lon="7.5564100"><ele>623.4</ele></trkpt>
      <trkpt lat="46.9825310" lon="7.5564490"><ele>622.8</ele></trkpt>
      <trkpt lat="46.9820940" lon="7.5565820"><ele>620.6</ele></trkpt>
      <trkpt lat="46.9819350" lon="7.5565900"><ele>619.8</ele></trkpt>
      <trkpt lat="46.9816110" lon="7.5564750"><ele>618</ele></trkpt>
      <trkpt lat="46.9815580" lon="7.5565110"><ele>617.7</ele></trkpt>
      <trkpt lat="46.9813190" lon="7.5563380"><ele>616.2</ele></trkpt>
      <trkpt lat="46.9794000" lon="7.5545660"><ele>603.5</ele></trkpt>
      <trkpt lat="46.9790680" lon="7.5543880"><ele>601.6</ele></trkpt>
      <trkpt lat="46.9786180" lon="7.5543060"><ele>599.4</ele></trkpt>
      <trkpt lat="46.9762970" lon="7.5542290"><ele>591.7</ele></trkpt>
      <trkpt lat="46.9753590" lon="7.5543320"><ele>589.9</ele></trkpt>
      <trkpt lat="46.9748330" lon="7.5542480"><ele>589.1</ele></trkpt>
      <trkpt lat="46.9735070" lon="7.5540120"><ele>587</ele></trkpt>
      <trkpt lat="46.9732670" lon="7.5539430"><ele>586.7</ele></trkpt>
      <trkpt lat="46.9721410" lon="7.5533770"><ele>585.9</ele></trkpt>
      <trkpt lat="46.9714670" lon="7.5532120"><ele>585.8</ele></trkpt>
      <trkpt lat="46.9704630" lon="7.5530390"><ele>585</ele></trkpt>
      <trkpt lat="46.9699520" lon="7.5529510"><ele>584.3</ele></trkpt>
      <trkpt lat="46.9695860" lon="7.5528940"><ele>583.8</ele></trkpt>
      <trkpt lat="46.9690120" lon="7.5528750"><ele>583.4</ele></trkpt>
      <trkpt lat="46.9684240" lon="7.5528990"><ele>583.3</ele></trkpt>
      <trkpt lat="46.9679610" lon="7.5529690"><ele>583.4</ele></trkpt>
      <trkpt lat="46.9674880" lon="7.5530740"><ele>583.5</ele></trkpt>
      <trkpt lat="46.9673810" lon="7.5530140"><ele>583.5</ele></trkpt>
      <trkpt lat="46.9670060" lon="7.5530710"><ele>583.2</ele></trkpt>
      <trkpt lat="46.9665300" lon="7.5530970"><ele>582.5</ele></trkpt>
      <trkpt lat="46.9665290" lon="7.5530400"><ele>582.4</ele></trkpt>
      <trkpt lat="46.9650000" lon="7.5530080"><ele>579.2</ele></trkpt>
      <trkpt lat="46.9647010" lon="7.5530280"><ele>578.6</ele></trkpt>
      <trkpt lat="46.9643640" lon="7.5531220"><ele>578.1</ele></trkpt>
      <trkpt lat="46.9636610" lon="7.5534930"><ele>577.3</ele></trkpt>
      <trkpt lat="46.9633260" lon="7.5535600"><ele>577</ele></trkpt>
      <trkpt lat="46.9622380" lon="7.5534660"><ele>576.1</ele></trkpt>
      <trkpt lat="46.9613070" lon="7.5531630"><ele>575.2</ele></trkpt>
      <trkpt lat="46.9610830" lon="7.5530890"><ele>575</ele></trkpt>
      <trkpt lat="46.9607320" lon="7.5530260"><ele>574.7</ele></trkpt>
      <trkpt lat="46.9598990" lon="7.5530470"><ele>574.2</ele></trkpt>
      <trkpt lat="46.9595260" lon="7.5529920"><ele>574.2</ele></trkpt>
      <trkpt lat="46.9591540" lon="7.5528110"><ele>574.2</ele></trkpt>
      <trkpt lat="46.9574240" lon="7.5514260"><ele>574.1</ele></trkpt>
      <trkpt lat="46.9567340" lon="7.5507850"><ele>572.6</ele></trkpt>
      <trkpt lat="46.9559450" lon="7.5499190"><ele>570.2</ele></trkpt>
      <trkpt lat="46.9557450" lon="7.5497920"><ele>570</ele></trkpt>
      <trkpt lat="46.9556340" lon="7.5496320"><ele>569.8</ele></trkpt>
      <trkpt lat="46.9555740" lon="7.5496860"><ele>569.8</ele></trkpt>
      <trkpt lat="46.9555050" lon="7.5496210"><ele>569.7</ele></trkpt>
      <trkpt lat="46.9549770" lon="7.5492380"><ele>569</ele></trkpt>
      <trkpt lat="46.9547810" lon="7.5490940"><ele>568.7</ele></trkpt>
      <trkpt lat="46.9545760" lon="7.5489380"><ele>568.4</ele></trkpt>
      <trkpt lat="46.9543490" lon="7.5487790"><ele>567.9</ele></trkpt>
      <trkpt lat="46.9542600" lon="7.5487210"><ele>567.7</ele></trkpt>
      <trkpt lat="46.9542620" lon="7.5485940"><ele>567.5</ele></trkpt>
      <trkpt lat="46.9542200" lon="7.5485330"><ele>567.3</ele></trkpt>
      <trkpt lat="46.9541710" lon="7.5483750"><ele>566.9</ele></trkpt>
      <trkpt lat="46.9541640" lon="7.5481910"><ele>566.5</ele></trkpt>
      <trkpt lat="46.9542140" lon="7.5475730"><ele>564.8</ele></trkpt>
      <trkpt lat="46.9541740" lon="7.5475670"><ele>564.6</ele></trkpt>
      <trkpt lat="46.9536870" lon="7.5474790"><ele>562.8</ele></trkpt>
      <trkpt lat="46.9531670" lon="7.5473950"><ele>561.3</ele></trkpt>
    </trkseg>
  </trk>
</gpx>
