<?xml version="1.0" encoding="UTF-8"?>
<gpx xmlns="http://www.topografix.com/GPX/1/1" xmlns:gpxtpx="http://www.garmin.com/xmlschemas/TrackPointExtension/v1" xmlns:gpxtrkx="http://www.garmin.com/xmlschemas/TrackStatsExtension/v1" xmlns:gpxx="http://www.garmin.com/xmlschemas/GpxExtensions/v3" xmlns:xsi="https://www.w3.org/2001/XMLSchema-instance" creator="bergfex GmbH" version="1.1" xsi:schemaLocation="https://www.topografix.com/GPX/1/1 https://www.topografix.com/GPX/1/1/gpx.xsd"><metadata><link href="https://www.bergfex.at"><text>bergfex GmbH</text></link></metadata><trk><name>Boll-Utzigen - Boll - Bäredräck - Linde</name><extensions><gpxtrkx:TrackStatsExtension><gpxtrkx:Distance>18950</gpxtrkx:Distance><gpxtrkx:TotalElapsedTime>5490</gpxtrkx:TotalElapsedTime><gpxtrkx:Ascent>447</gpxtrkx:Ascent><gpxtrkx:Descent>447</gpxtrkx:Descent><gpxtrkx:MaxElevation>912</gpxtrkx:MaxElevation><gpxtrkx:MinElevation>562</gpxtrkx:MinElevation></gpxtrkx:TrackStatsExtension></extensions><trkseg><trkpt lat="46.9531703552" lon="7.54741178049"><ele>562.7</ele></trkpt><trkpt lat="46.9531724933" lon="7.54739666808"><ele>562.7</ele></trkpt><trkpt lat="46.953172493" lon="7.547396668"><ele>562.7</ele></trkpt><trkpt lat="46.9531728" lon="7.5473945"><ele>562.3</ele></trkpt><trkpt lat="46.9536891" lon="7.5474863"><ele>562.7</ele></trkpt><trkpt lat="46.9542141" lon="7.5475732"><ele>563.4</ele></trkpt><trkpt lat="46.9541639" lon="7.5481908"><ele>564.3</ele></trkpt><trkpt lat="46.9541714" lon="7.5483751"><ele>565.5</ele></trkpt><trkpt lat="46.9541313" lon="7.548539"><ele>566.3</ele></trkpt><trkpt lat="46.9540875" lon="7.5486383"><ele>566.5</ele></trkpt><trkpt lat="46.9540971" lon="7.5487174"><ele>566.5</ele></trkpt><trkpt lat="46.9542604" lon="7.5487211"><ele>566.6</ele></trkpt><trkpt lat="46.954469328" lon="7.548857638"><ele>566.8</ele></trkpt><trkpt lat="46.9555049" lon="7.549621"><ele>568.5</ele></trkpt><trkpt lat="46.9555745" lon="7.5496856"><ele>569.7</ele></trkpt><trkpt lat="46.9556336" lon="7.5496321"><ele>570.8</ele></trkpt><trkpt lat="46.9557451" lon="7.5497915"><ele>571.8</ele></trkpt><trkpt lat="46.9559455" lon="7.5499193"><ele>571.8</ele></trkpt><trkpt lat="46.9567343" lon="7.550785"><ele>571.4</ele></trkpt><trkpt lat="46.9574244" lon="7.5514258"><ele>570.8</ele></trkpt><trkpt lat="46.957783337" lon="7.551713257"><ele>570.5</ele></trkpt><trkpt lat="46.9591538" lon="7.5528108"><ele>570.8</ele></trkpt><trkpt lat="46.9594146" lon="7.5529538"><ele>571.5</ele></trkpt><trkpt lat="46.959521316" lon="7.552990391"><ele>572.4</ele></trkpt><trkpt lat="46.9598986" lon="7.5530474"><ele>573.1</ele></trkpt><trkpt lat="46.9607322" lon="7.5530259"><ele>573.8</ele></trkpt><trkpt lat="46.9610833" lon="7.5530892"><ele>574.6</ele></trkpt><trkpt lat="46.961307" lon="7.5531625"><ele>575.5</ele></trkpt><trkpt lat="46.961457128" lon="7.55321507"><ele>576.3</ele></trkpt><trkpt lat="46.9619624" lon="7.553392"><ele>576.8</ele></trkpt><trkpt lat="46.9622383" lon="7.5534656"><ele>577.2</ele></trkpt><trkpt lat="46.963386739" lon="7.553551946"><ele>577.8</ele></trkpt><trkpt lat="46.9635543" lon="7.5535298"><ele>578.4</ele></trkpt><trkpt lat="46.9636609" lon="7.5534934"><ele>578.8</ele></trkpt><trkpt lat="46.9643637" lon="7.553122"><ele>579.5</ele></trkpt><trkpt lat="46.9647014" lon="7.5530282"><ele>579.8</ele></trkpt><trkpt lat="46.965283489" lon="7.553014149"><ele>580.4</ele></trkpt><trkpt lat="46.9665293" lon="7.5530403"><ele>581.2</ele></trkpt><trkpt lat="46.9665305" lon="7.5530974"><ele>581.9</ele></trkpt><trkpt lat="46.967194448" lon="7.553042372"><ele>582.7</ele></trkpt><trkpt lat="46.9673814" lon="7.5530142"><ele>583.3</ele></trkpt><trkpt lat="46.9674876" lon="7.5530739"><ele>583.6</ele></trkpt><trkpt lat="46.9679612" lon="7.5529693"><ele>583.9</ele></trkpt><trkpt lat="46.9684244" lon="7.5528988"><ele>584.0</ele></trkpt><trkpt lat="46.969128136" lon="7.552878602"><ele>584.2</ele></trkpt><trkpt lat="46.969258703" lon="7.552882989"><ele>584.3</ele></trkpt><trkpt lat="46.969258703" lon="7.552882989"><ele>584.3</ele></trkpt><trkpt lat="46.9695864" lon="7.552894"><ele>584.4</ele></trkpt><trkpt lat="46.971068667" lon="7.553143399"><ele>584.9</ele></trkpt><trkpt lat="46.9718673" lon="7.5532931"><ele>585.6</ele></trkpt><trkpt lat="46.9721411" lon="7.5533766"><ele>586.2</ele></trkpt><trkpt lat="46.972957235" lon="7.553799502"><ele>586.9</ele></trkpt><trkpt lat="46.9732668" lon="7.5539432"><ele>587.6</ele></trkpt><trkpt lat="46.973507" lon="7.554012"><ele>588.2</ele></trkpt><trkpt lat="46.9748331" lon="7.5542483"><ele>589.0</ele></trkpt><trkpt lat="46.974877786" lon="7.554257289"><ele>589.9</ele></trkpt><trkpt lat="46.9752328" lon="7.5543287"><ele>590.8</ele></trkpt><trkpt lat="46.9753587" lon="7.5543317"><ele>591.7</ele></trkpt><trkpt lat="46.976127" lon="7.5542329"><ele>592.9</ele></trkpt><trkpt lat="46.9762974" lon="7.5542293"><ele>594.1</ele></trkpt><trkpt lat="46.97847036" lon="7.554301489"><ele>596.1</ele></trkpt><trkpt lat="46.9788211" lon="7.5543271"><ele>599.3</ele></trkpt><trkpt lat="46.9790676" lon="7.5543882"><ele>602.0</ele></trkpt><trkpt lat="46.9794002" lon="7.5545665"><ele>604.9</ele></trkpt><trkpt lat="46.9796396" lon="7.5547648"><ele>607.0</ele></trkpt><trkpt lat="46.98011875" lon="7.555213843"><ele>609.1</ele></trkpt><trkpt lat="46.9813186" lon="7.5563383"><ele>612.1</ele></trkpt><trkpt lat="46.9815025" lon="7.5564797"><ele>615.1</ele></trkpt><trkpt lat="46.9816231" lon="7.5565476"><ele>617.9</ele></trkpt><trkpt lat="46.9819352" lon="7.5565902"><ele>620.6</ele></trkpt><trkpt lat="46.9820939" lon="7.5565818"><ele>621.0</ele></trkpt><trkpt lat="46.9825307" lon="7.556449"><ele>621.9</ele></trkpt><trkpt lat="46.982883" lon="7.5563187"><ele>623.0</ele></trkpt><trkpt lat="46.9833815" lon="7.5559971"><ele>624.5</ele></trkpt><trkpt lat="46.983983" lon="7.5556014"><ele>627.4</ele></trkpt><trkpt lat="46.984946287" lon="7.554968564"><ele>627.6</ele></trkpt><trkpt lat="46.9850298" lon="7.5549137"><ele>627.6</ele></trkpt><trkpt lat="46.9858828" lon="7.5543507"><ele>626.9</ele></trkpt><trkpt lat="46.9861732" lon="7.5541824"><ele>625.8</ele></trkpt><trkpt lat="46.9864125" lon="7.5540862"><ele>624.5</ele></trkpt><trkpt lat="46.986620989" lon="7.554031081"><ele>623.3</ele></trkpt><trkpt lat="46.9871715" lon="7.5539588"><ele>622.3</ele></trkpt><trkpt lat="46.9873828" lon="7.5539823"><ele>621.4</ele></trkpt><trkpt lat="46.9876324" lon="7.5540395"><ele>620.5</ele></trkpt><trkpt lat="46.988397089" lon="7.554278662"><ele>619.3</ele></trkpt><trkpt lat="46.9885299" lon="7.5543202"><ele>618.3</ele></trkpt><trkpt lat="46.9885699" lon="7.5543363"><ele>617.5</ele></trkpt><trkpt lat="46.9893609" lon="7.5546733"><ele>616.1</ele></trkpt><trkpt lat="46.9897979" lon="7.5549187"><ele>614.6</ele></trkpt><trkpt lat="46.990105674" lon="7.555091892"><ele>613.2</ele></trkpt><trkpt lat="46.9907138" lon="7.5554341"><ele>611.4</ele></trkpt><trkpt lat="46.9909036" lon="7.5554994"><ele>610.2</ele></trkpt><trkpt lat="46.9911033" lon="7.5555392"><ele>609.4</ele></trkpt><trkpt lat="46.9914057" lon="7.5555436"><ele>608.7</ele></trkpt><trkpt lat="46.991853459" lon="7.555493147"><ele>608.0</ele></trkpt><trkpt lat="46.9922887" lon="7.5554346"><ele>607.2</ele></trkpt><trkpt lat="46.9926101" lon="7.5553431"><ele>606.3</ele></trkpt><trkpt lat="46.993621392" lon="7.555019986"><ele>605.4</ele></trkpt><trkpt lat="46.9939384" lon="7.5549187"><ele>604.6</ele></trkpt><trkpt lat="46.9942966" lon="7.5548624"><ele>604.0</ele></trkpt><trkpt lat="46.995410202" lon="7.554798628"><ele>603.3</ele></trkpt><trkpt lat="46.9958263" lon="7.5547748"><ele>602.5</ele></trkpt><trkpt lat="46.9964597" lon="7.5548034"><ele>601.8</ele></trkpt><trkpt lat="46.997205987" lon="7.554898071"><ele>601.2</ele></trkpt><trkpt lat="46.9976587" lon="7.5549555"><ele>600.8</ele></trkpt><trkpt lat="46.9987295" lon="7.5552092"><ele>600.5</ele></trkpt><trkpt lat="46.998982751" lon="7.555295449"><ele>600.3</ele></trkpt><trkpt lat="46.9991926" lon="7.5554093"><ele>600.0</ele></trkpt><trkpt lat="46.9992923" lon="7.5554868"><ele>599.6</ele></trkpt><trkpt lat="46.9995152" lon="7.5557243"><ele>599.3</ele></trkpt><trkpt lat="47.000398762" lon="7.556881929"><ele>598.0</ele></trkpt><trkpt lat="47.00173242" lon="7.558647255"><ele>595.9</ele></trkpt><trkpt lat="47.0030329" lon="7.5603728"><ele>593.3</ele></trkpt><trkpt lat="47.003064743" lon="7.560414776"><ele>590.6</ele></trkpt><trkpt lat="47.0043934" lon="7.5621662"><ele>588.4</ele></trkpt><trkpt lat="47.0051584" lon="7.560523"><ele>586.2</ele></trkpt><trkpt lat="47.0052547" lon="7.5602167"><ele>586.1</ele></trkpt><trkpt lat="47.005279829" lon="7.560004688"><ele>586.2</ele></trkpt><trkpt lat="47.0052824" lon="7.559983"><ele>586.4</ele></trkpt><trkpt lat="47.0052554" lon="7.5596548"><ele>586.7</ele></trkpt><trkpt lat="47.0051791" lon="7.5593854"><ele>587.2</ele></trkpt><trkpt lat="47.0048263" lon="7.5587043"><ele>587.9</ele></trkpt><trkpt lat="47.005448198" lon="7.558030956"><ele>587.7</ele></trkpt><trkpt lat="47.0056483" lon="7.5578143"><ele>586.7</ele></trkpt><trkpt lat="47.0057223" lon="7.5577474"><ele>585.6</ele></trkpt><trkpt lat="47.0052851" lon="7.5567604"><ele>584.4</ele></trkpt><trkpt lat="47.004889885" lon="7.555988966"><ele>583.9</ele></trkpt><trkpt lat="47.0045673" lon="7.5553593"><ele>584.1</ele></trkpt><trkpt lat="47.003816134" lon="7.553878598"><ele>585.1</ele></trkpt><trkpt lat="47.002743049" lon="7.551767506"><ele>585.7</ele></trkpt><trkpt lat="47.0025475" lon="7.5513828"><ele>586.9</ele></trkpt><trkpt lat="47.001674016" lon="7.549652078"><ele>588.0</ele></trkpt><trkpt lat="47.0014668" lon="7.5492415"><ele>588.4</ele></trkpt><trkpt lat="47.0012028" lon="7.5485078"><ele>588.8</ele></trkpt><trkpt lat="47.00079193" lon="7.5473652"><ele>589.2</ele></trkpt><trkpt lat="47.0001795" lon="7.5456228"><ele>590.0</ele></trkpt><trkpt lat="47.0001611" lon="7.5454604"><ele>590.7</ele></trkpt><trkpt lat="47.000102555" lon="7.544961112"><ele>591.6</ele></trkpt><trkpt lat="47.0000431" lon="7.5447758"><ele>592.5</ele></trkpt><trkpt lat="46.9997899" lon="7.5448523"><ele>592.3</ele></trkpt><trkpt lat="46.9997033" lon="7.5448609"><ele>592.0</ele></trkpt><trkpt lat="46.9996772" lon="7.5448128"><ele>591.8</ele></trkpt><trkpt lat="46.9993452" lon="7.5439198"><ele>591.6</ele></trkpt><trkpt lat="46.9988923" lon="7.5427568"><ele>591.8</ele></trkpt><trkpt lat="46.998791" lon="7.5421542"><ele>592.2</ele></trkpt><trkpt lat="46.998695" lon="7.5412327"><ele>592.9</ele></trkpt><trkpt lat="46.9986316" lon="7.540619"><ele>593.7</ele></trkpt><trkpt lat="46.998589301" lon="7.539997986"><ele>594.4</ele></trkpt><trkpt lat="46.9985509" lon="7.5394342"><ele>595.2</ele></trkpt><trkpt lat="46.998519" lon="7.5388924"><ele>595.9</ele></trkpt><trkpt lat="46.9984916" lon="7.5386186"><ele>596.7</ele></trkpt><trkpt lat="46.9984464" lon="7.5383588"><ele>597.3</ele></trkpt><trkpt lat="46.9983107" lon="7.5383305"><ele>597.9</ele></trkpt><trkpt lat="46.9981453" lon="7.5382484"><ele>598.2</ele></trkpt><trkpt lat="46.9979147" lon="7.538075"><ele>598.5</ele></trkpt><trkpt lat="46.9978375" lon="7.5380077"><ele>598.8</ele></trkpt><trkpt lat="46.997604867" lon="7.537929508"><ele>599.2</ele></trkpt><trkpt lat="46.9974951" lon="7.5379098"><ele>599.5</ele></trkpt><trkpt lat="46.9973347" lon="7.5379253"><ele>599.8</ele></trkpt><trkpt lat="46.9970239" lon="7.5378723"><ele>600.0</ele></trkpt><trkpt lat="46.996169" lon="7.5375612"><ele>600.5</ele></trkpt><trkpt lat="46.9958934" lon="7.537458"><ele>601.1</ele></trkpt><trkpt lat="46.9956811" lon="7.5373412"><ele>601.7</ele></trkpt><trkpt lat="46.995621857" lon="7.537391515"><ele>602.7</ele></trkpt><trkpt lat="46.9952491" lon="7.5377081"><ele>603.8</ele></trkpt><trkpt lat="46.9951074" lon="7.537866"><ele>605.1</ele></trkpt><trkpt lat="46.9949672" lon="7.538093"><ele>606.8</ele></trkpt><trkpt lat="46.9947646" lon="7.5385308"><ele>608.6</ele></trkpt><trkpt lat="46.9943892" lon="7.5394466"><ele>611.3</ele></trkpt><trkpt lat="46.9942059" lon="7.5397543"><ele>614.6</ele></trkpt><trkpt lat="46.9940532" lon="7.5399502"><ele>618.3</ele></trkpt><trkpt lat="46.9939171" lon="7.5400589"><ele>621.9</ele></trkpt><trkpt lat="46.9937993" lon="7.5400933"><ele>624.6</ele></trkpt><trkpt lat="46.9935536" lon="7.5400886"><ele>627.3</ele></trkpt><trkpt lat="46.9934819" lon="7.5401601"><ele>629.5</ele></trkpt><trkpt lat="46.9933537" lon="7.5404245"><ele>632.0</ele></trkpt><trkpt lat="46.9932975" lon="7.540503"><ele>634.3</ele></trkpt><trkpt lat="46.993104" lon="7.540683"><ele>636.5</ele></trkpt><trkpt lat="46.9929952" lon="7.5409686"><ele>639.3</ele></trkpt><trkpt lat="46.9929805" lon="7.5410724"><ele>641.5</ele></trkpt><trkpt lat="46.9929944" lon="7.5414653"><ele>643.6</ele></trkpt><trkpt lat="46.9929743" lon="7.5415959"><ele>645.1</ele></trkpt><trkpt lat="46.9928289" lon="7.541659"><ele>646.8</ele></trkpt><trkpt lat="46.9921197" lon="7.5413986"><ele>648.5</ele></trkpt><trkpt lat="46.9918771" lon="7.5413999"><ele>650.6</ele></trkpt><trkpt lat="46.9917084" lon="7.5414742"><ele>653.0</ele></trkpt><trkpt lat="46.9913436" lon="7.5417268"><ele>656.2</ele></trkpt><trkpt lat="46.991244" lon="7.5418339"><ele>658.2</ele></trkpt><trkpt lat="46.9910183" lon="7.5421341"><ele>660.3</ele></trkpt><trkpt lat="46.9909285" lon="7.5421517"><ele>662.2</ele></trkpt><trkpt lat="46.9908496" lon="7.5421006"><ele>663.5</ele></trkpt><trkpt lat="46.990833" lon="7.5420448"><ele>664.2</ele></trkpt><trkpt lat="46.9908499" lon="7.5418136"><ele>664.7</ele></trkpt><trkpt lat="46.9909475" lon="7.5415064"><ele>665.6</ele></trkpt><trkpt lat="46.991068" lon="7.541336"><ele>666.8</ele></trkpt><trkpt lat="46.9912876" lon="7.5411646"><ele>669.1</ele></trkpt><trkpt lat="46.9916834" lon="7.5407596"><ele>672.9</ele></trkpt><trkpt lat="46.9917651" lon="7.5407115"><ele>675.9</ele></trkpt><trkpt lat="46.99208" lon="7.5406216"><ele>679.7</ele></trkpt><trkpt lat="46.992202285" lon="7.540199391"><ele>686.3</ele></trkpt><trkpt lat="46.9923913" lon="7.5396313"><ele>688.2</ele></trkpt><trkpt lat="46.9925659" lon="7.5392616"><ele>691.6</ele></trkpt><trkpt lat="46.9929295" lon="7.538635"><ele>696.0</ele></trkpt><trkpt lat="46.9931083" lon="7.5382635"><ele>701.0</ele></trkpt><trkpt lat="46.9931184" lon="7.5382102"><ele>705.2</ele></trkpt><trkpt lat="46.9931097" lon="7.5381076"><ele>707.9</ele></trkpt><trkpt lat="46.9930673" lon="7.5380166"><ele>709.6</ele></trkpt><trkpt lat="46.9930305" lon="7.5379754"><ele>710.1</ele></trkpt><trkpt lat="46.992735137" lon="7.537879185"><ele>710.9</ele></trkpt><trkpt lat="46.9922247" lon="7.5377648"><ele>713.7</ele></trkpt><trkpt lat="46.9921571" lon="7.5377664"><ele>716.5</ele></trkpt><trkpt lat="46.9920605" lon="7.5378122"><ele>719.7</ele></trkpt><trkpt lat="46.991979" lon="7.5379486"><ele>722.7</ele></trkpt><trkpt lat="46.9919402" lon="7.5381599"><ele>723.5</ele></trkpt><trkpt lat="46.9919426" lon="7.5382496"><ele>724.3</ele></trkpt><trkpt lat="46.9920348" lon="7.5387132"><ele>725.6</ele></trkpt><trkpt lat="46.992028" lon="7.5388654"><ele>726.6</ele></trkpt><trkpt lat="46.9919836" lon="7.5389764"><ele>727.7</ele></trkpt><trkpt lat="46.9918749" lon="7.5390597"><ele>729.0</ele></trkpt><trkpt lat="46.9918141" lon="7.539053"><ele>729.8</ele></trkpt><trkpt lat="46.9917244" lon="7.5389607"><ele>731.0</ele></trkpt><trkpt lat="46.9915706" lon="7.5386737"><ele>732.9</ele></trkpt><trkpt lat="46.991523736" lon="7.538620372"><ele>734.6</ele></trkpt><trkpt lat="46.9914285" lon="7.538512"><ele>736.4</ele></trkpt><trkpt lat="46.9912546" lon="7.538453"><ele>738.5</ele></trkpt><trkpt lat="46.9911451" lon="7.5384735"><ele>740.2</ele></trkpt><trkpt lat="46.9903959" lon="7.5387054"><ele>744.4</ele></trkpt><trkpt lat="46.9901837" lon="7.5388236"><ele>749.0</ele></trkpt><trkpt lat="46.9901025" lon="7.5388953"><ele>753.2</ele></trkpt><trkpt lat="46.9898115" lon="7.5392479"><ele>758.1</ele></trkpt><trkpt lat="46.9897286" lon="7.5393007"><ele>760.4</ele></trkpt><trkpt lat="46.9895933" lon="7.5393425"><ele>762.1</ele></trkpt><trkpt lat="46.98955294" lon="7.539350337"><ele>763.6</ele></trkpt><trkpt lat="46.9894903" lon="7.5393625"><ele>764.3</ele></trkpt><trkpt lat="46.9892233" lon="7.5393455"><ele>765.5</ele></trkpt><trkpt lat="46.9890523" lon="7.5392322"><ele>767.1</ele></trkpt><trkpt lat="46.9889135" lon="7.5390958"><ele>769.2</ele></trkpt><trkpt lat="46.9887608" lon="7.5389828"><ele>771.6</ele></trkpt><trkpt lat="46.9886985" lon="7.5389721"><ele>773.5</ele></trkpt><trkpt lat="46.9885684" lon="7.5390116"><ele>775.2</ele></trkpt><trkpt lat="46.9884575" lon="7.5391555"><ele>776.8</ele></trkpt><trkpt lat="46.9884291" lon="7.5392312"><ele>778.1</ele></trkpt><trkpt lat="46.9884145" lon="7.5393262"><ele>779.4</ele></trkpt><trkpt lat="46.9884064" lon="7.5396655"><ele>781.0</ele></trkpt><trkpt lat="46.9883812" lon="7.5398146"><ele>782.5</ele></trkpt><trkpt lat="46.988233" lon="7.5400417"><ele>784.4</ele></trkpt><trkpt lat="46.9878179" lon="7.540583"><ele>788.0</ele></trkpt><trkpt lat="46.98769" lon="7.5406851"><ele>789.8</ele></trkpt><trkpt lat="46.9871216" lon="7.5408029"><ele>791.9</ele></trkpt><trkpt lat="46.9868298" lon="7.5407742"><ele>793.8</ele></trkpt><trkpt lat="46.9865548" lon="7.5408301"><ele>794.3</ele></trkpt><trkpt lat="46.9863586" lon="7.540811"><ele>796.0</ele></trkpt><trkpt lat="46.986287581" lon="7.540855128"><ele>797.1</ele></trkpt><trkpt lat="46.9862199" lon="7.5409354"><ele>797.9</ele></trkpt><trkpt lat="46.986189" lon="7.5410455"><ele>798.5</ele></trkpt><trkpt lat="46.9861608" lon="7.5412449"><ele>799.0</ele></trkpt><trkpt lat="46.9861486" lon="7.5415635"><ele>799.6</ele></trkpt><trkpt lat="46.9861126" lon="7.5417712"><ele>800.4</ele></trkpt><trkpt lat="46.9860005" lon="7.5420057"><ele>801.3</ele></trkpt><trkpt lat="46.9859269" lon="7.5420981"><ele>802.1</ele></trkpt><trkpt lat="46.985815" lon="7.5421753"><ele>802.9</ele></trkpt><trkpt lat="46.9857319" lon="7.5421718"><ele>803.5</ele></trkpt><trkpt lat="46.9856883" lon="7.5421373"><ele>804.0</ele></trkpt><trkpt lat="46.9855831" lon="7.5419582"><ele>804.5</ele></trkpt><trkpt lat="46.9854883" lon="7.5417296"><ele>805.1</ele></trkpt><trkpt lat="46.9853203" lon="7.5411481"><ele>805.1</ele></trkpt><trkpt lat="46.9851766" lon="7.5410786"><ele>805.1</ele></trkpt><trkpt lat="46.984841" lon="7.5410359"><ele>805.2</ele></trkpt><trkpt lat="46.984702" lon="7.5409775"><ele>805.3</ele></trkpt><trkpt lat="46.9846377" lon="7.5408797"><ele>806.0</ele></trkpt><trkpt lat="46.984492" lon="7.5404814"><ele>806.8</ele></trkpt><trkpt lat="46.9844154" lon="7.540394"><ele>807.4</ele></trkpt><trkpt lat="46.9843578" lon="7.5403621"><ele>807.9</ele></trkpt><trkpt lat="46.984209" lon="7.5403571"><ele>808.5</ele></trkpt><trkpt lat="46.9838721" lon="7.5404093"><ele>809.1</ele></trkpt><trkpt lat="46.9838089" lon="7.5403848"><ele>809.7</ele></trkpt><trkpt lat="46.9836713" lon="7.5402493"><ele>810.4</ele></trkpt><trkpt lat="46.9835344" lon="7.5401695"><ele>811.0</ele></trkpt><trkpt lat="46.9831069" lon="7.5400543"><ele>811.8</ele></trkpt><trkpt lat="46.9829785" lon="7.5399852"><ele>812.5</ele></trkpt><trkpt lat="46.9829356" lon="7.5399318"><ele>813.1</ele></trkpt><trkpt lat="46.9828969" lon="7.5397543"><ele>813.9</ele></trkpt><trkpt lat="46.9829125" lon="7.5395771"><ele>814.5</ele></trkpt><trkpt lat="46.9829456" lon="7.5394922"><ele>815.3</ele></trkpt><trkpt lat="46.983057" lon="7.539359"><ele>816.3</ele></trkpt><trkpt lat="46.9834061" lon="7.5391356"><ele>817.8</ele></trkpt><trkpt lat="46.9834881" lon="7.5390173"><ele>819.2</ele></trkpt><trkpt lat="46.983634212" lon="7.538657142"><ele>820.7</ele></trkpt><trkpt lat="46.9836935" lon="7.538511"><ele>822.1</ele></trkpt><trkpt lat="46.9839324" lon="7.5381407"><ele>823.1</ele></trkpt><trkpt lat="46.9842666" lon="7.5377974"><ele>824.4</ele></trkpt><trkpt lat="46.9842336" lon="7.5375976"><ele>826.1</ele></trkpt><trkpt lat="46.9836334" lon="7.5376911"><ele>831.0</ele></trkpt><trkpt lat="46.9835367" lon="7.5377431"><ele>832.7</ele></trkpt><trkpt lat="46.983352157" lon="7.537897579"><ele>835.3</ele></trkpt><trkpt lat="46.9828216" lon="7.5383417"><ele>838.8</ele></trkpt><trkpt lat="46.9825956" lon="7.5385679"><ele>842.3</ele></trkpt><trkpt lat="46.9823835" lon="7.5388422"><ele>846.5</ele></trkpt><trkpt lat="46.9823418" lon="7.5389332"><ele>849.9</ele></trkpt><trkpt lat="46.9822452" lon="7.5392408"><ele>853.0</ele></trkpt><trkpt lat="46.9821129" lon="7.5394584"><ele>855.7</ele></trkpt><trkpt lat="46.9820003" lon="7.5395528"><ele>857.7</ele></trkpt><trkpt lat="46.981841851" lon="7.539570962"><ele>859.9</ele></trkpt><trkpt lat="46.9816539" lon="7.5395817"><ele>861.5</ele></trkpt><trkpt lat="46.981524" lon="7.5397755"><ele>864.3</ele></trkpt><trkpt lat="46.9815284" lon="7.539978"><ele>865.4</ele></trkpt><trkpt lat="46.9816054" lon="7.5402162"><ele>866.8</ele></trkpt><trkpt lat="46.9816704" lon="7.5403039"><ele>867.6</ele></trkpt><trkpt lat="46.9819123" lon="7.540461"><ele>868.8</ele></trkpt><trkpt lat="46.9819738" lon="7.5405273"><ele>869.6</ele></trkpt><trkpt lat="46.9820136" lon="7.5406012"><ele>869.9</ele></trkpt><trkpt lat="46.9820406" lon="7.5407599"><ele>870.9</ele></trkpt><trkpt lat="46.9819972" lon="7.5410833"><ele>871.8</ele></trkpt><trkpt lat="46.9819735" lon="7.5413985"><ele>872.9</ele></trkpt><trkpt lat="46.9820245" lon="7.5415433"><ele>874.2</ele></trkpt><trkpt lat="46.982110217" lon="7.54162927"><ele>875.3</ele></trkpt><trkpt lat="46.9822563" lon="7.5417106"><ele>876.4</ele></trkpt><trkpt lat="46.9828778" lon="7.5419459"><ele>878.3</ele></trkpt><trkpt lat="46.9829643" lon="7.5420403"><ele>880.1</ele></trkpt><trkpt lat="46.9830483" lon="7.5421694"><ele>882.1</ele></trkpt><trkpt lat="46.9832926" lon="7.5424257"><ele>884.3</ele></trkpt><trkpt lat="46.9834607" lon="7.5426314"><ele>885.0</ele></trkpt><trkpt lat="46.983755416" lon="7.543055433"><ele>885.2</ele></trkpt><trkpt lat="46.9839377" lon="7.5433412"><ele>884.3</ele></trkpt><trkpt lat="46.9840953" lon="7.5436674"><ele>882.3</ele></trkpt><trkpt lat="46.9841478" lon="7.5438176"><ele>880.5</ele></trkpt><trkpt lat="46.9841825" lon="7.5439759"><ele>878.8</ele></trkpt><trkpt lat="46.9842923" lon="7.5448514"><ele>876.8</ele></trkpt><trkpt lat="46.984445127" lon="7.545538939"><ele>874.9</ele></trkpt><trkpt lat="46.9842923" lon="7.5448514"><ele>873.6</ele></trkpt><trkpt lat="46.9841825" lon="7.5439759"><ele>873.6</ele></trkpt><trkpt lat="46.9841478" lon="7.5438176"><ele>874.9</ele></trkpt><trkpt lat="46.9840953" lon="7.5436674"><ele>876.8</ele></trkpt><trkpt lat="46.9839377" lon="7.5433412"><ele>878.8</ele></trkpt><trkpt lat="46.9838021" lon="7.5431226"><ele>880.0</ele></trkpt><trkpt lat="46.9834607" lon="7.5426314"><ele>881.9</ele></trkpt><trkpt lat="46.9832926" lon="7.5424257"><ele>883.8</ele></trkpt><trkpt lat="46.983123" lon="7.5423297"><ele>885.6</ele></trkpt><trkpt lat="46.9828849" lon="7.5421575"><ele>887.3</ele></trkpt><trkpt lat="46.9828264" lon="7.5421393"><ele>888.4</ele></trkpt><trkpt lat="46.982504" lon="7.5421371"><ele>889.7</ele></trkpt><trkpt lat="46.9820799" lon="7.5420339"><ele>891.3</ele></trkpt><trkpt lat="46.9819226" lon="7.5419629"><ele>892.8</ele></trkpt><trkpt lat="46.9818632" lon="7.5419124"><ele>894.4</ele></trkpt><trkpt lat="46.981804901" lon="7.541822539"><ele>895.5</ele></trkpt><trkpt lat="46.9816089" lon="7.5413318"><ele>896.6</ele></trkpt><trkpt lat="46.9815543" lon="7.5412369"><ele>897.6</ele></trkpt><trkpt lat="46.9811459" lon="7.5409292"><ele>899.1</ele></trkpt><trkpt lat="46.9809987" lon="7.5407043"><ele>901.0</ele></trkpt><trkpt lat="46.9807108" lon="7.5404948"><ele>902.6</ele></trkpt><trkpt lat="46.980595" lon="7.5403515"><ele>904.2</ele></trkpt><trkpt lat="46.980511" lon="7.5402375"><ele>905.0</ele></trkpt><trkpt lat="46.9803521" lon="7.5403415"><ele>905.4</ele></trkpt><trkpt lat="46.9799792" lon="7.5398724"><ele>905.9</ele></trkpt><trkpt lat="46.9798203" lon="7.5395785"><ele>906.6</ele></trkpt><trkpt lat="46.9796191" lon="7.5394112"><ele>907.6</ele></trkpt><trkpt lat="46.9794432" lon="7.5393795"><ele>908.5</ele></trkpt><trkpt lat="46.979115" lon="7.5393874"><ele>909.6</ele></trkpt><trkpt lat="46.9788131" lon="7.5392553"><ele>910.7</ele></trkpt><trkpt lat="46.9787303" lon="7.5392449"><ele>911.6</ele></trkpt><trkpt lat="46.978485827" lon="7.539107227"><ele>912.1</ele></trkpt><trkpt lat="46.9784183" lon="7.5390692"><ele>912.0</ele></trkpt><trkpt lat="46.9781915" lon="7.538795"><ele>911.0</ele></trkpt><trkpt lat="46.9776928" lon="7.5378434"><ele>908.6</ele></trkpt><trkpt lat="46.9776102" lon="7.5374171"><ele>906.0</ele></trkpt><trkpt lat="46.9776051" lon="7.5371609"><ele>903.4</ele></trkpt><trkpt lat="46.9776617" lon="7.5370747"><ele>901.3</ele></trkpt><trkpt lat="46.9776687" lon="7.5369766"><ele>900.4</ele></trkpt><trkpt lat="46.9776489" lon="7.5368898"><ele>899.9</ele></trkpt><trkpt lat="46.9775129" lon="7.5367451"><ele>899.5</ele></trkpt><trkpt lat="46.9774711" lon="7.5368896"><ele>898.9</ele></trkpt><trkpt lat="46.9774142" lon="7.5370058"><ele>898.1</ele></trkpt><trkpt lat="46.9773269" lon="7.5371219"><ele>897.0</ele></trkpt><trkpt lat="46.9768206" lon="7.5376121"><ele>894.3</ele></trkpt><trkpt lat="46.9762924" lon="7.5379798"><ele>889.9</ele></trkpt><trkpt lat="46.976166" lon="7.5380373"><ele>885.5</ele></trkpt><trkpt lat="46.9760284" lon="7.5380525"><ele>881.0</ele></trkpt><trkpt lat="46.9759401" lon="7.5383185"><ele>877.5</ele></trkpt><trkpt lat="46.9758251" lon="7.5379696"><ele>875.6</ele></trkpt><trkpt lat="46.9753447" lon="7.5376051"><ele>872.5</ele></trkpt><trkpt lat="46.9752382" lon="7.5376009"><ele>869.6</ele></trkpt><trkpt lat="46.9751752" lon="7.5376209"><ele>867.3</ele></trkpt><trkpt lat="46.9751186" lon="7.5376578"><ele>865.1</ele></trkpt><trkpt lat="46.9750652" lon="7.5377231"><ele>864.3</ele></trkpt><trkpt lat="46.9750321" lon="7.5377971"><ele>863.4</ele></trkpt><trkpt lat="46.9750191" lon="7.53787"><ele>862.7</ele></trkpt><trkpt lat="46.9750238" lon="7.5380458"><ele>861.8</ele></trkpt><trkpt lat="46.975043" lon="7.5381498"><ele>861.1</ele></trkpt><trkpt lat="46.9751177" lon="7.5382972"><ele>860.4</ele></trkpt><trkpt lat="46.9754012" lon="7.5386133"><ele>858.7</ele></trkpt><trkpt lat="46.975478" lon="7.5387812"><ele>857.8</ele></trkpt><trkpt lat="46.9755133" lon="7.5389415"><ele>856.6</ele></trkpt><trkpt lat="46.975531894" lon="7.539186751"><ele>854.7</ele></trkpt><trkpt lat="46.9755343" lon="7.5395895"><ele>853.3</ele></trkpt><trkpt lat="46.9754905" lon="7.5399956"><ele>850.5</ele></trkpt><trkpt lat="46.9754597" lon="7.5401131"><ele>847.8</ele></trkpt><trkpt lat="46.975342" lon="7.5403282"><ele>845.4</ele></trkpt><trkpt lat="46.9752342" lon="7.5404466"><ele>843.0</ele></trkpt><trkpt lat="46.9744832" lon="7.5411214"><ele>838.7</ele></trkpt><trkpt lat="46.974334128" lon="7.541255306"><ele>834.1</ele></trkpt><trkpt lat="46.9743043" lon="7.5412821"><ele>829.8</ele></trkpt><trkpt lat="46.9742273" lon="7.5413406"><ele>825.5</ele></trkpt><trkpt lat="46.9740789" lon="7.5414604"><ele>823.6</ele></trkpt><trkpt lat="46.9740203" lon="7.5414818"><ele>822.0</ele></trkpt><trkpt lat="46.9739436" lon="7.541478"><ele>820.5</ele></trkpt><trkpt lat="46.974032" lon="7.5416687"><ele>819.8</ele></trkpt><trkpt lat="46.973842" lon="7.5416455"><ele>819.6</ele></trkpt><trkpt lat="46.9737786" lon="7.5416716"><ele>819.7</ele></trkpt><trkpt lat="46.9736579" lon="7.5417596"><ele>820.0</ele></trkpt><trkpt lat="46.9734949" lon="7.5419735"><ele>820.0</ele></trkpt><trkpt lat="46.9734341" lon="7.5420187"><ele>820.0</ele></trkpt><trkpt lat="46.9731316" lon="7.5420602"><ele>820.0</ele></trkpt><trkpt lat="46.9727124" lon="7.5420674"><ele>820.0</ele></trkpt><trkpt lat="46.9726475" lon="7.5420496"><ele>820.1</ele></trkpt><trkpt lat="46.9725129" lon="7.5419664"><ele>819.4</ele></trkpt><trkpt lat="46.9721586" lon="7.5418368"><ele>817.1</ele></trkpt><trkpt lat="46.9719485" lon="7.5418166"><ele>813.9</ele></trkpt><trkpt lat="46.9716874" lon="7.5417275"><ele>809.4</ele></trkpt><trkpt lat="46.9714606" lon="7.5417007"><ele>804.5</ele></trkpt><trkpt lat="46.9713473" lon="7.5413363"><ele>794.8</ele></trkpt><trkpt lat="46.9713604" lon="7.5412576"><ele>794.8</ele></trkpt><trkpt lat="46.9714041" lon="7.5410562"><ele>794.5</ele></trkpt><trkpt lat="46.9715388" lon="7.5407082"><ele>793.7</ele></trkpt><trkpt lat="46.971965454" lon="7.54004842"><ele>792.5</ele></trkpt><trkpt lat="46.9720172" lon="7.5399684"><ele>790.9</ele></trkpt><trkpt lat="46.9721511" lon="7.5396271"><ele>789.3</ele></trkpt><trkpt lat="46.9719785" lon="7.5392057"><ele>787.4</ele></trkpt><trkpt lat="46.9718439" lon="7.5387351"><ele>785.0</ele></trkpt><trkpt lat="46.9716954" lon="7.537913"><ele>781.3</ele></trkpt><trkpt lat="46.9716297" lon="7.5378414"><ele>777.8</ele></trkpt><trkpt lat="46.9715599" lon="7.537846"><ele>774.8</ele></trkpt><trkpt lat="46.9715411" lon="7.5376778"><ele>772.4</ele></trkpt><trkpt lat="46.971552057" lon="7.537579755"><ele>771.4</ele></trkpt><trkpt lat="46.9715756" lon="7.5373691"><ele>770.3</ele></trkpt><trkpt lat="46.9716636" lon="7.5369208"><ele>768.5</ele></trkpt><trkpt lat="46.9716326" lon="7.5368166"><ele>766.9</ele></trkpt><trkpt lat="46.9714468" lon="7.5365162"><ele>764.7</ele></trkpt><trkpt lat="46.970630816" lon="7.535380031"><ele>759.6</ele></trkpt><trkpt lat="46.9705031" lon="7.5352845"><ele>755.2</ele></trkpt><trkpt lat="46.9703183" lon="7.5351897"><ele>750.5</ele></trkpt><trkpt lat="46.9698705" lon="7.5350791"><ele>746.3</ele></trkpt><trkpt lat="46.968827342" lon="7.534352774"><ele>744.1</ele></trkpt><trkpt lat="46.9685466" lon="7.5341573"><ele>740.7</ele></trkpt><trkpt lat="46.9684784" lon="7.5340902"><ele>737.7</ele></trkpt><trkpt lat="46.9684045" lon="7.5339782"><ele>734.7</ele></trkpt><trkpt lat="46.9681612" lon="7.5334246"><ele>732.3</ele></trkpt><trkpt lat="46.9679922" lon="7.5330394"><ele>730.6</ele></trkpt><trkpt lat="46.9677868" lon="7.5326603"><ele>728.4</ele></trkpt><trkpt lat="46.9677846" lon="7.5325464"><ele>726.2</ele></trkpt><trkpt lat="46.9678774" lon="7.5323242"><ele>724.3</ele></trkpt><trkpt lat="46.9679002" lon="7.5321793"><ele>723.1</ele></trkpt><trkpt lat="46.9678479" lon="7.5321563"><ele>722.6</ele></trkpt><trkpt lat="46.9675756" lon="7.5319066"><ele>722.1</ele></trkpt><trkpt lat="46.9674211" lon="7.5317514"><ele>722.1</ele></trkpt><trkpt lat="46.9673058" lon="7.5315941"><ele>722.0</ele></trkpt><trkpt lat="46.9672028" lon="7.5316797"><ele>722.1</ele></trkpt><trkpt lat="46.9671304" lon="7.5312499"><ele>722.3</ele></trkpt><trkpt lat="46.9671074" lon="7.5311791"><ele>722.4</ele></trkpt><trkpt lat="46.9670245" lon="7.5310635"><ele>722.3</ele></trkpt><trkpt lat="46.9668413" lon="7.530963"><ele>721.5</ele></trkpt><trkpt lat="46.966533" lon="7.5309208"><ele>720.2</ele></trkpt><trkpt lat="46.9662684" lon="7.5309738"><ele>718.5</ele></trkpt><trkpt lat="46.9658745" lon="7.5310037"><ele>716.2</ele></trkpt><trkpt lat="46.965733" lon="7.5310546"><ele>714.0</ele></trkpt><trkpt lat="46.9655448" lon="7.5311863"><ele>712.1</ele></trkpt><trkpt lat="46.9654101" lon="7.5310685"><ele>710.1</ele></trkpt><trkpt lat="46.9653186" lon="7.531017"><ele>708.5</ele></trkpt><trkpt lat="46.9652483" lon="7.5310123"><ele>707.1</ele></trkpt><trkpt lat="46.9651716" lon="7.5310375"><ele>705.9</ele></trkpt><trkpt lat="46.9648139" lon="7.5313532"><ele>705.3</ele></trkpt><trkpt lat="46.9646744" lon="7.5314466"><ele>705.1</ele></trkpt><trkpt lat="46.96428597" lon="7.531472743"><ele>704.8</ele></trkpt><trkpt lat="46.9639231" lon="7.5314831"><ele>704.4</ele></trkpt><trkpt lat="46.9637188" lon="7.5315152"><ele>703.8</ele></trkpt><trkpt lat="46.9629584" lon="7.5317283"><ele>701.0</ele></trkpt><trkpt lat="46.9623562" lon="7.5319581"><ele>697.5</ele></trkpt><trkpt lat="46.9621617" lon="7.53208"><ele>693.4</ele></trkpt><trkpt lat="46.9621099" lon="7.5321531"><ele>689.2</ele></trkpt><trkpt lat="46.9620374" lon="7.5323393"><ele>686.8</ele></trkpt><trkpt lat="46.9620167" lon="7.5324668"><ele>685.1</ele></trkpt><trkpt lat="46.9620108" lon="7.5326318"><ele>683.7</ele></trkpt><trkpt lat="46.962044" lon="7.53291"><ele>682.0</ele></trkpt><trkpt lat="46.9621313" lon="7.5332693"><ele>679.8</ele></trkpt><trkpt lat="46.9622313" lon="7.5335696"><ele>677.3</ele></trkpt><trkpt lat="46.9623458" lon="7.5338601"><ele>675.1</ele></trkpt><trkpt lat="46.9623625" lon="7.5340242"><ele>673.6</ele></trkpt><trkpt lat="46.962361374" lon="7.534256417"><ele>672.9</ele></trkpt><trkpt lat="46.9623599" lon="7.5345602"><ele>673.0</ele></trkpt><trkpt lat="46.9622385" lon="7.5357053"><ele>673.3</ele></trkpt><trkpt lat="46.9619594" lon="7.5367291"><ele>673.7</ele></trkpt><trkpt lat="46.961957533" lon="7.536734391"><ele>673.7</ele></trkpt><trkpt lat="46.961957533" lon="7.536734391"><ele>673.7</ele></trkpt><trkpt lat="46.961897392" lon="7.536904845"><ele>674.1</ele></trkpt><trkpt lat="46.9618297" lon="7.5370967"><ele>674.5</ele></trkpt><trkpt lat="46.9615127" lon="7.5376889"><ele>673.8</ele></trkpt><trkpt lat="46.9612182" lon="7.5383432"><ele>672.0</ele></trkpt><trkpt lat="46.9611321" lon="7.5386389"><ele>669.8</ele></trkpt><trkpt lat="46.961103048" lon="7.539326386"><ele>667.9</ele></trkpt><trkpt lat="46.9611197" lon="7.5395724"><ele>667.0</ele></trkpt><trkpt lat="46.9610344" lon="7.5401851"><ele>667.3</ele></trkpt><trkpt lat="46.9609298" lon="7.5407447"><ele>668.3</ele></trkpt><trkpt lat="46.9608776" lon="7.5409309"><ele>669.1</ele></trkpt><trkpt lat="46.9607999" lon="7.5410817"><ele>669.8</ele></trkpt><trkpt lat="46.9604862" lon="7.5413819"><ele>669.4</ele></trkpt><trkpt lat="46.960290174" lon="7.54161724"><ele>668.0</ele></trkpt><trkpt lat="46.960018" lon="7.541944"><ele>665.8</ele></trkpt><trkpt lat="46.959999" lon="7.5419832"><ele>663.6</ele></trkpt><trkpt lat="46.9598007" lon="7.5424393"><ele>662.0</ele></trkpt><trkpt lat="46.959582" lon="7.5429223"><ele>660.6</ele></trkpt><trkpt lat="46.9591242" lon="7.5426425"><ele>657.8</ele></trkpt><trkpt lat="46.959004333" lon="7.54296677"><ele>654.8</ele></trkpt><trkpt lat="46.9588952" lon="7.543262"><ele>651.6</ele></trkpt><trkpt lat="46.9586664" lon="7.544096"><ele>648.4</ele></trkpt><trkpt lat="46.9586162" lon="7.5443397"><ele>646.9</ele></trkpt><trkpt lat="46.9585997" lon="7.5449025"><ele>645.2</ele></trkpt><trkpt lat="46.95861266" lon="7.545613013"><ele>643.4</ele></trkpt><trkpt lat="46.9586244" lon="7.5462566"><ele>641.7</ele></trkpt><trkpt lat="46.9585328" lon="7.5462606"><ele>639.9</ele></trkpt><trkpt lat="46.9582296" lon="7.5462788"><ele>637.8</ele></trkpt><trkpt lat="46.957965" lon="7.5462825"><ele>635.6</ele></trkpt><trkpt lat="46.9577583" lon="7.5462409"><ele>633.4</ele></trkpt><trkpt lat="46.9576532" lon="7.5462135"><ele>631.4</ele></trkpt><trkpt lat="46.9572134" lon="7.5460846"><ele>628.9</ele></trkpt><trkpt lat="46.9571838" lon="7.5460781"><ele>626.6</ele></trkpt><trkpt lat="46.957051" lon="7.5460832"><ele>624.5</ele></trkpt><trkpt lat="46.9569295" lon="7.5461515"><ele>622.2</ele></trkpt><trkpt lat="46.9567892" lon="7.5463129"><ele>620.5</ele></trkpt><trkpt lat="46.9567253" lon="7.5464073"><ele>618.8</ele></trkpt><trkpt lat="46.9566451" lon="7.5464775"><ele>617.1</ele></trkpt><trkpt lat="46.9565843" lon="7.5464824"><ele>615.4</ele></trkpt><trkpt lat="46.9565026" lon="7.5464338"><ele>614.0</ele></trkpt><trkpt lat="46.9564569" lon="7.5463544"><ele>612.7</ele></trkpt><trkpt lat="46.9564351" lon="7.5462306"><ele>611.7</ele></trkpt><trkpt lat="46.956443" lon="7.5460779"><ele>610.8</ele></trkpt><trkpt lat="46.9566199" lon="7.5448279"><ele>608.5</ele></trkpt><trkpt lat="46.9566876" lon="7.5442364"><ele>605.4</ele></trkpt><trkpt lat="46.9566654" lon="7.5440419"><ele>602.2</ele></trkpt><trkpt lat="46.9565511" lon="7.5437458"><ele>598.9</ele></trkpt><trkpt lat="46.9562514" lon="7.5438824"><ele>596.4</ele></trkpt><trkpt lat="46.9560009" lon="7.5439488"><ele>594.0</ele></trkpt><trkpt lat="46.9557935" lon="7.5439688"><ele>591.2</ele></trkpt><trkpt lat="46.9554507" lon="7.543986"><ele>587.9</ele></trkpt><trkpt lat="46.9553712" lon="7.5440293"><ele>585.3</ele></trkpt><trkpt lat="46.9552938" lon="7.5441121"><ele>583.2</ele></trkpt><trkpt lat="46.9552312" lon="7.5442547"><ele>581.4</ele></trkpt><trkpt lat="46.9551743" lon="7.5445183"><ele>580.1</ele></trkpt><trkpt lat="46.9551362" lon="7.5445903"><ele>578.8</ele></trkpt><trkpt lat="46.9550775" lon="7.5446527"><ele>577.5</ele></trkpt><trkpt lat="46.9550211" lon="7.5446824"><ele>576.4</ele></trkpt><trkpt lat="46.9549386" lon="7.5446927"><ele>575.4</ele></trkpt><trkpt lat="46.9547435" lon="7.5446756"><ele>573.8</ele></trkpt><trkpt lat="46.9546944" lon="7.5446691"><ele>572.1</ele></trkpt><trkpt lat="46.9545143" lon="7.5446458"><ele>570.3</ele></trkpt><trkpt lat="46.9544768" lon="7.5446412"><ele>568.8</ele></trkpt><trkpt lat="46.9544639" lon="7.5449984"><ele>567.7</ele></trkpt><trkpt lat="46.9543743" lon="7.5451201"><ele>566.8</ele></trkpt><trkpt lat="46.9543545" lon="7.5451725"><ele>566.2</ele></trkpt><trkpt lat="46.9543314" lon="7.5453836"><ele>565.6</ele></trkpt><trkpt lat="46.9543906" lon="7.5460588"><ele>565.2</ele></trkpt><trkpt lat="46.9543802" lon="7.5462692"><ele>565.0</ele></trkpt><trkpt lat="46.9543115" lon="7.5464519"><ele>564.7</ele></trkpt><trkpt lat="46.9540846" lon="7.546452"><ele>564.6</ele></trkpt><trkpt lat="46.9541621" lon="7.5466991"><ele>564.6</ele></trkpt><trkpt lat="46.9541949" lon="7.5469169"><ele>564.7</ele></trkpt><trkpt lat="46.9542219" lon="7.54729"><ele>564.9</ele></trkpt><trkpt lat="46.9542141" lon="7.5475732"><ele>565.2</ele></trkpt><trkpt lat="46.9536891" lon="7.5474863"><ele>564.8</ele></trkpt><trkpt lat="46.9531728" lon="7.5473945"><ele>562.7</ele></trkpt><trkpt lat="46.9531728" lon="7.5473945"><ele>561.8</ele></trkpt><trkpt lat="46.9531703552" lon="7.54741178049"><ele>562.7</ele></trkpt></trkseg></trk></gpx>
