<?xml version="1.0" encoding="UTF-8"?>
<gpx version="1.1" creator="trailforks-komoot-gpx-chrome-extension komoot-adapter" xmlns="http://www.topografix.com/GPX/1/1" xmlns:xsi="http://www.w3.org/2001/XMLSchema-instance" xsi:schemaLocation="http://www.topografix.com/GPX/1/1 http://www.topografix.com/GPX/1/1/gpx.xsd">
  <metadata>
    <name>Richigengraben Trail – Ballenbühl Viewpoint loop from Boll-Utzigen</name>
    <time>2026-07-29T15:26:46.245Z</time>
    <link href="https://www.komoot.com/smarttour/12231376/richigengraben-trail-ballenbuehl-viewpoint-loop-from-boll-utzigen"><text>Komoot source page</text></link>
  </metadata>
  <trk>
    <name>Richigengraben Trail – Ballenbühl Viewpoint loop from Boll-Utzigen</name>
    <trkseg>
      <trkpt lat="46.9531670" lon="7.5473950"><ele>561.3</ele></trkpt>
      <trkpt lat="46.9536870" lon="7.5474790"><ele>562.8</ele></trkpt>
      <trkpt lat="46.9541740" lon="7.5475670"><ele>564.6</ele></trkpt>
      <trkpt lat="46.9542140" lon="7.5475730"><ele>564.8</ele></trkpt>
      <trkpt lat="46.9541640" lon="7.5481910"><ele>566.6</ele></trkpt>
      <trkpt lat="46.9541710" lon="7.5483750"><ele>567.1</ele></trkpt>
      <trkpt lat="46.9541310" lon="7.5485390"><ele>567.6</ele></trkpt>
      <trkpt lat="46.9540870" lon="7.5486380"><ele>567.9</ele></trkpt>
      <trkpt lat="46.9540970" lon="7.5487170"><ele>568.2</ele></trkpt>
      <trkpt lat="46.9541370" lon="7.5487760"><ele>568.4</ele></trkpt>
      <trkpt lat="46.9541920" lon="7.5487900"><ele>568.6</ele></trkpt>
      <trkpt lat="46.9542600" lon="7.5487210"><ele>569</ele></trkpt>
      <trkpt lat="46.9543490" lon="7.5487790"><ele>569.4</ele></trkpt>
      <trkpt lat="46.9545760" lon="7.5489380"><ele>570.4</ele></trkpt>
      <trkpt lat="46.9545420" lon="7.5490820"><ele>570.8</ele></trkpt>
      <trkpt lat="46.9545470" lon="7.5491830"><ele>571</ele></trkpt>
      <trkpt lat="46.9546390" lon="7.5494210"><ele>571.6</ele></trkpt>
      <trkpt lat="46.9546500" lon="7.5495850"><ele>571.9</ele></trkpt>
      <trkpt lat="46.9546370" lon="7.5498420"><ele>572.3</ele></trkpt>
      <trkpt lat="46.9545830" lon="7.5505270"><ele>573.2</ele></trkpt>
      <trkpt lat="46.9540270" lon="7.5516180"><ele>573.9</ele></trkpt>
      <trkpt lat="46.9537970" lon="7.5519340"><ele>574</ele></trkpt>
      <trkpt lat="46.9536090" lon="7.5521930"><ele>574.2</ele></trkpt>
      <trkpt lat="46.9536540" lon="7.5522700"><ele>574.3</ele></trkpt>
      <trkpt lat="46.9536490" lon="7.5523230"><ele>574.3</ele></trkpt>
      <trkpt lat="46.9533980" lon="7.5527600"><ele>574.6</ele></trkpt>
      <trkpt lat="46.9533610" lon="7.5528450"><ele>574.7</ele></trkpt>
      <trkpt lat="46.9533670" lon="7.5528990"><ele>574.8</ele></trkpt>
      <trkpt lat="46.9535240" lon="7.5531610"><ele>575.1</ele></trkpt>
      <trkpt lat="46.9534830" lon="7.5531810"><ele>575.1</ele></trkpt>
      <trkpt lat="46.9530350" lon="7.5534020"><ele>575.7</ele></trkpt>
      <trkpt lat="46.9527900" lon="7.5535140"><ele>576.1</ele></trkpt>
      <trkpt lat="46.9526410" lon="7.5535880"><ele>576.4</ele></trkpt>
      <trkpt lat="46.9528480" lon="7.5539170"><ele>577</ele></trkpt>
      <trkpt lat="46.9528060" lon="7.5539650"><ele>577.1</ele></trkpt>
      <trkpt lat="46.9527620" lon="7.5540160"><ele>577.3</ele></trkpt>
      <trkpt lat="46.9526390" lon="7.5541780"><ele>577.8</ele></trkpt>
      <trkpt lat="46.9523650" lon="7.5545890"><ele>579.5</ele></trkpt>
      <trkpt lat="46.9522950" lon="7.5547930"><ele>580.4</ele></trkpt>
      <trkpt lat="46.9522010" lon="7.5555050"><ele>584.3</ele></trkpt>
      <trkpt lat="46.9519450" lon="7.5559680"><ele>589</ele></trkpt>
      <trkpt lat="46.9518760" lon="7.5561820"><ele>591.1</ele></trkpt>
      <trkpt lat="46.9517940" lon="7.5568610"><ele>597.3</ele></trkpt>
      <trkpt lat="46.9518520" lon="7.5573550"><ele>602.1</ele></trkpt>
      <trkpt lat="46.9518090" lon="7.5575530"><ele>604</ele></trkpt>
      <trkpt lat="46.9515250" lon="7.5582330"><ele>611</ele></trkpt>
      <trkpt lat="46.9512240" lon="7.5587200"><ele>615.4</ele></trkpt>
      <trkpt lat="46.9508590" lon="7.5590890"><ele>618.5</ele></trkpt>
      <trkpt lat="46.9506990" lon="7.5593310"><ele>619.8</ele></trkpt>
      <trkpt lat="46.9504380" lon="7.5598800"><ele>621.7</ele></trkpt>
      <trkpt lat="46.9501250" lon="7.5608720"><ele>621.4</ele></trkpt>
      <trkpt lat="46.9500210" lon="7.5613970"><ele>619.8</ele></trkpt>
      <trkpt lat="46.9499300" lon="7.5615890"><ele>619.1</ele></trkpt>
      <trkpt lat="46.9495910" lon="7.5617070"><ele>617.4</ele></trkpt>
      <trkpt lat="46.9494200" lon="7.5616730"><ele>616.6</ele></trkpt>
      <trkpt lat="46.9492990" lon="7.5616250"><ele>616.1</ele></trkpt>
      <trkpt lat="46.9490980" lon="7.5616430"><ele>615.3</ele></trkpt>
      <trkpt lat="46.9486950" lon="7.5618640"><ele>614</ele></trkpt>
      <trkpt lat="46.9478810" lon="7.5620500"><ele>613.2</ele></trkpt>
      <trkpt lat="46.9474260" lon="7.5621170"><ele>613</ele></trkpt>
      <trkpt lat="46.9470790" lon="7.5615860"><ele>612</ele></trkpt>
      <trkpt lat="46.9469700" lon="7.5615010"><ele>611.6</ele></trkpt>
      <trkpt lat="46.9465130" lon="7.5619810"><ele>609.7</ele></trkpt>
      <trkpt lat="46.9463740" lon="7.5619610"><ele>609.4</ele></trkpt>
      <trkpt lat="46.9461630" lon="7.5618110"><ele>609.1</ele></trkpt>
      <trkpt lat="46.9458870" lon="7.5617110"><ele>609.3</ele></trkpt>
      <trkpt lat="46.9457030" lon="7.5617450"><ele>609.4</ele></trkpt>
      <trkpt lat="46.9455350" lon="7.5617500"><ele>609.4</ele></trkpt>
      <trkpt lat="46.9448150" lon="7.5616100"><ele>610</ele></trkpt>
      <trkpt lat="46.9442010" lon="7.5612050"><ele>610.5</ele></trkpt>
      <trkpt lat="46.9439850" lon="7.5610910"><ele>610.5</ele></trkpt>
      <trkpt lat="46.9437380" lon="7.5610310"><ele>610.5</ele></trkpt>
      <trkpt lat="46.9435260" lon="7.5610770"><ele>610.6</ele></trkpt>
      <trkpt lat="46.9431710" lon="7.5612820"><ele>611.8</ele></trkpt>
      <trkpt lat="46.9428930" lon="7.5615470"><ele>613.6</ele></trkpt>
      <trkpt lat="46.9426360" lon="7.5619110"><ele>616.3</ele></trkpt>
      <trkpt lat="46.9425610" lon="7.5621310"><ele>617.8</ele></trkpt>
      <trkpt lat="46.9425720" lon="7.5627530"><ele>621.9</ele></trkpt>
      <trkpt lat="46.9425440" lon="7.5629780"><ele>623.5</ele></trkpt>
      <trkpt lat="46.9424680" lon="7.5631560"><ele>624.9</ele></trkpt>
      <trkpt lat="46.9423350" lon="7.5632650"><ele>626.5</ele></trkpt>
      <trkpt lat="46.9415310" lon="7.5634600"><ele>634.1</ele></trkpt>
      <trkpt lat="46.9411910" lon="7.5635870"><ele>637.4</ele></trkpt>
      <trkpt lat="46.9409200" lon="7.5636870"><ele>640.1</ele></trkpt>
      <trkpt lat="46.9405630" lon="7.5639260"><ele>644</ele></trkpt>
      <trkpt lat="46.9401750" lon="7.5643020"><ele>649.3</ele></trkpt>
      <trkpt lat="46.9398080" lon="7.5645970"><ele>654.3</ele></trkpt>
      <trkpt lat="46.9393720" lon="7.5653340"><ele>660.4</ele></trkpt>
      <trkpt lat="46.9391910" lon="7.5657840"><ele>662.8</ele></trkpt>
      <trkpt lat="46.9389880" lon="7.5662860"><ele>664.9</ele></trkpt>
      <trkpt lat="46.9388590" lon="7.5665020"><ele>665.7</ele></trkpt>
      <trkpt lat="46.9387310" lon="7.5666620"><ele>666.2</ele></trkpt>
      <trkpt lat="46.9384760" lon="7.5668570"><ele>666.7</ele></trkpt>
      <trkpt lat="46.9380650" lon="7.5669920"><ele>666.4</ele></trkpt>
      <trkpt lat="46.9376910" lon="7.5669790"><ele>665.1</ele></trkpt>
      <trkpt lat="46.9374920" lon="7.5670350"><ele>664.3</ele></trkpt>
      <trkpt lat="46.9372970" lon="7.5671530"><ele>663.4</ele></trkpt>
      <trkpt lat="46.9371830" lon="7.5672690"><ele>662.9</ele></trkpt>
      <trkpt lat="46.9369940" lon="7.5674800"><ele>661.8</ele></trkpt>
      <trkpt lat="46.9369470" lon="7.5675660"><ele>661.5</ele></trkpt>
      <trkpt lat="46.9368930" lon="7.5678260"><ele>660.7</ele></trkpt>
      <trkpt lat="46.9369050" lon="7.5681430"><ele>659.8</ele></trkpt>
      <trkpt lat="46.9369710" lon="7.5683690"><ele>659.1</ele></trkpt>
      <trkpt lat="46.9370040" lon="7.5694740"><ele>659.1</ele></trkpt>
      <trkpt lat="46.9369640" lon="7.5700040"><ele>660.4</ele></trkpt>
      <trkpt lat="46.9369020" lon="7.5702750"><ele>661</ele></trkpt>
      <trkpt lat="46.9366820" lon="7.5706380"><ele>662.2</ele></trkpt>
      <trkpt lat="46.9366000" lon="7.5708880"><ele>662.8</ele></trkpt>
      <trkpt lat="46.9362880" lon="7.5712580"><ele>664.5</ele></trkpt>
      <trkpt lat="46.9356680" lon="7.5719050"><ele>668.1</ele></trkpt>
      <trkpt lat="46.9354650" lon="7.5726680"><ele>670.7</ele></trkpt>
      <trkpt lat="46.9353180" lon="7.5735950"><ele>674.2</ele></trkpt>
      <trkpt lat="46.9350910" lon="7.5738150"><ele>675.6</ele></trkpt>
      <trkpt lat="46.9347930" lon="7.5740660"><ele>677.2</ele></trkpt>
      <trkpt lat="46.9347990" lon="7.5741560"><ele>677.5</ele></trkpt>
      <trkpt lat="46.9344860" lon="7.5746850"><ele>679.3</ele></trkpt>
      <trkpt lat="46.9342010" lon="7.5751050"><ele>681.4</ele></trkpt>
      <trkpt lat="46.9338810" lon="7.5754620"><ele>683.5</ele></trkpt>
      <trkpt lat="46.9337410" lon="7.5757110"><ele>684.6</ele></trkpt>
      <trkpt lat="46.9334570" lon="7.5762350"><ele>686.9</ele></trkpt>
      <trkpt lat="46.9333470" lon="7.5765540"><ele>688.2</ele></trkpt>
      <trkpt lat="46.9333030" lon="7.5767630"><ele>688.9</ele></trkpt>
      <trkpt lat="46.9332350" lon="7.5772770"><ele>690.6</ele></trkpt>
      <trkpt lat="46.9330730" lon="7.5781630"><ele>693.1</ele></trkpt>
      <trkpt lat="46.9325670" lon="7.5795040"><ele>695.3</ele></trkpt>
      <trkpt lat="46.9325400" lon="7.5796590"><ele>695.3</ele></trkpt>
      <trkpt lat="46.9324200" lon="7.5798450"><ele>695.2</ele></trkpt>
      <trkpt lat="46.9314440" lon="7.5810020"><ele>691.8</ele></trkpt>
      <trkpt lat="46.9312380" lon="7.5811450"><ele>691.4</ele></trkpt>
      <trkpt lat="46.9311080" lon="7.5811930"><ele>691.4</ele></trkpt>
      <trkpt lat="46.9309130" lon="7.5811780"><ele>691.4</ele></trkpt>
      <trkpt lat="46.9307530" lon="7.5810920"><ele>691.6</ele></trkpt>
      <trkpt lat="46.9308800" lon="7.5822160"><ele>694</ele></trkpt>
      <trkpt lat="46.9307450" lon="7.5827060"><ele>695.5</ele></trkpt>
      <trkpt lat="46.9306940" lon="7.5831570"><ele>696.6</ele></trkpt>
      <trkpt lat="46.9306470" lon="7.5833380"><ele>697</ele></trkpt>
      <trkpt lat="46.9303860" lon="7.5844120"><ele>697.4</ele></trkpt>
      <trkpt lat="46.9302980" lon="7.5852380"><ele>696.5</ele></trkpt>
      <trkpt lat="46.9301370" lon="7.5859460"><ele>696</ele></trkpt>
      <trkpt lat="46.9297410" lon="7.5884820"><ele>693.4</ele></trkpt>
      <trkpt lat="46.9297140" lon="7.5886550"><ele>692.7</ele></trkpt>
      <trkpt lat="46.9295420" lon="7.5889590"><ele>691</ele></trkpt>
      <trkpt lat="46.9292540" lon="7.5897710"><ele>686</ele></trkpt>
      <trkpt lat="46.9291570" lon="7.5904270"><ele>683.2</ele></trkpt>
      <trkpt lat="46.9289770" lon="7.5905700"><ele>682.4</ele></trkpt>
      <trkpt lat="46.9294920" lon="7.5921030"><ele>683.3</ele></trkpt>
      <trkpt lat="46.9298320" lon="7.5930000"><ele>683.4</ele></trkpt>
      <trkpt lat="46.9295810" lon="7.5926430"><ele>682</ele></trkpt>
      <trkpt lat="46.9291480" lon="7.5922780"><ele>678.4</ele></trkpt>
      <trkpt lat="46.9289320" lon="7.5922460"><ele>676.6</ele></trkpt>
      <trkpt lat="46.9284670" lon="7.5922840"><ele>672.5</ele></trkpt>
      <trkpt lat="46.9284540" lon="7.5922850"><ele>672.4</ele></trkpt>
      <trkpt lat="46.9283740" lon="7.5922610"><ele>671.7</ele></trkpt>
      <trkpt lat="46.9283190" lon="7.5922030"><ele>671.2</ele></trkpt>
      <trkpt lat="46.9280790" lon="7.5920750"><ele>669.5</ele></trkpt>
      <trkpt lat="46.9275130" lon="7.5919310"><ele>666.5</ele></trkpt>
      <trkpt lat="46.9270890" lon="7.5919500"><ele>664.8</ele></trkpt>
      <trkpt lat="46.9269020" lon="7.5912210"><ele>663</ele></trkpt>
      <trkpt lat="46.9267910" lon="7.5907640"><ele>662</ele></trkpt>
      <trkpt lat="46.9268080" lon="7.5902040"><ele>661.2</ele></trkpt>
      <trkpt lat="46.9267920" lon="7.5900430"><ele>661</ele></trkpt>
      <trkpt lat="46.9267950" lon="7.5898530"><ele>660.8</ele></trkpt>
      <trkpt lat="46.9269040" lon="7.5896580"><ele>660.6</ele></trkpt>
      <trkpt lat="46.9269200" lon="7.5894650"><ele>660.5</ele></trkpt>
      <trkpt lat="46.9268730" lon="7.5894290"><ele>660.5</ele></trkpt>
      <trkpt lat="46.9268170" lon="7.5893540"><ele>660.6</ele></trkpt>
      <trkpt lat="46.9268550" lon="7.5891920"><ele>660.6</ele></trkpt>
      <trkpt lat="46.9268160" lon="7.5887190"><ele>661</ele></trkpt>
      <trkpt lat="46.9266900" lon="7.5884440"><ele>661.3</ele></trkpt>
      <trkpt lat="46.9265550" lon="7.5884250"><ele>661.5</ele></trkpt>
      <trkpt lat="46.9263900" lon="7.5884670"><ele>661.7</ele></trkpt>
      <trkpt lat="46.9261750" lon="7.5881520"><ele>662</ele></trkpt>
      <trkpt lat="46.9260520" lon="7.5879220"><ele>662</ele></trkpt>
      <trkpt lat="46.9258980" lon="7.5878430"><ele>661.9</ele></trkpt>
      <trkpt lat="46.9257930" lon="7.5876370"><ele>661.8</ele></trkpt>
      <trkpt lat="46.9257220" lon="7.5872550"><ele>661.3</ele></trkpt>
      <trkpt lat="46.9255890" lon="7.5870660"><ele>660.9</ele></trkpt>
      <trkpt lat="46.9253410" lon="7.5868870"><ele>660</ele></trkpt>
      <trkpt lat="46.9252570" lon="7.5867920"><ele>659.5</ele></trkpt>
      <trkpt lat="46.9249770" lon="7.5867430"><ele>658.2</ele></trkpt>
      <trkpt lat="46.9247760" lon="7.5865220"><ele>657</ele></trkpt>
      <trkpt lat="46.9246010" lon="7.5862370"><ele>655.6</ele></trkpt>
      <trkpt lat="46.9245660" lon="7.5860790"><ele>655</ele></trkpt>
      <trkpt lat="46.9246280" lon="7.5860560"><ele>654.7</ele></trkpt>
      <trkpt lat="46.9245040" lon="7.5855660"><ele>652.5</ele></trkpt>
      <trkpt lat="46.9242500" lon="7.5851970"><ele>650.1</ele></trkpt>
      <trkpt lat="46.9241320" lon="7.5849540"><ele>648.5</ele></trkpt>
      <trkpt lat="46.9239410" lon="7.5842560"><ele>644.4</ele></trkpt>
      <trkpt lat="46.9237820" lon="7.5838410"><ele>642.1</ele></trkpt>
      <trkpt lat="46.9236640" lon="7.5836780"><ele>641.1</ele></trkpt>
      <trkpt lat="46.9236180" lon="7.5836700"><ele>640.8</ele></trkpt>
      <trkpt lat="46.9234670" lon="7.5836440"><ele>640</ele></trkpt>
      <trkpt lat="46.9233270" lon="7.5835850"><ele>639.3</ele></trkpt>
      <trkpt lat="46.9232490" lon="7.5835960"><ele>639</ele></trkpt>
      <trkpt lat="46.9228810" lon="7.5833180"><ele>637.8</ele></trkpt>
      <trkpt lat="46.9226530" lon="7.5832980"><ele>637.5</ele></trkpt>
      <trkpt lat="46.9222010" lon="7.5835440"><ele>637.7</ele></trkpt>
      <trkpt lat="46.9212330" lon="7.5840470"><ele>639.1</ele></trkpt>
      <trkpt lat="46.9209580" lon="7.5840130"><ele>639.3</ele></trkpt>
      <trkpt lat="46.9205770" lon="7.5838060"><ele>639.6</ele></trkpt>
      <trkpt lat="46.9196910" lon="7.5839990"><ele>640.7</ele></trkpt>
      <trkpt lat="46.9200270" lon="7.5843790"><ele>641.7</ele></trkpt>
      <trkpt lat="46.9201590" lon="7.5846600"><ele>642.2</ele></trkpt>
      <trkpt lat="46.9197230" lon="7.5847220"><ele>643.3</ele></trkpt>
      <trkpt lat="46.9190100" lon="7.5848900"><ele>645.3</ele></trkpt>
      <trkpt lat="46.9185150" lon="7.5851580"><ele>647.3</ele></trkpt>
      <trkpt lat="46.9185020" lon="7.5863310"><ele>650.6</ele></trkpt>
      <trkpt lat="46.9183740" lon="7.5869280"><ele>652.7</ele></trkpt>
      <trkpt lat="46.9183030" lon="7.5872650"><ele>653.8</ele></trkpt>
      <trkpt lat="46.9181800" lon="7.5874680"><ele>654.7</ele></trkpt>
      <trkpt lat="46.9181630" lon="7.5875830"><ele>655</ele></trkpt>
      <trkpt lat="46.9182300" lon="7.5879200"><ele>655.9</ele></trkpt>
      <trkpt lat="46.9182330" lon="7.5880720"><ele>656.3</ele></trkpt>
      <trkpt lat="46.9183610" lon="7.5891180"><ele>659</ele></trkpt>
      <trkpt lat="46.9184830" lon="7.5897750"><ele>661</ele></trkpt>
      <trkpt lat="46.9186280" lon="7.5903030"><ele>662.7</ele></trkpt>
      <trkpt lat="46.9190460" lon="7.5915060"><ele>667.2</ele></trkpt>
      <trkpt lat="46.9193890" lon="7.5926670"><ele>671.1</ele></trkpt>
      <trkpt lat="46.9197690" lon="7.5933770"><ele>672.8</ele></trkpt>
      <trkpt lat="46.9198360" lon="7.5935520"><ele>673.1</ele></trkpt>
      <trkpt lat="46.9198710" lon="7.5937260"><ele>673.3</ele></trkpt>
      <trkpt lat="46.9198750" lon="7.5939040"><ele>673.5</ele></trkpt>
      <trkpt lat="46.9197250" lon="7.5949110"><ele>674.7</ele></trkpt>
      <trkpt lat="46.9195200" lon="7.5961810"><ele>676.8</ele></trkpt>
      <trkpt lat="46.9193940" lon="7.5968900"><ele>678.5</ele></trkpt>
      <trkpt lat="46.9190250" lon="7.5980600"><ele>683.2</ele></trkpt>
      <trkpt lat="46.9190810" lon="7.5983340"><ele>684.5</ele></trkpt>
      <trkpt lat="46.9192210" lon="7.5986340"><ele>686.3</ele></trkpt>
      <trkpt lat="46.9193140" lon="7.5989180"><ele>688</ele></trkpt>
      <trkpt lat="46.9194580" lon="7.5997530"><ele>693.6</ele></trkpt>
      <trkpt lat="46.9196400" lon="7.6005680"><ele>699</ele></trkpt>
      <trkpt lat="46.9196590" lon="7.6007360"><ele>700.1</ele></trkpt>
      <trkpt lat="46.9196710" lon="7.6015420"><ele>704.6</ele></trkpt>
      <trkpt lat="46.9198610" lon="7.6026640"><ele>710.2</ele></trkpt>
      <trkpt lat="46.9198870" lon="7.6029180"><ele>711.3</ele></trkpt>
      <trkpt lat="46.9197920" lon="7.6033410"><ele>713.2</ele></trkpt>
      <trkpt lat="46.9195910" lon="7.6039750"><ele>716.1</ele></trkpt>
      <trkpt lat="46.9195480" lon="7.6042620"><ele>717.4</ele></trkpt>
      <trkpt lat="46.9195810" lon="7.6047110"><ele>719.4</ele></trkpt>
      <trkpt lat="46.9196350" lon="7.6053320"><ele>722.1</ele></trkpt>
      <trkpt lat="46.9196930" lon="7.6057230"><ele>723.8</ele></trkpt>
      <trkpt lat="46.9197090" lon="7.6061210"><ele>725.3</ele></trkpt>
      <trkpt lat="46.9196940" lon="7.6064140"><ele>726.3</ele></trkpt>
      <trkpt lat="46.9196300" lon="7.6068340"><ele>727.6</ele></trkpt>
      <trkpt lat="46.9191710" lon="7.6095230"><ele>732.9</ele></trkpt>
      <trkpt lat="46.9187910" lon="7.6108110"><ele>735</ele></trkpt>
      <trkpt lat="46.9187850" lon="7.6108250"><ele>735</ele></trkpt>
      <trkpt lat="46.9184830" lon="7.6114650"><ele>735.4</ele></trkpt>
      <trkpt lat="46.9180860" lon="7.6120570"><ele>736</ele></trkpt>
      <trkpt lat="46.9178800" lon="7.6122210"><ele>736.1</ele></trkpt>
      <trkpt lat="46.9177850" lon="7.6122970"><ele>736.2</ele></trkpt>
      <trkpt lat="46.9177350" lon="7.6123390"><ele>736.2</ele></trkpt>
      <trkpt lat="46.9176650" lon="7.6124720"><ele>736.3</ele></trkpt>
      <trkpt lat="46.9175980" lon="7.6127580"><ele>736.4</ele></trkpt>
      <trkpt lat="46.9174680" lon="7.6133990"><ele>737.2</ele></trkpt>
      <trkpt lat="46.9174030" lon="7.6136180"><ele>737.6</ele></trkpt>
      <trkpt lat="46.9173770" lon="7.6137090"><ele>737.8</ele></trkpt>
      <trkpt lat="46.9172170" lon="7.6136680"><ele>738.2</ele></trkpt>
      <trkpt lat="46.9169760" lon="7.6136120"><ele>738.8</ele></trkpt>
      <trkpt lat="46.9169000" lon="7.6135890"><ele>738.9</ele></trkpt>
      <trkpt lat="46.9168420" lon="7.6135730"><ele>739</ele></trkpt>
      <trkpt lat="46.9166210" lon="7.6135160"><ele>739.3</ele></trkpt>
      <trkpt lat="46.9164140" lon="7.6134670"><ele>739.6</ele></trkpt>
      <trkpt lat="46.9162300" lon="7.6134220"><ele>739.8</ele></trkpt>
      <trkpt lat="46.9159910" lon="7.6133550"><ele>740</ele></trkpt>
      <trkpt lat="46.9135370" lon="7.6121340"><ele>740.8</ele></trkpt>
      <trkpt lat="46.9125190" lon="7.6115460"><ele>742.4</ele></trkpt>
      <trkpt lat="46.9124930" lon="7.6115310"><ele>742.4</ele></trkpt>
      <trkpt lat="46.9120850" lon="7.6113050"><ele>743.3</ele></trkpt>
      <trkpt lat="46.9118080" lon="7.6111500"><ele>743.8</ele></trkpt>
      <trkpt lat="46.9116120" lon="7.6109930"><ele>744.2</ele></trkpt>
      <trkpt lat="46.9114120" lon="7.6107100"><ele>744.7</ele></trkpt>
      <trkpt lat="46.9110940" lon="7.6100440"><ele>745.7</ele></trkpt>
      <trkpt lat="46.9108900" lon="7.6096760"><ele>746.3</ele></trkpt>
      <trkpt lat="46.9105670" lon="7.6092450"><ele>747.5</ele></trkpt>
      <trkpt lat="46.9103610" lon="7.6090900"><ele>748.1</ele></trkpt>
      <trkpt lat="46.9101980" lon="7.6090180"><ele>748.6</ele></trkpt>
      <trkpt lat="46.9100470" lon="7.6089430"><ele>749</ele></trkpt>
      <trkpt lat="46.9095770" lon="7.6086810"><ele>749.9</ele></trkpt>
      <trkpt lat="46.9095260" lon="7.6086370"><ele>749.9</ele></trkpt>
      <trkpt lat="46.9093470" lon="7.6085770"><ele>750</ele></trkpt>
      <trkpt lat="46.9090130" lon="7.6086700"><ele>750.2</ele></trkpt>
      <trkpt lat="46.9089100" lon="7.6088000"><ele>750.2</ele></trkpt>
      <trkpt lat="46.9087630" lon="7.6090880"><ele>750.2</ele></trkpt>
      <trkpt lat="46.9086450" lon="7.6093230"><ele>750.1</ele></trkpt>
      <trkpt lat="46.9073120" lon="7.6088460"><ele>750</ele></trkpt>
      <trkpt lat="46.9067630" lon="7.6083830"><ele>751</ele></trkpt>
      <trkpt lat="46.9058000" lon="7.6077650"><ele>754.1</ele></trkpt>
      <trkpt lat="46.9055040" lon="7.6072520"><ele>755.8</ele></trkpt>
      <trkpt lat="46.9052060" lon="7.6069970"><ele>757.1</ele></trkpt>
      <trkpt lat="46.9050770" lon="7.6068110"><ele>757.7</ele></trkpt>
      <trkpt lat="46.9036630" lon="7.6059850"><ele>762.7</ele></trkpt>
      <trkpt lat="46.9034510" lon="7.6058810"><ele>763.5</ele></trkpt>
      <trkpt lat="46.9015080" lon="7.6049240"><ele>774.8</ele></trkpt>
      <trkpt lat="46.9013110" lon="7.6047820"><ele>776.4</ele></trkpt>
      <trkpt lat="46.9012520" lon="7.6049080"><ele>777.1</ele></trkpt>
      <trkpt lat="46.9012250" lon="7.6051070"><ele>778.1</ele></trkpt>
      <trkpt lat="46.9016240" lon="7.6066360"><ele>785.8</ele></trkpt>
      <trkpt lat="46.9017460" lon="7.6073840"><ele>788.2</ele></trkpt>
      <trkpt lat="46.9019070" lon="7.6081170"><ele>790.2</ele></trkpt>
      <trkpt lat="46.9020150" lon="7.6087630"><ele>791.6</ele></trkpt>
      <trkpt lat="46.9021070" lon="7.6097410"><ele>792.8</ele></trkpt>
      <trkpt lat="46.9021100" lon="7.6105580"><ele>793.1</ele></trkpt>
      <trkpt lat="46.9021250" lon="7.6111440"><ele>792.9</ele></trkpt>
      <trkpt lat="46.9022370" lon="7.6122990"><ele>791.7</ele></trkpt>
      <trkpt lat="46.9024260" lon="7.6137160"><ele>788.5</ele></trkpt>
      <trkpt lat="46.9024380" lon="7.6144100"><ele>786.6</ele></trkpt>
      <trkpt lat="46.9030460" lon="7.6155100"><ele>784.1</ele></trkpt>
      <trkpt lat="46.9032930" lon="7.6163090"><ele>784.8</ele></trkpt>
      <trkpt lat="46.9034500" lon="7.6169190"><ele>786.4</ele></trkpt>
      <trkpt lat="46.9034950" lon="7.6175080"><ele>788.3</ele></trkpt>
      <trkpt lat="46.9038140" lon="7.6185340"><ele>792.1</ele></trkpt>
      <trkpt lat="46.9038720" lon="7.6188330"><ele>792.8</ele></trkpt>
      <trkpt lat="46.9040070" lon="7.6199530"><ele>794</ele></trkpt>
      <trkpt lat="46.9042790" lon="7.6214380"><ele>794.6</ele></trkpt>
      <trkpt lat="46.9044120" lon="7.6223610"><ele>797.9</ele></trkpt>
      <trkpt lat="46.9040040" lon="7.6225230"><ele>801.9</ele></trkpt>
      <trkpt lat="46.9038110" lon="7.6226010"><ele>804.3</ele></trkpt>
      <trkpt lat="46.9036130" lon="7.6228260"><ele>807.7</ele></trkpt>
      <trkpt lat="46.9032020" lon="7.6245210"><ele>824.6</ele></trkpt>
      <trkpt lat="46.9021680" lon="7.6249870"><ele>826.9</ele></trkpt>
      <trkpt lat="46.9021100" lon="7.6254770"><ele>827.2</ele></trkpt>
      <trkpt lat="46.9021740" lon="7.6256790"><ele>827.4</ele></trkpt>
      <trkpt lat="46.9018080" lon="7.6255350"><ele>828.1</ele></trkpt>
      <trkpt lat="46.9017680" lon="7.6255180"><ele>828.3</ele></trkpt>
      <trkpt lat="46.9013520" lon="7.6256750"><ele>829.4</ele></trkpt>
      <trkpt lat="46.9012740" lon="7.6257290"><ele>830</ele></trkpt>
      <trkpt lat="46.9011080" lon="7.6259240"><ele>832.5</ele></trkpt>
      <trkpt lat="46.9008190" lon="7.6260980"><ele>836.5</ele></trkpt>
      <trkpt lat="46.9002030" lon="7.6262900"><ele>842.9</ele></trkpt>
      <trkpt lat="46.8998880" lon="7.6262800"><ele>845.4</ele></trkpt>
      <trkpt lat="46.8995200" lon="7.6262120"><ele>848.6</ele></trkpt>
      <trkpt lat="46.8990140" lon="7.6260250"><ele>853.8</ele></trkpt>
      <trkpt lat="46.8989070" lon="7.6259380"><ele>855.1</ele></trkpt>
      <trkpt lat="46.8987540" lon="7.6257220"><ele>857.5</ele></trkpt>
      <trkpt lat="46.8985980" lon="7.6254190"><ele>860.5</ele></trkpt>
      <trkpt lat="46.8984480" lon="7.6250310"><ele>864.4</ele></trkpt>
      <trkpt lat="46.8980880" lon="7.6245460"><ele>870.9</ele></trkpt>
      <trkpt lat="46.8976700" lon="7.6237960"><ele>878.6</ele></trkpt>
      <trkpt lat="46.8975480" lon="7.6236150"><ele>880.3</ele></trkpt>
      <trkpt lat="46.8968060" lon="7.6225400"><ele>890</ele></trkpt>
      <trkpt lat="46.8966350" lon="7.6224220"><ele>891.8</ele></trkpt>
      <trkpt lat="46.8964510" lon="7.6221980"><ele>894</ele></trkpt>
      <trkpt lat="46.8963550" lon="7.6220100"><ele>895.6</ele></trkpt>
      <trkpt lat="46.8962670" lon="7.6217250"><ele>897.6</ele></trkpt>
      <trkpt lat="46.8961450" lon="7.6214870"><ele>899.5</ele></trkpt>
      <trkpt lat="46.8958660" lon="7.6210770"><ele>903.1</ele></trkpt>
      <trkpt lat="46.8954310" lon="7.6205580"><ele>907</ele></trkpt>
      <trkpt lat="46.8954270" lon="7.6205430"><ele>907.1</ele></trkpt>
      <trkpt lat="46.8952980" lon="7.6203790"><ele>908</ele></trkpt>
      <trkpt lat="46.8947270" lon="7.6196910"><ele>911.2</ele></trkpt>
      <trkpt lat="46.8946150" lon="7.6195560"><ele>911.8</ele></trkpt>
      <trkpt lat="46.8942010" lon="7.6191300"><ele>913.8</ele></trkpt>
      <trkpt lat="46.8941610" lon="7.6188660"><ele>914.4</ele></trkpt>
      <trkpt lat="46.8939870" lon="7.6178400"><ele>916.5</ele></trkpt>
      <trkpt lat="46.8940300" lon="7.6174370"><ele>917.2</ele></trkpt>
      <trkpt lat="46.8940460" lon="7.6172430"><ele>917.4</ele></trkpt>
      <trkpt lat="46.8940820" lon="7.6164270"><ele>917.8</ele></trkpt>
      <trkpt lat="46.8940690" lon="7.6159610"><ele>917.9</ele></trkpt>
      <trkpt lat="46.8940410" lon="7.6147990"><ele>919.6</ele></trkpt>
      <trkpt lat="46.8938790" lon="7.6145870"><ele>920.3</ele></trkpt>
      <trkpt lat="46.8937950" lon="7.6143430"><ele>920.7</ele></trkpt>
      <trkpt lat="46.8936340" lon="7.6141940"><ele>921.2</ele></trkpt>
      <trkpt lat="46.8932440" lon="7.6141500"><ele>922.5</ele></trkpt>
      <trkpt lat="46.8930980" lon="7.6141030"><ele>923</ele></trkpt>
      <trkpt lat="46.8928290" lon="7.6141360"><ele>923.7</ele></trkpt>
      <trkpt lat="46.8928260" lon="7.6140070"><ele>923.8</ele></trkpt>
      <trkpt lat="46.8928180" lon="7.6137150"><ele>924</ele></trkpt>
      <trkpt lat="46.8925180" lon="7.6128930"><ele>923.8</ele></trkpt>
      <trkpt lat="46.8925110" lon="7.6129850"><ele>923.7</ele></trkpt>
      <trkpt lat="46.8925180" lon="7.6128930"><ele>923.7</ele></trkpt>
      <trkpt lat="46.8924330" lon="7.6126640"><ele>923.5</ele></trkpt>
      <trkpt lat="46.8922670" lon="7.6104780"><ele>921.1</ele></trkpt>
      <trkpt lat="46.8920030" lon="7.6102020"><ele>920.3</ele></trkpt>
      <trkpt lat="46.8917770" lon="7.6101400"><ele>919.5</ele></trkpt>
      <trkpt lat="46.8916970" lon="7.6101620"><ele>919.2</ele></trkpt>
      <trkpt lat="46.8914970" lon="7.6100220"><ele>918.2</ele></trkpt>
      <trkpt lat="46.8913960" lon="7.6099140"><ele>917.7</ele></trkpt>
      <trkpt lat="46.8907490" lon="7.6089250"><ele>912.5</ele></trkpt>
      <trkpt lat="46.8907250" lon="7.6089280"><ele>912.3</ele></trkpt>
      <trkpt lat="46.8904790" lon="7.6087210"><ele>910.4</ele></trkpt>
      <trkpt lat="46.8903130" lon="7.6086190"><ele>909.2</ele></trkpt>
      <trkpt lat="46.8902590" lon="7.6082680"><ele>907.4</ele></trkpt>
      <trkpt lat="46.8901390" lon="7.6080880"><ele>906</ele></trkpt>
      <trkpt lat="46.8900080" lon="7.6080540"><ele>904.9</ele></trkpt>
      <trkpt lat="46.8898310" lon="7.6079380"><ele>903.1</ele></trkpt>
      <trkpt lat="46.8895920" lon="7.6078490"><ele>900.7</ele></trkpt>
      <trkpt lat="46.8894600" lon="7.6077910"><ele>899.3</ele></trkpt>
      <trkpt lat="46.8890350" lon="7.6074850"><ele>894.1</ele></trkpt>
      <trkpt lat="46.8887340" lon="7.6071600"><ele>889.2</ele></trkpt>
      <trkpt lat="46.8886390" lon="7.6071420"><ele>887.8</ele></trkpt>
      <trkpt lat="46.8885260" lon="7.6073480"><ele>885.2</ele></trkpt>
      <trkpt lat="46.8883330" lon="7.6071840"><ele>882.1</ele></trkpt>
      <trkpt lat="46.8880640" lon="7.6070240"><ele>878.4</ele></trkpt>
      <trkpt lat="46.8877400" lon="7.6069170"><ele>874.5</ele></trkpt>
      <trkpt lat="46.8876480" lon="7.6058940"><ele>867.3</ele></trkpt>
      <trkpt lat="46.8876380" lon="7.6056060"><ele>865.5</ele></trkpt>
      <trkpt lat="46.8876710" lon="7.6052530"><ele>863.7</ele></trkpt>
      <trkpt lat="46.8880120" lon="7.6033160"><ele>855.2</ele></trkpt>
      <trkpt lat="46.8881180" lon="7.6031110"><ele>854.1</ele></trkpt>
      <trkpt lat="46.8880570" lon="7.6030840"><ele>853.6</ele></trkpt>
      <trkpt lat="46.8873980" lon="7.6031150"><ele>849.3</ele></trkpt>
      <trkpt lat="46.8862570" lon="7.6030530"><ele>844.6</ele></trkpt>
      <trkpt lat="46.8861670" lon="7.6031110"><ele>844.6</ele></trkpt>
      <trkpt lat="46.8862570" lon="7.6030530"><ele>844.6</ele></trkpt>
      <trkpt lat="46.8873980" lon="7.6031150"><ele>849.2</ele></trkpt>
      <trkpt lat="46.8880570" lon="7.6030840"><ele>852.7</ele></trkpt>
      <trkpt lat="46.8881180" lon="7.6031110"><ele>853</ele></trkpt>
      <trkpt lat="46.8883200" lon="7.6029950"><ele>853.7</ele></trkpt>
      <trkpt lat="46.8888080" lon="7.6028520"><ele>854.4</ele></trkpt>
      <trkpt lat="46.8893420" lon="7.6024200"><ele>853.7</ele></trkpt>
      <trkpt lat="46.8900260" lon="7.6017740"><ele>854.7</ele></trkpt>
      <trkpt lat="46.8901730" lon="7.6016750"><ele>855.5</ele></trkpt>
      <trkpt lat="46.8902090" lon="7.6018780"><ele>856.2</ele></trkpt>
      <trkpt lat="46.8902170" lon="7.6022110"><ele>857.8</ele></trkpt>
      <trkpt lat="46.8901370" lon="7.6036390"><ele>866.9</ele></trkpt>
      <trkpt lat="46.8901680" lon="7.6037220"><ele>867.5</ele></trkpt>
      <trkpt lat="46.8902230" lon="7.6037780"><ele>868</ele></trkpt>
      <trkpt lat="46.8906670" lon="7.6041000"><ele>871.3</ele></trkpt>
      <trkpt lat="46.8907980" lon="7.6043370"><ele>872</ele></trkpt>
      <trkpt lat="46.8914660" lon="7.6047820"><ele>871.4</ele></trkpt>
      <trkpt lat="46.8915840" lon="7.6047200"><ele>870.9</ele></trkpt>
      <trkpt lat="46.8922580" lon="7.6033550"><ele>868.4</ele></trkpt>
      <trkpt lat="46.8924150" lon="7.6034190"><ele>868.8</ele></trkpt>
      <trkpt lat="46.8925350" lon="7.6037900"><ele>870</ele></trkpt>
      <trkpt lat="46.8927410" lon="7.6041680"><ele>871.7</ele></trkpt>
      <trkpt lat="46.8931520" lon="7.6047990"><ele>875.4</ele></trkpt>
      <trkpt lat="46.8936310" lon="7.6042810"><ele>877.8</ele></trkpt>
      <trkpt lat="46.8940030" lon="7.6037500"><ele>877.9</ele></trkpt>
      <trkpt lat="46.8942080" lon="7.6036190"><ele>877.3</ele></trkpt>
      <trkpt lat="46.8945900" lon="7.6035600"><ele>876.3</ele></trkpt>
      <trkpt lat="46.8947790" lon="7.6034630"><ele>875.6</ele></trkpt>
      <trkpt lat="46.8949280" lon="7.6032620"><ele>874.8</ele></trkpt>
      <trkpt lat="46.8953330" lon="7.6031300"><ele>873.2</ele></trkpt>
      <trkpt lat="46.8954800" lon="7.6030830"><ele>872.6</ele></trkpt>
      <trkpt lat="46.8957310" lon="7.6028940"><ele>871.2</ele></trkpt>
      <trkpt lat="46.8958570" lon="7.6028700"><ele>870.6</ele></trkpt>
      <trkpt lat="46.8958100" lon="7.6024730"><ele>869.3</ele></trkpt>
      <trkpt lat="46.8958150" lon="7.6018880"><ele>867.1</ele></trkpt>
      <trkpt lat="46.8957580" lon="7.6015770"><ele>865.6</ele></trkpt>
      <trkpt lat="46.8958670" lon="7.6016450"><ele>864.8</ele></trkpt>
      <trkpt lat="46.8960380" lon="7.6021770"><ele>861.6</ele></trkpt>
      <trkpt lat="46.8961270" lon="7.6023900"><ele>860.5</ele></trkpt>
      <trkpt lat="46.8962990" lon="7.6026770"><ele>858.6</ele></trkpt>
      <trkpt lat="46.8965920" lon="7.6030720"><ele>854.6</ele></trkpt>
      <trkpt lat="46.8967460" lon="7.6032040"><ele>852.5</ele></trkpt>
      <trkpt lat="46.8967950" lon="7.6036340"><ele>848.7</ele></trkpt>
      <trkpt lat="46.8968510" lon="7.6035830"><ele>847.8</ele></trkpt>
      <trkpt lat="46.8969690" lon="7.6034780"><ele>846</ele></trkpt>
      <trkpt lat="46.8979220" lon="7.6035940"><ele>833.7</ele></trkpt>
      <trkpt lat="46.8982710" lon="7.6036710"><ele>828.4</ele></trkpt>
      <trkpt lat="46.8987550" lon="7.6039680"><ele>820.9</ele></trkpt>
      <trkpt lat="46.8994620" lon="7.6041370"><ele>809.9</ele></trkpt>
      <trkpt lat="46.9002310" lon="7.6042560"><ele>796.7</ele></trkpt>
      <trkpt lat="46.9007010" lon="7.6043790"><ele>788.2</ele></trkpt>
      <trkpt lat="46.9010160" lon="7.6045390"><ele>782.7</ele></trkpt>
      <trkpt lat="46.9013110" lon="7.6047820"><ele>777.5</ele></trkpt>
      <trkpt lat="46.9013090" lon="7.6045510"><ele>775.1</ele></trkpt>
      <trkpt lat="46.9009920" lon="7.6036340"><ele>765.3</ele></trkpt>
      <trkpt lat="46.9009730" lon="7.6035270"><ele>764.3</ele></trkpt>
      <trkpt lat="46.9010130" lon="7.6028980"><ele>758.8</ele></trkpt>
      <trkpt lat="46.9009250" lon="7.6022030"><ele>753</ele></trkpt>
      <trkpt lat="46.9008220" lon="7.6018770"><ele>750.2</ele></trkpt>
      <trkpt lat="46.9007350" lon="7.6016820"><ele>748.5</ele></trkpt>
      <trkpt lat="46.9002370" lon="7.6008030"><ele>741.9</ele></trkpt>
      <trkpt lat="46.9002610" lon="7.6006700"><ele>741.3</ele></trkpt>
      <trkpt lat="46.9004920" lon="7.6006190"><ele>740</ele></trkpt>
      <trkpt lat="46.9007630" lon="7.6004500"><ele>738.6</ele></trkpt>
      <trkpt lat="46.9015840" lon="7.5995190"><ele>736.6</ele></trkpt>
      <trkpt lat="46.9019100" lon="7.5999960"><ele>736.4</ele></trkpt>
      <trkpt lat="46.9021410" lon="7.6002430"><ele>736.3</ele></trkpt>
      <trkpt lat="46.9029780" lon="7.6009350"><ele>735.5</ele></trkpt>
      <trkpt lat="46.9031690" lon="7.6011220"><ele>735</ele></trkpt>
      <trkpt lat="46.9035350" lon="7.5998370"><ele>733.1</ele></trkpt>
      <trkpt lat="46.9036280" lon="7.5993650"><ele>732.7</ele></trkpt>
      <trkpt lat="46.9036170" lon="7.5991290"><ele>732.5</ele></trkpt>
      <trkpt lat="46.9032730" lon="7.5984150"><ele>732.2</ele></trkpt>
      <trkpt lat="46.9032080" lon="7.5981830"><ele>732.2</ele></trkpt>
      <trkpt lat="46.9031980" lon="7.5979840"><ele>732.1</ele></trkpt>
      <trkpt lat="46.9032320" lon="7.5968500"><ele>731.7</ele></trkpt>
      <trkpt lat="46.9031360" lon="7.5960310"><ele>730.7</ele></trkpt>
      <trkpt lat="46.9031540" lon="7.5959750"><ele>730.6</ele></trkpt>
      <trkpt lat="46.9032020" lon="7.5959360"><ele>730.5</ele></trkpt>
      <trkpt lat="46.9039100" lon="7.5959470"><ele>730</ele></trkpt>
      <trkpt lat="46.9043150" lon="7.5957450"><ele>730.3</ele></trkpt>
      <trkpt lat="46.9049630" lon="7.5954540"><ele>731.7</ele></trkpt>
      <trkpt lat="46.9050780" lon="7.5954370"><ele>732</ele></trkpt>
      <trkpt lat="46.9053650" lon="7.5955040"><ele>733</ele></trkpt>
      <trkpt lat="46.9068980" lon="7.5961370"><ele>736.8</ele></trkpt>
      <trkpt lat="46.9076550" lon="7.5959960"><ele>735.7</ele></trkpt>
      <trkpt lat="46.9079160" lon="7.5958840"><ele>735</ele></trkpt>
      <trkpt lat="46.9083580" lon="7.5959970"><ele>733.4</ele></trkpt>
      <trkpt lat="46.9084580" lon="7.5958710"><ele>732.9</ele></trkpt>
      <trkpt lat="46.9085040" lon="7.5956400"><ele>732.2</ele></trkpt>
      <trkpt lat="46.9083790" lon="7.5952170"><ele>730.5</ele></trkpt>
      <trkpt lat="46.9079230" lon="7.5945810"><ele>725.5</ele></trkpt>
      <trkpt lat="46.9078590" lon="7.5944120"><ele>724.2</ele></trkpt>
      <trkpt lat="46.9078040" lon="7.5941380"><ele>722</ele></trkpt>
      <trkpt lat="46.9077760" lon="7.5930200"><ele>710</ele></trkpt>
      <trkpt lat="46.9078640" lon="7.5927360"><ele>706.1</ele></trkpt>
      <trkpt lat="46.9083440" lon="7.5922580"><ele>697.1</ele></trkpt>
      <trkpt lat="46.9084620" lon="7.5920030"><ele>694.6</ele></trkpt>
      <trkpt lat="46.9086100" lon="7.5917990"><ele>692.6</ele></trkpt>
      <trkpt lat="46.9087050" lon="7.5922130"><ele>690.2</ele></trkpt>
      <trkpt lat="46.9088910" lon="7.5925900"><ele>688.1</ele></trkpt>
      <trkpt lat="46.9091320" lon="7.5930820"><ele>686.1</ele></trkpt>
      <trkpt lat="46.9092590" lon="7.5931810"><ele>685.6</ele></trkpt>
      <trkpt lat="46.9095550" lon="7.5932850"><ele>683.9</ele></trkpt>
      <trkpt lat="46.9096800" lon="7.5932800"><ele>683.2</ele></trkpt>
      <trkpt lat="46.9105890" lon="7.5929770"><ele>675.7</ele></trkpt>
      <trkpt lat="46.9107280" lon="7.5932050"><ele>673.8</ele></trkpt>
      <trkpt lat="46.9108610" lon="7.5923970"><ele>668.5</ele></trkpt>
      <trkpt lat="46.9107150" lon="7.5921550"><ele>666.7</ele></trkpt>
      <trkpt lat="46.9106850" lon="7.5919620"><ele>665.7</ele></trkpt>
      <trkpt lat="46.9111360" lon="7.5918060"><ele>661.8</ele></trkpt>
      <trkpt lat="46.9112530" lon="7.5916620"><ele>660.7</ele></trkpt>
      <trkpt lat="46.9114150" lon="7.5911890"><ele>658.6</ele></trkpt>
      <trkpt lat="46.9116490" lon="7.5909910"><ele>657.4</ele></trkpt>
      <trkpt lat="46.9125360" lon="7.5905560"><ele>654.2</ele></trkpt>
      <trkpt lat="46.9127760" lon="7.5905100"><ele>653.6</ele></trkpt>
      <trkpt lat="46.9128150" lon="7.5904330"><ele>653.4</ele></trkpt>
      <trkpt lat="46.9130890" lon="7.5902270"><ele>652.6</ele></trkpt>
      <trkpt lat="46.9136390" lon="7.5901060"><ele>651.1</ele></trkpt>
      <trkpt lat="46.9138660" lon="7.5899820"><ele>650.3</ele></trkpt>
      <trkpt lat="46.9144970" lon="7.5891900"><ele>647</ele></trkpt>
      <trkpt lat="46.9145300" lon="7.5891480"><ele>646.8</ele></trkpt>
      <trkpt lat="46.9150530" lon="7.5882500"><ele>643.7</ele></trkpt>
      <trkpt lat="46.9152530" lon="7.5881060"><ele>643</ele></trkpt>
      <trkpt lat="46.9153650" lon="7.5880690"><ele>642.7</ele></trkpt>
      <trkpt lat="46.9154930" lon="7.5880260"><ele>642.4</ele></trkpt>
      <trkpt lat="46.9156560" lon="7.5880180"><ele>642.2</ele></trkpt>
      <trkpt lat="46.9157920" lon="7.5880970"><ele>642.1</ele></trkpt>
      <trkpt lat="46.9160450" lon="7.5884190"><ele>642.5</ele></trkpt>
      <trkpt lat="46.9161050" lon="7.5884380"><ele>642.6</ele></trkpt>
      <trkpt lat="46.9161720" lon="7.5884290"><ele>642.7</ele></trkpt>
      <trkpt lat="46.9162420" lon="7.5883810"><ele>642.8</ele></trkpt>
      <trkpt lat="46.9165510" lon="7.5879890"><ele>643.7</ele></trkpt>
      <trkpt lat="46.9169430" lon="7.5875550"><ele>644.3</ele></trkpt>
      <trkpt lat="46.9170520" lon="7.5870790"><ele>644.3</ele></trkpt>
      <trkpt lat="46.9173030" lon="7.5863010"><ele>643.1</ele></trkpt>
      <trkpt lat="46.9173470" lon="7.5860780"><ele>642.5</ele></trkpt>
      <trkpt lat="46.9173970" lon="7.5860030"><ele>642.2</ele></trkpt>
      <trkpt lat="46.9175130" lon="7.5860000"><ele>641.7</ele></trkpt>
      <trkpt lat="46.9175890" lon="7.5855810"><ele>640.6</ele></trkpt>
      <trkpt lat="46.9176490" lon="7.5853690"><ele>640</ele></trkpt>
      <trkpt lat="46.9179120" lon="7.5845620"><ele>638.2</ele></trkpt>
      <trkpt lat="46.9180580" lon="7.5840720"><ele>637</ele></trkpt>
      <trkpt lat="46.9181670" lon="7.5837960"><ele>636.6</ele></trkpt>
      <trkpt lat="46.9183520" lon="7.5834400"><ele>636.3</ele></trkpt>
      <trkpt lat="46.9185400" lon="7.5831720"><ele>636.4</ele></trkpt>
      <trkpt lat="46.9185730" lon="7.5832240"><ele>636.5</ele></trkpt>
      <trkpt lat="46.9185990" lon="7.5832680"><ele>636.5</ele></trkpt>
      <trkpt lat="46.9187370" lon="7.5831700"><ele>636.7</ele></trkpt>
      <trkpt lat="46.9188760" lon="7.5831630"><ele>636.9</ele></trkpt>
      <trkpt lat="46.9191490" lon="7.5834490"><ele>637.3</ele></trkpt>
      <trkpt lat="46.9196910" lon="7.5839990"><ele>638.4</ele></trkpt>
      <trkpt lat="46.9205770" lon="7.5838060"><ele>639.5</ele></trkpt>
      <trkpt lat="46.9209580" lon="7.5840130"><ele>639.3</ele></trkpt>
      <trkpt lat="46.9212330" lon="7.5840470"><ele>639.1</ele></trkpt>
      <trkpt lat="46.9222010" lon="7.5835440"><ele>637.7</ele></trkpt>
      <trkpt lat="46.9226530" lon="7.5832980"><ele>637.3</ele></trkpt>
      <trkpt lat="46.9228810" lon="7.5833180"><ele>637.3</ele></trkpt>
      <trkpt lat="46.9232490" lon="7.5835960"><ele>637.4</ele></trkpt>
      <trkpt lat="46.9233270" lon="7.5835850"><ele>637.5</ele></trkpt>
      <trkpt lat="46.9235240" lon="7.5835370"><ele>637.6</ele></trkpt>
      <trkpt lat="46.9237080" lon="7.5834690"><ele>637.9</ele></trkpt>
      <trkpt lat="46.9238760" lon="7.5833410"><ele>638.2</ele></trkpt>
      <trkpt lat="46.9241930" lon="7.5828990"><ele>639</ele></trkpt>
      <trkpt lat="46.9243330" lon="7.5826570"><ele>639.3</ele></trkpt>
      <trkpt lat="46.9250300" lon="7.5818720"><ele>639.4</ele></trkpt>
      <trkpt lat="46.9258050" lon="7.5808950"><ele>640.1</ele></trkpt>
      <trkpt lat="46.9258820" lon="7.5807280"><ele>640.3</ele></trkpt>
      <trkpt lat="46.9260500" lon="7.5807270"><ele>640.6</ele></trkpt>
      <trkpt lat="46.9262460" lon="7.5806510"><ele>641</ele></trkpt>
      <trkpt lat="46.9263920" lon="7.5805390"><ele>641.3</ele></trkpt>
      <trkpt lat="46.9265090" lon="7.5803620"><ele>641.7</ele></trkpt>
      <trkpt lat="46.9266310" lon="7.5800230"><ele>642.3</ele></trkpt>
      <trkpt lat="46.9266970" lon="7.5791740"><ele>643.3</ele></trkpt>
      <trkpt lat="46.9267470" lon="7.5789420"><ele>643.3</ele></trkpt>
      <trkpt lat="46.9268510" lon="7.5786650"><ele>643.3</ele></trkpt>
      <trkpt lat="46.9277730" lon="7.5770180"><ele>640.8</ele></trkpt>
      <trkpt lat="46.9278430" lon="7.5769120"><ele>640.7</ele></trkpt>
      <trkpt lat="46.9279210" lon="7.5766960"><ele>640.4</ele></trkpt>
      <trkpt lat="46.9282070" lon="7.5758050"><ele>639.4</ele></trkpt>
      <trkpt lat="46.9283750" lon="7.5754110"><ele>639.2</ele></trkpt>
      <trkpt lat="46.9288630" lon="7.5747710"><ele>639.4</ele></trkpt>
      <trkpt lat="46.9292560" lon="7.5744230"><ele>639.5</ele></trkpt>
      <trkpt lat="46.9294110" lon="7.5742500"><ele>639.5</ele></trkpt>
      <trkpt lat="46.9294730" lon="7.5740720"><ele>639.5</ele></trkpt>
      <trkpt lat="46.9298010" lon="7.5721350"><ele>639.3</ele></trkpt>
      <trkpt lat="46.9300130" lon="7.5722630"><ele>639.2</ele></trkpt>
      <trkpt lat="46.9300490" lon="7.5721740"><ele>639.1</ele></trkpt>
      <trkpt lat="46.9301820" lon="7.5721730"><ele>639.1</ele></trkpt>
      <trkpt lat="46.9302680" lon="7.5722160"><ele>639</ele></trkpt>
      <trkpt lat="46.9303370" lon="7.5721580"><ele>639</ele></trkpt>
      <trkpt lat="46.9303830" lon="7.5720670"><ele>638.9</ele></trkpt>
      <trkpt lat="46.9303920" lon="7.5717910"><ele>638.8</ele></trkpt>
      <trkpt lat="46.9305520" lon="7.5705200"><ele>637.3</ele></trkpt>
      <trkpt lat="46.9306310" lon="7.5702510"><ele>636.9</ele></trkpt>
      <trkpt lat="46.9304130" lon="7.5699690"><ele>636.5</ele></trkpt>
      <trkpt lat="46.9305250" lon="7.5699350"><ele>636.3</ele></trkpt>
      <trkpt lat="46.9307710" lon="7.5701740"><ele>636</ele></trkpt>
      <trkpt lat="46.9308490" lon="7.5701730"><ele>635.9</ele></trkpt>
      <trkpt lat="46.9309420" lon="7.5700640"><ele>635.8</ele></trkpt>
      <trkpt lat="46.9311680" lon="7.5696880"><ele>635.6</ele></trkpt>
      <trkpt lat="46.9312610" lon="7.5696250"><ele>635.6</ele></trkpt>
      <trkpt lat="46.9314480" lon="7.5695720"><ele>635.7</ele></trkpt>
      <trkpt lat="46.9315030" lon="7.5695180"><ele>635.7</ele></trkpt>
      <trkpt lat="46.9315920" lon="7.5690960"><ele>635.7</ele></trkpt>
      <trkpt lat="46.9316650" lon="7.5688830"><ele>635.7</ele></trkpt>
      <trkpt lat="46.9317620" lon="7.5687190"><ele>635.7</ele></trkpt>
      <trkpt lat="46.9319600" lon="7.5685370"><ele>635.6</ele></trkpt>
      <trkpt lat="46.9321540" lon="7.5682700"><ele>635.3</ele></trkpt>
      <trkpt lat="46.9321990" lon="7.5681360"><ele>635.1</ele></trkpt>
      <trkpt lat="46.9322900" lon="7.5676450"><ele>634.4</ele></trkpt>
      <trkpt lat="46.9323790" lon="7.5673770"><ele>633.9</ele></trkpt>
      <trkpt lat="46.9330580" lon="7.5659570"><ele>628.6</ele></trkpt>
      <trkpt lat="46.9331640" lon="7.5655870"><ele>627</ele></trkpt>
      <trkpt lat="46.9330840" lon="7.5655020"><ele>626.4</ele></trkpt>
      <trkpt lat="46.9330640" lon="7.5653910"><ele>625.9</ele></trkpt>
      <trkpt lat="46.9331320" lon="7.5652570"><ele>625.3</ele></trkpt>
      <trkpt lat="46.9332880" lon="7.5650500"><ele>624.2</ele></trkpt>
      <trkpt lat="46.9330130" lon="7.5648120"><ele>622.7</ele></trkpt>
      <trkpt lat="46.9329380" lon="7.5647170"><ele>622.3</ele></trkpt>
      <trkpt lat="46.9334810" lon="7.5642690"><ele>620.5</ele></trkpt>
      <trkpt lat="46.9342380" lon="7.5638640"><ele>621.7</ele></trkpt>
      <trkpt lat="46.9342970" lon="7.5638170"><ele>621.8</ele></trkpt>
      <trkpt lat="46.9343360" lon="7.5638930"><ele>622</ele></trkpt>
      <trkpt lat="46.9343820" lon="7.5639100"><ele>622.1</ele></trkpt>
      <trkpt lat="46.9347650" lon="7.5638600"><ele>622.9</ele></trkpt>
      <trkpt lat="46.9349330" lon="7.5639570"><ele>623.3</ele></trkpt>
      <trkpt lat="46.9350170" lon="7.5639610"><ele>623.4</ele></trkpt>
      <trkpt lat="46.9351010" lon="7.5639660"><ele>623.6</ele></trkpt>
      <trkpt lat="46.9351890" lon="7.5639300"><ele>623.8</ele></trkpt>
      <trkpt lat="46.9357370" lon="7.5637000"><ele>624.7</ele></trkpt>
      <trkpt lat="46.9361910" lon="7.5634710"><ele>624.2</ele></trkpt>
      <trkpt lat="46.9365240" lon="7.5633680"><ele>623.6</ele></trkpt>
      <trkpt lat="46.9373130" lon="7.5629970"><ele>623.6</ele></trkpt>
      <trkpt lat="46.9376420" lon="7.5629220"><ele>624.1</ele></trkpt>
      <trkpt lat="46.9389700" lon="7.5631460"><ele>628</ele></trkpt>
      <trkpt lat="46.9395470" lon="7.5629940"><ele>628.4</ele></trkpt>
      <trkpt lat="46.9402530" lon="7.5629750"><ele>626.3</ele></trkpt>
      <trkpt lat="46.9408820" lon="7.5627700"><ele>624.3</ele></trkpt>
      <trkpt lat="46.9413920" lon="7.5627740"><ele>622.8</ele></trkpt>
      <trkpt lat="46.9420000" lon="7.5626780"><ele>619.9</ele></trkpt>
      <trkpt lat="46.9421720" lon="7.5625740"><ele>618.9</ele></trkpt>
      <trkpt lat="46.9425610" lon="7.5621310"><ele>616.2</ele></trkpt>
      <trkpt lat="46.9426360" lon="7.5619110"><ele>615.3</ele></trkpt>
      <trkpt lat="46.9428930" lon="7.5615470"><ele>613.3</ele></trkpt>
      <trkpt lat="46.9431710" lon="7.5612820"><ele>611.7</ele></trkpt>
      <trkpt lat="46.9435260" lon="7.5610770"><ele>610.6</ele></trkpt>
      <trkpt lat="46.9437380" lon="7.5610310"><ele>610.5</ele></trkpt>
      <trkpt lat="46.9439850" lon="7.5610910"><ele>610.5</ele></trkpt>
      <trkpt lat="46.9442010" lon="7.5612050"><ele>610.5</ele></trkpt>
      <trkpt lat="46.9448150" lon="7.5616100"><ele>610</ele></trkpt>
      <trkpt lat="46.9455350" lon="7.5617500"><ele>607.7</ele></trkpt>
      <trkpt lat="46.9457030" lon="7.5617450"><ele>607.1</ele></trkpt>
      <trkpt lat="46.9458870" lon="7.5617110"><ele>606.5</ele></trkpt>
      <trkpt lat="46.9459790" lon="7.5614520"><ele>605.9</ele></trkpt>
      <trkpt lat="46.9460470" lon="7.5610520"><ele>605.2</ele></trkpt>
      <trkpt lat="46.9461350" lon="7.5608760"><ele>604.9</ele></trkpt>
      <trkpt lat="46.9460410" lon="7.5607900"><ele>604.7</ele></trkpt>
      <trkpt lat="46.9459260" lon="7.5606250"><ele>604.2</ele></trkpt>
      <trkpt lat="46.9455840" lon="7.5597690"><ele>600.3</ele></trkpt>
      <trkpt lat="46.9455070" lon="7.5595640"><ele>599.3</ele></trkpt>
      <trkpt lat="46.9454660" lon="7.5594330"><ele>598.7</ele></trkpt>
      <trkpt lat="46.9453500" lon="7.5592080"><ele>597.6</ele></trkpt>
      <trkpt lat="46.9451890" lon="7.5590800"><ele>596.4</ele></trkpt>
      <trkpt lat="46.9451530" lon="7.5589500"><ele>595.8</ele></trkpt>
      <trkpt lat="46.9451650" lon="7.5588220"><ele>595.1</ele></trkpt>
      <trkpt lat="46.9453910" lon="7.5585250"><ele>592.6</ele></trkpt>
      <trkpt lat="46.9456770" lon="7.5581640"><ele>588.9</ele></trkpt>
      <trkpt lat="46.9459190" lon="7.5574950"><ele>585.5</ele></trkpt>
      <trkpt lat="46.9460520" lon="7.5572250"><ele>584.7</ele></trkpt>
      <trkpt lat="46.9463110" lon="7.5568400"><ele>583.2</ele></trkpt>
      <trkpt lat="46.9463430" lon="7.5567880"><ele>583.1</ele></trkpt>
      <trkpt lat="46.9465190" lon="7.5564990"><ele>581.9</ele></trkpt>
      <trkpt lat="46.9465640" lon="7.5564810"><ele>581.7</ele></trkpt>
      <trkpt lat="46.9473080" lon="7.5562340"><ele>579</ele></trkpt>
      <trkpt lat="46.9478990" lon="7.5561140"><ele>577.3</ele></trkpt>
      <trkpt lat="46.9482060" lon="7.5560200"><ele>576.3</ele></trkpt>
      <trkpt lat="46.9484930" lon="7.5558900"><ele>575.3</ele></trkpt>
      <trkpt lat="46.9488870" lon="7.5556410"><ele>574.2</ele></trkpt>
      <trkpt lat="46.9491730" lon="7.5554110"><ele>573.4</ele></trkpt>
      <trkpt lat="46.9497460" lon="7.5547960"><ele>571.6</ele></trkpt>
      <trkpt lat="46.9496360" lon="7.5546210"><ele>571.1</ele></trkpt>
      <trkpt lat="46.9499810" lon="7.5539680"><ele>569.4</ele></trkpt>
      <trkpt lat="46.9501560" lon="7.5535380"><ele>568.3</ele></trkpt>
      <trkpt lat="46.9503410" lon="7.5530820"><ele>567.1</ele></trkpt>
      <trkpt lat="46.9504300" lon="7.5527430"><ele>566.4</ele></trkpt>
      <trkpt lat="46.9505620" lon="7.5516800"><ele>565</ele></trkpt>
      <trkpt lat="46.9506340" lon="7.5513800"><ele>564.7</ele></trkpt>
      <trkpt lat="46.9506690" lon="7.5512370"><ele>564.5</ele></trkpt>
      <trkpt lat="46.9508070" lon="7.5509490"><ele>564.2</ele></trkpt>
      <trkpt lat="46.9510660" lon="7.5505650"><ele>563.9</ele></trkpt>
      <trkpt lat="46.9514400" lon="7.5501620"><ele>563.8</ele></trkpt>
      <trkpt lat="46.9527070" lon="7.5488660"><ele>564.5</ele></trkpt>
      <trkpt lat="46.9529070" lon="7.5487250"><ele>565</ele></trkpt>
      <trkpt lat="46.9530520" lon="7.5486620"><ele>565.3</ele></trkpt>
      <trkpt lat="46.9534430" lon="7.5486470"><ele>566</ele></trkpt>
      <trkpt lat="46.9538520" lon="7.5487580"><ele>566.3</ele></trkpt>
      <trkpt lat="46.9539390" lon="7.5487700"><ele>566.3</ele></trkpt>
      <trkpt lat="46.9540970" lon="7.5487170"><ele>566.3</ele></trkpt>
      <trkpt lat="46.9541370" lon="7.5487760"><ele>566.4</ele></trkpt>
      <trkpt lat="46.9541920" lon="7.5487900"><ele>566.3</ele></trkpt>
      <trkpt lat="46.9542600" lon="7.5487210"><ele>566.3</ele></trkpt>
      <trkpt lat="46.9542620" lon="7.5485940"><ele>566.3</ele></trkpt>
      <trkpt lat="46.9542200" lon="7.5485330"><ele>566.3</ele></trkpt>
      <trkpt lat="46.9541710" lon="7.5483750"><ele>566.1</ele></trkpt>
      <trkpt lat="46.9541640" lon="7.5481910"><ele>566</ele></trkpt>
      <trkpt lat="46.9542140" lon="7.5475730"><ele>564.7</ele></trkpt>
      <trkpt lat="46.9541740" lon="7.5475670"><ele>564.6</ele></trkpt>
      <trkpt lat="46.9536870" lon="7.5474790"><ele>562.8</ele></trkpt>
      <trkpt lat="46.9531670" lon="7.5473950"><ele>561.3</ele></trkpt>
    </trkseg>
  </trk>
</gpx>
